NLLOC "./loc/vinti.19950423.012768.grid0" "REJECTED" "WARNING: max prob location on grid boundary, rejecting location."
SIGNATURE "Anthony Lomax - Geosciences Azur   NLLoc:v2.30 18Apr2001 15h26m25"
COMMENT "1995 Vintimiglia Sequence (NonLinLoc Sample Location)"
GRID  101 101 21  -50.000000 -50.000000 0.000000  1.000000 1.000000 1.000000 PROB_DENSITY
SEARCH OCTREE nInitial 400 nEvaluated 10000 smallestNodeSide 0.156250
HYPOCENTER  x 5.781250 y 4.218750 z 0.078125  OT 6.953242  ix -1 iy -1 iz -1
GEOGRAPHIC  OT 1995 04 23  01 28 6.953242  Lat 43.787952 Long 7.571829 Depth 0.078125
QUALITY  Pmax 4.339e-02 MFmin 0.755275 MFmax 6.107341 RMS 0.198035 Nphs 11 Gap 231 Dist 10.588263 Mamp -9.90 0 Mdur -9.90 0
VPVSRATIO  VpVsRatio 1.631e+00  Npair 3  Diff 1.070e+00
STATISTICS  ExpectX 5.6889e+00 Y 3.7618e+00 Z 6.1018e+00  CovXX 6.09e-01 XY -2.09e-01 XZ 8.74e-01 YY 3.61e+00 YZ 2.24e+00 ZZ 1.21e+01 EllAz1  82.0 Dip1  -5.8 Len1  1.32e+00 Az2  350.7 Dip2  -13.0 Len2  3.32e+00 Len3  6.70e+00
STAT_GEOG  ExpectLat 43.783839 Long 7.570676 Depth 6.101840
TRANSFORM  LAMBERT RefEllipsoid Clarke-1880  LatOrig 43.750000  LongOrig 7.500000  FirstStdParal 43.199300  SecondStdParal 44.996100  RotCW 0.000000
PHASE ID Ins Cmp On Pha  FM Date     HrMn   Sec     Err  ErrMag    Coda      Amp       Per      >   TTpred    Res       Weight    StaLoc(X  Y         Z)        SDist    SAzim  RAz   RDip  RQual
RONE   ?    ?    ? P      ? 19950423 0128    9.4100 GAU  1.00e-01 -1.00e+00 -1.00e+00 -1.00e+00 >    2.5488   -0.0920    1.3750    7.8887   14.5952   -0.3000   10.5883  11.48  11.5  51.7  7
RONE   ?    ?    ? S      ? 19950423 0128   11.3000 GAU  1.00e-01 -1.00e+00 -1.00e+00 -1.00e+00 >    4.2820    0.0648    1.3750    7.8887   14.5952   -0.3000   10.5883  11.48  11.5  51.7  7
NEGI   ?    ?    ? P      ? 19950423 0128    9.9700 GAU  1.00e-01 -1.00e+00 -1.00e+00 -1.00e+00 >    2.9374    0.0394    1.3750   16.3893   10.8705   -0.6400   12.5211  57.91  57.9  44.1  9
NEGI   ?    ?    ? S      ? 19950423 0128   12.2800 GAU  1.00e-01 -1.00e+00 -1.00e+00 -1.00e+00 >    4.9347    0.3520    1.3750   16.3893   10.8705   -0.6400   12.5211  57.91  57.9  44.1  9
SBF    ?    ?    i p      d 19950423 0128    9.9800 GAU  1.00e-01 -1.00e+00 -1.00e+00 -1.00e+00 >    3.1977   -0.1709    1.3750   -5.2384   12.6113   -0.8470   13.8516 307.29 307.3  42.2  9
CEPP   ?    ?    ? P      ? 19950423 0128   11.0000 GAU  1.00e-01 -1.00e+00 -1.00e+00 -1.00e+00 >    4.2690   -0.2223    1.3750   19.7971   18.5085   -1.0800   20.0160  44.45  44.4  41.8 10
CEPP   ?    ?    ? S      ? 19950423 0128   13.9600 GAU  1.00e-01 -1.00e+00 -1.00e+00 -1.00e+00 >    7.1720   -0.2052    1.3750   19.7971   18.5085   -1.0800   20.0160  44.45  44.4  41.8 10
AURF   ?    ?    ? p      ? 19950423 0128   12.0700 GAU  1.00e+05 -1.00e+00 -1.00e+00 -1.00e+00 >    4.6823    0.3945    0.0000  -13.8607   15.2716   -1.0400   22.5382 299.37 299.4  41.8 10
AUTN   ?    ?    ? p      ? 19950423 0128    8.4000 GAU  1.00e+05 -1.00e+00 -1.00e+00 -1.00e+00 >    5.4186   -3.9718    0.0000   -5.8149   27.2765   -2.0690   25.8096 333.30 333.3  41.8 10
MVIF   ?    ?    ? p      ? 19950423 0128   15.0500 GAU  1.00e+05 -1.00e+00 -1.00e+00 -1.00e+00 >    6.9757    1.1211    0.0000  -27.9180   16.3343   -1.4800   35.8109 289.77 289.8  41.8 10
TOUF   ?    ?    P G      ? 19950423 0128   14.2800 GAU  1.00e-01 -1.00e+00 -1.00e+00 -1.00e+00 >    7.0925    0.2343    1.3750  -20.1791   29.3046   -1.8500   36.1004 314.02 314.0  41.8 10
END_PHASE
END_NLLOC

