NLLOC "./loc/vinti.19950422.154719.grid0" "LOCATED" "Location completed."
SIGNATURE "Anthony Lomax - Geosciences Azur   NLLoc:v2.30 21May2001 10h45m59"
COMMENT "1995 Vintimiglia Sequence (NonLinLoc Sample Location)"
GRID  101 101 21  -50.000000 -50.000000 0.000000  1.000000 1.000000 1.000000 PROB_DENSITY
SEARCH OCTREE nInitial 400 nEvaluated 10000 smallestNodeSide 0.156250
HYPOCENTER  x 3.281250 y 2.656250 z 10.390625  OT 16.170514  ix -1 iy -1 iz -1
GEOGRAPHIC  OT 1995 04 22  15 47 16.170514  Lat 43.773903 Long 7.540758 Depth 10.390625
QUALITY  Pmax 3.601e-05 MFmin 1.254636 MFmax 8.186559 RMS 0.280545 Nphs 13 Gap 231 Dist 12.797117 Mamp -9.90 0 Mdur  0.00 0
VPVSRATIO  VpVsRatio 1.767e+00  Npair 4  Diff 2.350e+00
STATISTICS  ExpectX 3.2256e+00 Y 1.7770e+00 Z 8.1763e+00  CovXX 3.07e-01 XY -6.21e-02 XZ 4.30e-01 YY 3.72e+00 YZ 3.93e+00 ZZ 1.10e+01 EllAz1  83.8 Dip1  -4.6 Len1  9.68e-01 Az2  351.8 Dip2  -23.2 Len2  2.68e+00 Len3  6.70e+00
STAT_GEOG  ExpectLat 43.765988 Long 7.540062 Depth 8.176255
TRANSFORM  LAMBERT RefEllipsoid Clarke-1880  LatOrig 43.750000  LongOrig 7.500000  FirstStdParal 43.199300  SecondStdParal 44.996100  RotCW 0.000000
PHASE ID Ins Cmp On Pha  FM Date     HrMn   Sec     Err  ErrMag    Coda      Amp       Per      >   TTpred    Res       Weight    StaLoc(X  Y         Z)        SDist    SAzim  RAz   RDip  RQual
RONE   ?    ?    ? P      ? 19950422 1547   19.2900 GAU  1.00e-01 -1.00e+00 -1.00e+00 -1.00e+00 >    3.0431    0.0764    1.0000    7.8887   14.5952   -0.3000   12.7971  21.10  21.1 122.3  9
RONE   ?    ?    ? S      ? 19950422 1547   21.0200 GAU  1.00e-01 -1.00e+00 -1.00e+00 -1.00e+00 >    5.1124   -0.2629    1.0000    7.8887   14.5952   -0.3000   12.7971  21.10  21.1 122.3  9
SBF    ?    ?    P G      ? 19950422 1547   19.8900 GAU  1.00e-01 -1.00e+00 -1.00e+00 -1.00e+00 >    3.1985    0.5210    1.0000   -5.2384   12.6113   -0.8470   13.1030 319.44 319.4 122.4  9
NEGI   ?    ?    ? P      ? 19950422 1547   19.8000 GAU  1.00e-01 -1.00e+00 -1.00e+00 -1.00e+00 >    3.4895    0.1000    1.0000   16.3893   10.8705   -0.6400   15.4692  57.93  57.9 117.2  9
NEGI   ?    ?    ? S      ? 19950422 1547   21.9400 GAU  1.00e-01 -1.00e+00 -1.00e+00 -1.00e+00 >    5.8623   -0.1328    1.0000   16.3893   10.8705   -0.6400   15.4692  57.93  57.9 117.2  9
AURF   ?    ?    P G      ? 19950422 1547   20.6300 GAU  1.00e-01 -1.00e+00 -1.00e+00 -1.00e+00 >    4.4375    0.0219    1.0000  -13.8607   15.2716   -1.0400   21.2836 306.35 306.4 109.2  9
CEPP   ?    ?    ? P      ? 19950422 1547   20.9600 GAU  1.00e-01 -1.00e+00 -1.00e+00 -1.00e+00 >    4.6929    0.0966    1.0000   19.7971   18.5085   -1.0800   22.8925  46.17  46.2 107.4  9
CEPP   ?    ?    ? S      ? 19950422 1547   23.9700 GAU  1.00e-01 -1.00e+00 -1.00e+00 -1.00e+00 >    7.8840   -0.0845    1.0000   19.7971   18.5085   -1.0800   22.8925  46.17  46.2 107.4  9
AUTN   ?    ?    P G      ? 19950422 1547   21.7300 GAU  1.00e-01 -1.00e+00 -1.00e+00 -1.00e+00 >    5.4082    0.1513    1.0000   -5.8149   27.2765   -2.0690   26.2469 339.72 339.7 104.8  9
IMI    ?    ?    ? P      ? 19950422 1547   22.3300 GAU  1.00e-01 -1.00e+00 -1.00e+00 -1.00e+00 >    6.1004    0.0590    1.0000   31.5793   17.9062   -0.8400   32.1456  61.68  61.7  99.6  9
IMI    ?    ?    ? S      ? 19950422 1547   26.4100 GAU  1.00e-01 -1.00e+00 -1.00e+00 -1.00e+00 >   10.2488   -0.0093    1.0000   31.5793   17.9062   -0.8400   32.1456  61.68  61.7  99.6  9
MVIF   ?    ?    P G      ? 19950422 1547   21.9500 GAU  1.00e-01 -1.00e+00 -1.00e+00 -1.00e+00 >    6.5283   -0.7488    1.0000  -27.9180   16.3343   -1.4800   34.0658 293.67 293.7  98.5  9
TOUF   ?    ?    P G      ? 19950422 1547   23.2500 GAU  1.00e-01 -1.00e+00 -1.00e+00 -1.00e+00 >    6.8274    0.2120    1.0000  -20.1791   29.3046   -1.8500   35.5038 318.64 318.6  97.8  9
END_PHASE
END_NLLOC

