 HYPOINVERSE 2000
 1/2008 VERSION 1.2 (f77/g77 compiler)                                 
 RUN ON Tue May 27 14:23:33 2008
     RUN LABEL= 
 PROCESSING DOMAIN=NC  PROCESSING VERSION=01


 TEST PARAMETERS:
   -ITERATION AND CONVERGENCE-     -WEIGHTING AND ERRORS-     -MISCELLANEOUS-
       20=ITRLIM   0.900=DAMP    50.000=DISCUT   0.160=RMSCUT       4=MINSTA
    0.040=DQUIT    0.001=DRQT     1.000=DISW1    1.500=RMSW1        0=NET
    7.000=DXFIX    0.012=EIGTOL   3.000=DISW2    3.000=RMSW2 
   30.000=DZMAX    0.020=RBACK        4=ITRDIS       4=ITRRES   7.000=ZTR
    0.500=DZAIR    0.600=BACFAC   1.000=SWT      0.150=RDERR    1.750=POS
                                                 1.000=ERCOF

      ------DURATION MAG CONSTANTS------       -DELAYS & MISC-    -STATIONS-
   -0.810=FMA1     0.000=FMA2   -1.0300=DMA0         F=LMULT        F=ATTEN
    2.220=FMB1     0.000=FMB2    2.1000=DMA1         T=CODAWT       4=SITE-LET
    0.000=FMZ1     0.000=FMZ2    0.0000=DMA2         F=LJUNK        0=NET-LET
    0.001=FMD1     0.000=FMD2    0.0000=DMZ                         0=COMP-LET
    0.000=FMF1     0.000=FMF2    1.0000=DMGN  
    1.000=FMGN  9999.000=FMBRK   0.0027=DMLIN 
   0.0000=DCOF1    0.000=DBRK1        1=LOGA0 
   0.0000=DCOF2    0.000=DBRK2 
   0.0000=ZCOF     0.000=ZBRK  

    --- MAGNITUDE LABELS & COMPONENTS ---
    FMAG1: LABEL=   ALL COMPS=
    FMAG2: LABEL=    NO COMPS=
    XMAG1: LABEL=   ALL  TYPE=ALL  COMPS=
    XMAG2: LABEL=    NO  TYPE=ALL  COMPS=
    FMAG1 MAGSEL=1  FMAG2 MAGSEL=1

 INPUT FILES:
 COMMANDS:    test2000.hyp                                                
                                                                          
 STATIONS:    all2.sta                                                    STATION FORMAT CODE= 3
 DELAYS:                                                                   
 ATTENUATIONS:                                                             
 CAL FACTORS:                                                              
 FMAG CORRECT:                                                             
 XMAG CORRECT:                                                             

 PHASES:       test2000.arc                                                
        PHASE FORMAT CODE= 5, TERMINATOR FORMAT CODE=1
 HOMOGENEOUS LAYER CRUST 1:  mam.crh                                                     

 OUTPUT FILES: (T IF APPENDED TO)
 (F) PRINTOUT:    test2000.prt                                                
 (F) ARCHIVE:     test2000out.arc                                             ARCHIVE FORMAT CODE= 3
 
1 26 JUN 1998, 20:07  SEQUENCE NO.    1, ID NO.  51057145
                                                        ADJUSTMENTS (KM)
  I ORIGIN   LAT N     LON W     Z   NWR  RMS    DT    DLAT   DLON    DZ    RR NF MOD
  1 41.10  37 35.70  118 50.05  7.00 188 1.20  0.528 -6.438  1.949  0.000 6.727 3 MAM
 FREE DEPTH
  2 41.63  37 32.23  118 51.38  7.00 188 1.07 -0.011 -0.035  0.071 -0.070 0.106 4 MAM
  3 41.62  37 32.21  118 51.42  6.93 188 1.07  0.000  0.009 -0.003  0.031 0.032 4 MAM
 BEGIN MAIN DISTANCE WEIGHTING
 BEGIN RESIDUAL WEIGHTING
  4 41.62  37 32.21  118 51.42  6.96  30 0.40  0.243  4.444 -3.231  1.868 5.803 4 MAM
  5 41.86  37 34.61  118 49.22  8.83  31 0.22 -0.093  0.551 -0.379 -1.026 1.225 4 MAM
  6 41.77  37 34.91  118 48.97  7.80  30 0.12  0.007  0.057 -0.169 -0.804 0.823 4 MAM
  7 41.77  37 34.94  118 48.85  7.00  28 0.11 -0.006  0.122 -0.024  0.116 0.170 4 MAM
  8 41.77  37 35.00  118 48.83  7.11  28 0.11  0.006 -0.041 -0.027 -0.310 0.314 4 MAM
  9 41.78  37 34.98  118 48.82  6.80  28 0.11 -0.004  0.007 -0.012  0.050 0.052 4 MAM

              EIGENVALUES
     ( 6.461  0.891  0.434  0.266)
      EIGENVECTORS OF ADJUSTMENT                COVARIANCE             ERRORS
 OT  (-0.998  0.054 -0.020  0.009) (   0.001   0.002   0.000  -0.006)   0.033
 LAT ( 0.033  0.357 -0.836 -0.416) (   0.002   0.223  -0.037   0.129)   0.472
 LON ( 0.040  0.902  0.423 -0.074) (   0.000  -0.037   0.072   0.051)   0.269
 Z   (-0.028 -0.236  0.349 -0.907) (  -0.006   0.129   0.051   0.435)   0.659
 ERROR ELLIPSE: <SERR AZ DIP>-<   0.71 349 65>-<   0.43 206 20>-<   0.21 112 13>
 ------------------------------------------------------------------------------------
 YEAR MO DA  --ORIGIN--  --LAT N-  --LON W--  DEPTH   RMS   ERH   ERZ  XMAG  FMAG  PMAG
 1998-06-26  2007 41.78  37 34.98  118 48.82   6.80  0.11  0.41  0.64        3.94       
                                                                                          SOURCE
 NSTA NPHS  DMIN MODEL GAP ITR NFM NWR NWS NVR REMRKS-AVH  N.XMG-XMMAD-T   N.FMG-FMMAD-T  L F X
  189  189   1.6  MAM   66   9 178  28   0 189         2       0  0.00       181  0.16    W W  

 BERKELEY MAG= 4.26  NUMBER READINGS=    8  TYPE=L
 REGION=                          

 STA NET COM L CR DIST AZM  AN P/S WT   SEC (TOBS -TCAL -DLY  =RES)  WT   SR  INFO  CAL DUR-W-FMAG-T -AMP-U-PER-W-XMAG-T DEV
 MCV  NC VHZ   VM  1.6 300 164  PU    43.10  1.32  1.43 0.00 -0.11  1.32  W  0.452 0.00 159   4.08                           
 MCM  NC VHZ   VM  6.0 299 131  PD    43.55  1.77  1.83 0.00 -0.06  1.32  W  0.153 0.00 185   4.23                           
 MDR  NC VHZ   VM  6.4 343 129  PD    43.65  1.87  1.88 0.00 -0.01  1.32  W  0.179 0.00 589   5.35                           
 MGP  NC VHZ   VM  9.2 302 118  PD    44.09  2.31  2.28 0.00  0.03  1.32  W  0.081 0.00 416 2 5.01                           
 MLC  NC VHZ   VM  9.5 290 116  PU    44.10  2.32  2.33 0.00 -0.01  1.32  W  0.089 0.00 127   3.87                           
 MLH  NC VHZ   VM 10.6   0 113  PD    44.33  2.55  2.49 0.00  0.06  1.32  W  0.208 0.00 677 2 5.49                           
 MCS  NC VHZ   VM 11.4 315 111  PD 1  44.47  2.69  2.62 0.00  0.07  0.99  W  0.048 0.00 212   4.37                           
 MSL  NC VLN   NM 13.2 287 108  PU    44.67  2.89  2.90 0.00 -0.01  1.32  W  0.079 0.00 162   4.11                           
 MEM  NC VHZ   VM 14.5 310 105  PD    44.95  3.17  3.11 0.00  0.06  1.32  W  0.085 0.00 276   4.62                           
 MTC  NC VLZ   ZM 14.5 292 105  PD    45.07  3.29  3.11 0.00  0.18  1.32  W  0.073 0.00  79   3.42                           
 MLK  NC VHZ   VM 17.0 303 102  PD    45.49  3.71  3.52 0.00  0.19  1.32  W  0.083 0.00 175   4.19                           
 MMP  NC VHZ   VM 19.2 279 100  PU    45.61  3.83  3.90 0.00 -0.07  1.32  W  0.100 0.00 139   3.97                           
 MLM  NC VHZ   VM 19.9 324  99  PD 2  44.41  2.63  4.02 0.00 -1.39* 0.00  W  0.000 0.00 242   4.50                           
 MMS  NC VHZ   VM 20.0 286  99  PU    45.90  4.12  4.02 0.00  0.10  1.32  W  0.089 0.00 125   3.87                           
 CAS  NN VHZ   VU 23.2  92  97  PD    46.25  4.47  4.56 0.00 -0.09  1.32  W  0.173 0.00 147   4.03                           
 MDP  NC VHZ   VM 24.1 284  97  PU    46.39  4.61  4.72 0.00 -0.11  1.32  W  0.099 0.00 117   3.81                           
 MDC  NC VHZ   VM 24.6 305  97  PD    46.42  4.64  4.79 0.00 -0.15  1.32  W  0.108 0.00 205   4.35                           
 BEN  NN VHZ   VU 25.8  55  96  PD    46.39  4.61  5.00 0.00 -0.39  0.36  W  0.018 0.00 217   4.41                           
 MRC  NC VHZ   VM 28.9  69  78  PU    47.06  5.28  5.51 0.00 -0.23  1.32  W  0.244 0.00 123   3.86                           
 MCD  NC VHZ   VM 32.9  96  78  PU    48.07  6.29  6.19 0.00  0.10  1.32  W  0.158 0.00 191 1 4.29                           
 MTU  NC VHZ   VM 33.8 139  78  PD    48.03  6.25  6.33 0.00 -0.08  1.32  W  0.219 0.00 123   3.87                           
 MFB  NC VHZ   VM 38.0 116  78  PD    49.00  7.22  7.03 0.00  0.19  1.32  W  0.157 0.00 210   4.39                           
 SLK  NN VHZ   VU 39.3 316  78  PU    48.92  7.14  7.25 0.00 -0.11  1.32  W  0.293 0.00 162   4.14                           
 MMT  NC VHZ   VM 39.7 235  78  PU    49.01  7.23  7.31 0.00 -0.08  1.32  W  0.310 0.00  95   3.62                           
 MLN  NN VHZ   VU 41.6  88  78  PU    49.40  7.62  7.62 0.00  0.00  1.32  W  0.175 0.00  15 3 1.85                           
 BHP  NN VHZ   VU 42.7 137  78  PD 2  49.67  7.89  7.81 0.00  0.08  0.66  W  0.052 0.00  17   1.97                           
 MWB  NC VHZ   VM 62.4 137  78  PD    52.91 11.13 11.08 0.00  0.05  1.27  W  0.196 0.00 139   4.02                           
 MBE  NC VHZ   VM101.9 205  78  PU    59.03 17.25 17.64 0.00 -0.39  0.17  W  0.006 0.00  95   3.69                           
 FRI  BK VHZ   VM102.9 231  78  PU    59.31 17.53 17.81 0.00 -0.28  0.57  W  0.059 0.00   7 4 1.18X                          
 MPR  NC VHZ   VM108.7 284  78  PU    60.09 18.31 18.77 0.00 -0.46  0.01  W  0.000 0.00 141   4.08                           
                                PU 1  60.12 18.34 18.77 0.00 -0.43  0.03  W  0.000 0.00   7 4 1.19X                          
 MBU  NC VHZ   VM111.5 270  78  PU    60.55 18.77 19.24 0.00 -0.47  0.00  W  0.000 0.00 115   3.89                           
 MLR  NC VHZ   VM131.5 296  76  PU 3  63.84 22.06 22.52 0.00 -0.46  0.00  W  0.000 0.00 121   3.96                           
 MBO  NC VHZ   VM137.9 276  76  PU    64.75 22.97 23.59 0.00 -0.62* 0.00  W  0.000 0.00 119   3.95                           
 MYL  NC VHZ   VM143.9 262  76  P  2  65.96 24.18 24.56 0.00 -0.38  0.00  W  0.000 0.00  47   3.06                           
 MST  NC VHZ   VM144.9 285  76  PU    65.55 23.77 24.74 0.00 -0.97* 0.00  W  0.000 0.00 109   3.87                           
 MRH  NC VHZ   VM145.9 190  76  PD    65.84 24.06 24.91 0.00 -0.85* 0.00  W  0.000 0.00  71   3.46                           
 MOY  NC VHZ   VM158.7 284  76  PU    67.76 25.98 27.01 0.00 -1.03* 0.00  W  0.000 0.00  93   3.73                           
 MCU  NC VHZ   VM164.9 286  76  PU    68.68 26.90 28.03 0.00 -1.13* 0.00  W  0.000 0.00 115   3.95                           
 WLH  CI VHZ   VW164.9 164  76  PD    69.34 27.56 28.03 0.00 -0.47  0.00  W  0.000 0.00 119 1 3.98                           
 MRF  NC VHZ   VM167.0 297  76  PU 1  69.21 27.43 28.37 0.00 -0.94* 0.00  W  0.000 0.00  95   3.76                           
 PHB  NC VHZ   VP186.4 218  76  PU    73.30 31.52 31.58 0.00 -0.06  0.00  W  0.000 0.00 139   4.15                           
 MNH  NC VHZ   VM186.9 291  76  PU    72.17 30.39 31.65 0.00 -1.26* 0.00  W  0.000 0.00 141   4.17                           
 PDR  NC VHZ   VP195.9 226  76  PU    74.33 32.55 33.13 0.00 -0.58* 0.00  W  0.000 0.00 141   4.18                           
 BRM  NC VHZ   VB196.4 246  76  PU    74.61 32.83 33.23 0.00 -0.40  0.00  W  0.000 0.00 115 1 3.98                           
 WCH  CI VHZ   VW200.3 160  76  PD    74.94 33.16 33.87 0.00 -0.71* 0.00  W  0.000 0.00 107   3.92                           
 PAR  NC VHZ   VP201.2 224  76  PU    75.11 33.33 34.01 0.00 -0.68* 0.00  W  0.000 0.00 119   4.02                           
 WVP  CI VHZ   VW201.9 153  76  PU 2  75.05 33.27 34.13 0.00 -0.86* 0.00  W  0.000 0.00 111   3.95                           
 ADW  NC VHZ   VA202.5 299  76  PU 2  74.60 32.82 34.22 0.00 -1.40* 0.00  W  0.000 0.00  97 1 3.82                           
 BMS  NC VHZ   VB203.4 241  76  PU    75.31 33.53 34.38 0.00 -0.85* 0.00  W  0.000 0.00 117   4.01                           
 AOD  NC VHZ   VA203.4 305  76  PD 1  75.10 33.32 34.38 0.00 -1.06* 0.00  W  0.000 0.00 109   3.94                           
 PKE  NC VHZ   VP204.7 215  62  PU    75.83 34.05 34.58 0.00 -0.53* 0.00  W  0.000 0.00 109   3.94                           
 WAS  CI VHZ   VW206.1 173  62  PD    76.01 34.23 34.79 0.00 -0.56* 0.00  W  0.000 0.00  83   3.68                           
 WRC  CI VHZ   VW209.1 149  62  PD 1  75.28 33.50 35.24 0.00 -1.74* 0.00  W  0.000 0.00 167   4.35                           
 WNM  CI VHZ   VW209.5 156  62  PD    76.54 34.76 35.31 0.00 -0.55* 0.00  W  0.000 0.00 103 2 3.89                           
 HSL  NC VHZ   VH211.0 254  62  PU    75.31 33.53 35.53 0.00 -2.00* 0.00  W  0.000 0.00 117   4.01                           
 WMP  NC VHZ   VW215.6 179  47  PU    77.06 35.28 36.21 0.00 -0.93* 0.00  W  0.000 0.00  71   3.54                           
 WOR  CI VHZ   VW215.6 166  47  PU    77.23 35.45 36.21 0.00 -0.76* 0.00  W  0.000 0.00  99   3.86                           
 PPG  NC VHZ   VP216.5 209  47  PU    77.23 35.45 36.33 0.00 -0.88* 0.00  W  0.000 0.00 121   4.05                           
 ALA  NC VHZ   VA217.5 301  47  PU 2  76.96 35.18 36.46 0.00 -1.28* 0.00  W  0.000 0.00 107   3.93                           
 TOW  CI VHZ   VW218.0 154  47  P  3  78.47 36.69 36.52 0.00  0.17  0.00  W  0.000 0.00 202 1 4.55                           
 PRC  NC VLN   NP218.1 229  47  PU 1  76.92 35.14 36.53 0.00 -1.39* 0.00  W  0.000 0.00  87   3.74                           
 AAS  NC VHZ   VA222.5 296  47  PU    78.02 36.24 37.08 0.00 -0.84* 0.00  W  0.000 0.00 125   4.09                           
 BAV  NC VLE   EB222.8 243  47  PU    77.70 35.92 37.12 0.00 -1.20* 0.00  W  0.000 0.00  99   3.87                           
 CMP  NC VHZ   VC223.0 265  47  PU    77.62 35.84 37.14 0.00 -1.30* 0.00  W  0.000 0.00  77   3.62                           
 PHR  NC VLN   NP223.4 234  47  PU    77.55 35.77 37.20 0.00 -1.43* 0.00  W  0.000 0.00  91 1 3.78                           
 HPC  NC VLZ   ZH225.9 256  47  PU    78.07 36.29 37.50 0.00 -1.21* 0.00  W  0.000 0.00  79   3.65                           
 COS  NC VHZ   VC226.6 269  47  PU    78.18 36.40 37.59 0.00 -1.19* 0.00  W  0.000 0.00  97   3.85                           
 BBG  NC VHZ   VB227.2 242  47  PU    78.70 36.92 37.66 0.00 -0.74* 0.00  W  0.000 0.00 139   4.20                           
 BEM  NC VHZ   VB227.3 244  47  PU    78.37 36.59 37.68 0.00 -1.09* 0.00  W  0.000 0.00 125   4.10                           
 PCA  NC VHZ   VP228.3 218  47  PU    78.79 37.01 37.81 0.00 -0.80* 0.00  W  0.000 0.00 103   3.91                           
 PSM  NC ASZ   IP231.4 224  47  PU 1  78.80 37.02 38.19 0.00 -1.17* 0.00  W  0.000 0.00 103   3.91                           
 PSR  NC VHZ   VP232.2 215  47  PU 1  78.88 37.10 38.29 0.00 -1.19* 0.00  W  0.000 0.00  93   3.82                           
 PMP  NC VLN   NP233.0 230  47  PD 3  79.26 37.48 38.39 0.00 -0.91* 0.00  W  0.000 0.00  97   3.86                           
 BEH  NC VHZ   VB233.3 245  47  PU 3  79.29 37.51 38.43 0.00 -0.92* 0.00  W  0.000 0.00 123   4.09                           
 BBN  NC VHZ   VB233.8 241  47  PU 3  79.34 37.56 38.50 0.00 -0.94* 0.00  W  0.000 0.00 229 1 4.69                           
 BRV  NC VHZ   VB234.7 238  47  PU 1  79.11 37.33 38.60 0.00 -1.27* 0.00  W  0.000 0.00 117   4.04                           
 HLT  NC VHZ   VH234.7 252  47  PU 3  79.14 37.36 38.60 0.00 -1.24* 0.00  W  0.000 0.00 115   4.02                           
 WBS  CI VHZ   VW234.9 164  47  P  2  79.67 37.89 38.63 0.00 -0.74* 0.00  W  0.000 0.00  89   3.78                           
 PMM  NC VHZ   VP235.0 221  47  PU 1  79.50 37.72 38.64 0.00 -0.92* 0.00  W  0.000 0.00  85   3.73                           
 PBW  NC VHZ   VP235.2 234  47  PU    79.26 37.48 38.67 0.00 -1.19* 0.00  W  0.000 0.00  87 1 3.75                           
 PHF  NC VLE   EP236.2 218  47  PU 2  79.18 37.40 38.79 0.00 -1.39* 0.00  W  0.000 0.00  81 1 3.69                           
 PBS  NC VHZ   VP236.3 211  47  PU 1  79.51 37.73 38.80 0.00 -1.07* 0.00  W  0.000 0.00  81   3.69                           
 HJS  NC VHZ   VH236.5 250  47  PU    79.52 37.74 38.82 0.00 -1.08* 0.00  W  0.000 0.00 117   4.04                           
 PMR  NC VHZ   VP236.7 213  47  PU 1  79.36 37.58 38.85 0.00 -1.27* 0.00  W  0.000 0.00  93   3.82                           
 AFH  NC VHZ   VA237.1 314  47  PD    80.66 38.88 38.90 0.00 -0.02  0.00  W  0.000 0.00  93   3.82                           
 CST  NC VHZ   VC237.2 273  47  PU    79.65 37.87 38.91 0.00 -1.04* 0.00  W  0.000 0.00 150   4.28                           
 CMM  NC VHZ   VC237.4 268  47  PU    79.49 37.71 38.94 0.00 -1.23* 0.00  W  0.000 0.00  99   3.88                           
 BHR  NC VHZ   VB237.7 248  47  PU 1  79.67 37.89 38.98 0.00 -1.09* 0.00  W  0.000 0.00 121   4.08                           
 PST  NC VHZ   VP238.1 221  47  PU 2  79.43 37.65 39.03 0.00 -1.38* 0.00  W  0.000 0.00  75 1 3.61                           
 PGH  NC AFZ   AP238.2 216  47  PU 2  79.09 37.31 39.04 0.00 -1.73* 0.00  W  0.000 0.00  65   3.48                           
 BVL  NC VLE   EB239.2 243  47  PU    79.87 38.09 39.16 0.00 -1.07* 0.00  W  0.000 0.00 143   4.24                           
 HFE  NC VHZ   VH239.2 255  47  PU 1  79.77 37.99 39.16 0.00 -1.17* 0.00  W  0.000 0.00  99   3.88                           
 PHP  NC VHZ   VP239.3 223  47  PD 1  79.33 37.55 39.18 0.00 -1.63* 0.00  W  0.000 0.00  97   3.86                           
                                P  1  79.69 37.91 39.18 0.00 -1.27* 0.00  W  0.000 0.00   5 4 1.00X                          
 HGS  NC VHZ   VH239.7 258  47  PU    80.04 38.26 39.22 0.00 -0.96* 0.00  W  0.000 0.00 107   3.96                           
 PHA  NC VHZ   VP240.1 217  47  PU 2  79.54 37.76 39.28 0.00 -1.52* 0.00  W  0.000 0.00 105   3.94                           
 BLR  NC VHZ   VB241.1 246  47  PD 3  81.31 39.53 39.40 0.00  0.13  0.00  W  0.000 0.00 248 2 4.77                           
 PHO  NC VHZ   VP241.7 219  47  PU 1  79.79 38.01 39.48 0.00 -1.47* 0.00  W  0.000 0.00 105 1 3.94                           
 AFD  NC VHZ   VA241.8 310  47  PU    81.36 39.58 39.49 0.00  0.09  0.00  W  0.000 0.00 136   4.19                           
 CAO  NC VHZ   VC242.2 265  47  PU 3  80.10 38.32 39.54 0.00 -1.22* 0.00  W  0.000 0.00 105 1 3.94                           
 BPI  NC VHZ   VB242.2 241  47  PU 3  79.90 38.12 39.54 0.00 -1.42* 0.00  W  0.000 0.00 137   4.20                           
 PAG  NC ASZ   IP242.2 213  47  PU    79.88 38.10 39.54 0.00 -1.44* 0.00  W  0.000 0.00 135   4.19                           
 BSL  NC VHZ   VB242.4 250  47  PU    80.54 38.76 39.57 0.00 -0.81* 0.00  W  0.000 0.00 123   4.10                           
 WJP  CI VHZ   VW242.8 172  47  PD    81.24 39.46 39.62 0.00 -0.16  0.00  W  0.000 0.00 111   4.00                           
 AHR  NC VHZ   VA243.0 307  47  PD    81.20 39.42 39.64 0.00 -0.22  0.00  W  0.000 0.00 117   4.05                           
 HPH  NC VHZ   VH244.0 252  47  PD 1  81.00 39.22 39.76 0.00 -0.54* 0.00  W  0.000 0.00  77   3.65                           
 BCG  NC VHZ   VB244.8 248  47  PU 3  80.60 38.82 39.86 0.00 -1.04* 0.00  W  0.000 0.00  93   3.83                           
 HCA  NC VHZ   VH244.8 257  47  PU    80.73 38.95 39.87 0.00 -0.92* 0.00  W  0.000 0.00 105   3.95                           
 HSP  NC VHZ   VH245.2 259  47  PU    80.87 39.09 39.91 0.00 -0.82* 0.00  W  0.000 0.00 119   4.07                           
 BJO  NC VLN   NB247.1 245  47  PU 2  80.38 38.60 40.16 0.00 -1.56* 0.00  W  0.000 0.00  99   3.89                           
 PLO  NC VHZ   VP248.0 234  47  PU 1  80.75 38.97 40.26 0.00 -1.29* 0.00  W  0.000 0.00 125   4.12                           
 PTR  NC VHZ   VP248.0 211  47  PU    80.83 39.05 40.26 0.00 -1.21* 0.00  W  0.000 0.00  87   3.77                           
 PWK  NC VHZ   VP248.1 219  47  PU 1  80.70 38.92 40.28 0.00 -1.36* 0.00  W  0.000 0.00 109   3.99                           
 PMC  NC VHZ   VP248.8 215  47  PU 2  80.82 39.04 40.36 0.00 -1.32* 0.00  W  0.000 0.00  93   3.83                           
 BVY  NC VHZ   VB249.1 249  47  PU    81.16 39.38 40.41 0.00 -1.03* 0.00  W  0.000 0.00 103   3.93                           
 WSH  CI VHZ   VW249.8 151  47  PD    83.38 41.60 40.49 0.00  1.11* 0.00  W  0.000 0.00  83 1 3.73                           
 HOR  NC VHZ   VH250.8 254  47  PU    81.26 39.48 40.61 0.00 -1.13* 0.00  W  0.000 0.00 157   4.34                           
 CBS  NC VHZ   VC250.8 277  47  PU 3  81.42 39.64 40.61 0.00 -0.97* 0.00  W  0.000 0.00 127   4.14                           
