NLLOC "./loc/layer.19950421.080259.grid0" "LOCATED" "Location completed."
SIGNATURE "Anthony Lomax - Geosciences Azur    NLLoc:v2.00X 08Sep2000 14h23m23"
COMMENT "1995 Vintimiglia Mainshock (NonLinLoc Sample Location)"
GRID  101 101 21  -50.000000 -50.000000 0.000000  1.000000 1.000000 1.000000 PROB_DENSITY
SEARCH METROPOLIS nSamp 13794 nAcc 10000 nSave 1000 nClip 2 Dstep0 0.714178 Dstep 0.653488
HYPOCENTER  x 4.962431 y 6.044882 z 9.904938  OT 57.025573  ix -1 iy -1 iz -1
GEOGRAPHIC  OT 1995 04 21  08 02 57.025573  Lat 43.804395 Long 7.561673 Depth 9.904938
QUALITY  Pmax 1.417e-01 MFmin 0.570712 MFmax 2.424218 RMS 0.137446 Nphs 12 Gap 178 Dist 9.037165 Mamp -9.90 0 Mdur -9.90 0
VPVSRATIO  VpVsRatio 5.000e-01  Npair 2
STATISTICS  ExpectX 5.0117e+00 Y 5.9210e+00 Z 9.2512e+00  CovXX 3.27e-01 XY -1.20e-01 XZ 2.63e-01 YY 1.89e+00 YZ 2.77e-01 ZZ 7.21e+00 EllAz1  265.3 Dip1  2.4 Len1  1.04e+00 Az2  175.2 Dip2  2.7 Len2  2.58e+00 Len3  5.05e+00
TRANSFORM  LAMBERT RefEllipsoid Clarke-1880  LatOrig 43.750000  LongOrig 7.500000  FirstStdParal 43.199300  SecondStdParal 44.996100  RotCW 0.000000
PHASE ID Ins Cmp On Pha  FM Date     HrMn   Sec     Err  ErrMag    Coda      Amp       Per      >   TTpred    Res       Weight    StaLoc(X  Y         Z)        SDist    SAzim  RAz   RDip  RQual
RONE   ?    ?    ? P      U 19950421 0802   59.4400 GAU  1.00e-01 -1.00e+00 -1.00e+00 -1.00e+00 >    2.5095   -0.0951    1.1600    7.8887   14.5952   -0.3000    9.0372  18.89  18.9 134.4  9
SBF    ?    ?    ? P      ? 19950421 0803    0.2600 GAU  1.00e-01 -1.00e+00 -1.00e+00 -1.00e+00 >    3.0236    0.2108    1.1600   -5.2384   12.6113   -0.8470   12.1316 302.77 302.8 123.9  9
NEGI   ?    ?    ? P      U 19950421 0803    0.0200 GAU  1.00e-01 -1.00e+00 -1.00e+00 -1.00e+00 >    3.0180   -0.0636    1.1600   16.3893   10.8705   -0.6400   12.4041  67.11  67.1 123.0  9
REVF   ?    ?    ? P      ? 19950421 0803    0.6700 GAU  1.00e-01 -1.00e+00 -1.00e+00 -1.00e+00 >    3.7219   -0.0774    1.1600  -10.6730   -1.1024   -0.7000   17.1915 245.43 245.4 114.2  9
CEPP   ?    ?    ? P      U 19950421 0803    1.1400 GAU  1.00e-01 -1.00e+00 -1.00e+00 -1.00e+00 >    4.1278   -0.0134    1.1600   19.7971   18.5085   -1.0800   19.3755  49.96  50.0 111.7  9
AURF   ?    ?    ? P      ? 19950421 0803    1.3900 GAU  1.00e-01 -1.00e+00 -1.00e+00 -1.00e+00 >    4.3636    0.0008    1.1600  -13.8607   15.2716   -1.0400   20.9629 296.11 296.1 109.8  9
AUTN   ?    ?    ? P      ? 19950421 0803    2.0400 GAU  1.00e-01 -1.00e+00 -1.00e+00 -1.00e+00 >    5.0071    0.0073    1.1600   -5.8149   27.2765   -2.0690   23.8104 333.09 333.1 107.7  9
IMI    ?    ?    ? P      ? 19950421 0803    2.7700 GAU  1.00e-01 -1.00e+00 -1.00e+00 -1.00e+00 >    5.6116    0.1328    1.1600   31.5793   17.9062   -0.8400   29.1402  65.98  66.0 102.6  9
TOUF   ?    ?    ? P      ? 19950421 0803    3.5500 GAU  1.00e-01 -1.00e+00 -1.00e+00 -1.00e+00 >    6.6190   -0.0946    1.1600  -20.1791   29.3046   -1.8500   34.2507 312.77 312.8  99.3  9
TOUF   ?    ?    ? S      ? 19950421 0803    7.6500 GAU  5.00e-01 -1.00e+00 -1.00e+00 -1.00e+00 >   11.1200   -0.4956    0.2000  -20.1791   29.3046   -1.8500   34.2507 312.77 312.8  99.3  9
MVIF   ?    ?    ? P      ? 19950421 0803    3.5800 GAU  1.00e-01 -1.00e+00 -1.00e+00 -1.00e+00 >    6.5800   -0.0256    1.1600  -27.9180   16.3343   -1.4800   34.4528 287.38 287.4  98.8  9
MVIF   ?    ?    ? S      ? 19950421 0803    8.6800 GAU  5.00e-01 -1.00e+00 -1.00e+00 -1.00e+00 >   11.0544    0.6000    0.2000  -27.9180   16.3343   -1.4800   34.4528 287.38 287.4  98.8  9
END_PHASE
END_NLLOC

