NLLOC "./loc/vinti.19950422.151959.grid0" "LOCATED" "Location completed."
SIGNATURE "Anthony Lomax - Geosciences Azur   NLLoc:v2.30 21May2001 10h45m58"
COMMENT "1995 Vintimiglia Sequence (NonLinLoc Sample Location)"
GRID  101 101 21  -50.000000 -50.000000 0.000000  1.000000 1.000000 1.000000 PROB_DENSITY
SEARCH OCTREE nInitial 400 nEvaluated 10008 smallestNodeSide 0.078125
HYPOCENTER  x 4.843750 y 4.843750 z 10.234375  OT 56.657636  ix -1 iy -1 iz -1
GEOGRAPHIC  OT 1995 04 22  15 19 56.657636  Lat 43.793584 Long 7.560187 Depth 10.234375
QUALITY  Pmax 3.391e-01 MFmin 0.424554 MFmax 8.461513 RMS 0.094933 Nphs 12 Gap 186 Dist 10.215761 Mamp -9.90 0 Mdur  0.00 0
VPVSRATIO  VpVsRatio 1.569e+00  Npair 3  Diff 1.070e+00
STATISTICS  ExpectX 4.8166e+00 Y 4.5204e+00 Z 9.2782e+00  CovXX 4.85e-01 XY -2.51e-01 XZ 9.72e-01 YY 1.61e+00 YZ 8.30e-01 ZZ 7.85e+00 EllAz1  254.2 Dip1  8.7 Len1  9.58e-01 Az2  163.5 Dip2  4.8 Len2  2.39e+00 Len3  5.34e+00
STAT_GEOG  ExpectLat 43.790674 Long 7.559846 Depth 9.278164
TRANSFORM  LAMBERT RefEllipsoid Clarke-1880  LatOrig 43.750000  LongOrig 7.500000  FirstStdParal 43.199300  SecondStdParal 44.996100  RotCW 0.000000
PHASE ID Ins Cmp On Pha  FM Date     HrMn   Sec     Err  ErrMag    Coda      Amp       Per      >   TTpred    Res       Weight    StaLoc(X  Y         Z)        SDist    SAzim  RAz   RDip  RQual
RONE   ?    ?    ? P      ? 19950422 1519   59.2800 GAU  1.00e-01 -1.00e+00 -1.00e+00 -1.00e+00 >    2.6887   -0.0663    1.0000    7.8887   14.5952   -0.3000   10.2158  17.34  17.3 129.9  9
RONE   ?    ?    ? S      ? 19950422 1520    1.1200 GAU  1.00e-01 -1.00e+00 -1.00e+00 -1.00e+00 >    4.5170   -0.0547    1.0000    7.8887   14.5952   -0.3000   10.2158  17.34  17.3 129.9  9
SBF    ?    ?    i p      d 19950422 1519   59.8800 GAU  1.00e-01 -1.00e+00 -1.00e+00 -1.00e+00 >    3.1342    0.0881    1.0000   -5.2384   12.6113   -0.8470   12.7273 307.61 307.6 123.0  9
NEGI   ?    ?    ? P      ? 19950422 1519   59.8200 GAU  1.00e-01 -1.00e+00 -1.00e+00 -1.00e+00 >    3.1315   -0.0092    1.0000   16.3893   10.8705   -0.6400   13.0239  62.44  62.4 122.0  9
NEGI   ?    ?    ? S      ? 19950422 1520    2.1100 GAU  1.00e-01 -1.00e+00 -1.00e+00 -1.00e+00 >    5.2610    0.1514    1.0000   16.3893   10.8705   -0.6400   13.0239  62.44  62.4 122.0  9
REVF   ?    ?    P G      ? 19950422 1520    0.1700 GAU  1.00e-01 -1.00e+00 -1.00e+00 -1.00e+00 >    3.6584   -0.1461    1.0000  -10.6730   -1.1024   -0.7000   16.6170 249.03 249.0 115.2  9
CEPP   ?    ?    ? P      ? 19950422 1520    0.9100 GAU  1.00e-01 -1.00e+00 -1.00e+00 -1.00e+00 >    4.2807   -0.0283    1.0000   19.7971   18.5085   -1.0800   20.2565  47.58  47.6 110.5  9
CEPP   ?    ?    ? S      ? 19950422 1520    3.8200 GAU  1.00e-01 -1.00e+00 -1.00e+00 -1.00e+00 >    7.1916   -0.0292    1.0000   19.7971   18.5085   -1.0800   20.2565  47.58  47.6 110.5  9
AURF   ?    ?    P G      ? 19950422 1520    1.1900 GAU  1.00e-01 -1.00e+00 -1.00e+00 -1.00e+00 >    4.4504    0.0820    1.0000  -13.8607   15.2716   -1.0400   21.4149 299.14 299.1 109.1  9
AUTN   ?    ?    ? p      ? 19950422 1520    1.6800 GAU  1.00e-01 -1.00e+00 -1.00e+00 -1.00e+00 >    5.1820   -0.1596    1.0000   -5.8149   27.2765   -2.0690   24.8362 334.59 334.6 106.3  9
MVIF   ?    ?    i p      d 19950422 1520    3.3700 GAU  1.00e-01 -1.00e+00 -1.00e+00 -1.00e+00 >    6.6290    0.0833    1.0000  -27.9180   16.3343   -1.4800   34.7183 289.33 289.3  98.2  9
TOUF   ?    ?    i p      u 19950422 1520    3.4900 GAU  1.00e-01 -1.00e+00 -1.00e+00 -1.00e+00 >    6.7438    0.0885    1.0000  -20.1791   29.3046   -1.8500   34.9925 314.35 314.3  98.2  9
END_PHASE
END_NLLOC

