NLLOC "./loc/vinti.19950421.080259.grid0" "LOCATED" "Location completed."
SIGNATURE "Anthony Lomax - Geosciences Azur   NLLoc:v2.30 21May2001 10h45m56"
COMMENT "1995 Vintimiglia Sequence (NonLinLoc Sample Location)"
GRID  101 101 21  -50.000000 -50.000000 0.000000  1.000000 1.000000 1.000000 PROB_DENSITY
SEARCH OCTREE nInitial 400 nEvaluated 10000 smallestNodeSide 0.156250
HYPOCENTER  x 4.843750 y 6.093750 z 9.765625  OT 57.042699  ix -1 iy -1 iz -1
GEOGRAPHIC  OT 1995 04 21  08 02 57.042699  Lat 43.804836 Long 7.560198 Depth 9.765625
QUALITY  Pmax 1.385e-01 MFmin 0.574033 MFmax 6.463821 RMS 0.138245 Nphs 12 Gap 177 Dist 9.030267 Mamp -9.90 0 Mdur  0.00 0
VPVSRATIO  VpVsRatio 5.000e-01  Npair 2  Diff 1.000e+00
STATISTICS  ExpectX 5.0214e+00 Y 5.9040e+00 Z 8.7047e+00  CovXX 3.65e-01 XY -1.17e-01 XZ 4.83e-01 YY 1.70e+00 YZ -2.23e-01 ZZ 1.22e+01 EllAz1  85.5 Dip1  -2.2 Len1  1.09e+00 Az2  355.5 Dip2  1.4 Len2  2.45e+00 Len3  6.58e+00
STAT_GEOG  ExpectLat 43.803127 Long 7.562404 Depth 8.704745
TRANSFORM  LAMBERT RefEllipsoid Clarke-1880  LatOrig 43.750000  LongOrig 7.500000  FirstStdParal 43.199300  SecondStdParal 44.996100  RotCW 0.000000
PHASE ID Ins Cmp On Pha  FM Date     HrMn   Sec     Err  ErrMag    Coda      Amp       Per      >   TTpred    Res       Weight    StaLoc(X  Y         Z)        SDist    SAzim  RAz   RDip  RQual
RONE   ?    ?    ? P      U 19950421 0802   59.4400 GAU  1.00e-01 -1.00e+00 -1.00e+00 -1.00e+00 >    2.4928   -0.0955    1.1600    7.8887   14.5952   -0.3000    9.0303  19.71  19.7 133.9  9
SBF    ?    ?    ? P      ? 19950421 0803    0.2600 GAU  1.00e-01 -1.00e+00 -1.00e+00 -1.00e+00 >    2.9930    0.2243    1.1600   -5.2384   12.6113   -0.8470   12.0053 302.88 302.9 124.0  9
NEGI   ?    ?    ? P      U 19950421 0803    0.0200 GAU  1.00e-01 -1.00e+00 -1.00e+00 -1.00e+00 >    3.0178   -0.0805    1.1600   16.3893   10.8705   -0.6400   12.4947  67.52  67.5 122.6  9
REVF   ?    ?    ? P      ? 19950421 0803    0.6700 GAU  1.00e-01 -1.00e+00 -1.00e+00 -1.00e+00 >    3.6986   -0.0713    1.1600  -10.6730   -1.1024   -0.7000   17.1042 245.12 245.1 114.4  9
CEPP   ?    ?    ? P      U 19950421 0803    1.1400 GAU  1.00e-01 -1.00e+00 -1.00e+00 -1.00e+00 >    4.1277   -0.0304    1.1600   19.7971   18.5085   -1.0800   19.4352  50.30  50.3 111.7  9
AURF   ?    ?    ? P      ? 19950421 0803    1.3900 GAU  1.00e-01 -1.00e+00 -1.00e+00 -1.00e+00 >    4.3352    0.0121    1.1600  -13.8607   15.2716   -1.0400   20.8348 296.14 296.1 110.1  9
AUTN   ?    ?    ? P      ? 19950421 0803    2.0400 GAU  1.00e-01 -1.00e+00 -1.00e+00 -1.00e+00 >    4.9840    0.0133    1.1600   -5.8149   27.2765   -2.0690   23.7132 333.29 333.3 108.0  9
IMI    ?    ?    ? P      ? 19950421 0803    2.7700 GAU  1.00e-01 -1.00e+00 -1.00e+00 -1.00e+00 >    5.6193    0.1080    1.1600   31.5793   17.9062   -0.8400   29.2288  66.16  66.2 102.9  9
TOUF   ?    ?    ? P      ? 19950421 0803    3.5500 GAU  1.00e-01 -1.00e+00 -1.00e+00 -1.00e+00 >    6.5953   -0.0880    1.1600  -20.1791   29.3046   -1.8500   34.1304 312.85 312.8  99.8  9
TOUF   ?    ?    ? S      ? 19950421 0803    7.6500 GAU  5.00e-01 -1.00e+00 -1.00e+00 -1.00e+00 >   11.0801   -0.4728    0.2000  -20.1791   29.3046   -1.8500   34.1304 312.85 312.8  99.8  9
MVIF   ?    ?    ? P      ? 19950421 0803    3.5800 GAU  1.00e-01 -1.00e+00 -1.00e+00 -1.00e+00 >    6.5553   -0.0180    1.1600  -27.9180   16.3343   -1.4800   34.3249 287.36 287.4  99.4  9
MVIF   ?    ?    ? S      ? 19950421 0803    8.6800 GAU  5.00e-01 -1.00e+00 -1.00e+00 -1.00e+00 >   11.0129    0.6244    0.2000  -27.9180   16.3343   -1.4800   34.3249 287.36 287.4  99.4  9
END_PHASE
SCATTER Nsamples 995
   5.4888    7.4250   13.1510  1.84e+00
   5.8730    4.9269   10.4085  1.84e+00
   4.7000    5.7646    0.2442  1.83e+00
   5.3922    5.3431    4.1660  1.83e+00
   4.6820    8.1471    9.9297  1.82e+00
   4.2995    2.5749    8.7074 -2.56e-01
   4.4182    8.3747    9.2179  1.81e+00
   4.5849    5.3235    0.9779  1.81e+00
   3.9555    6.8412   11.1614  1.81e+00
   4.0962    5.0266    9.3391  1.81e+00
   4.8942    4.4660    4.8091  1.79e+00
   4.2609    6.7338    6.2111  1.79e+00
   4.0569    7.0688    7.0737  1.78e+00
   4.1077    5.0197    8.7071  1.78e+00
   4.0264    8.8313    7.6450 -3.01e-01
   4.9782    6.2301   13.6301  1.78e+00
   5.6625    6.2038   12.8643  1.77e+00
   5.6305    6.5711    9.5112  1.77e+00
   5.2397    5.7317   16.2674 -3.08e-01
   4.6272    3.8080   11.3332  1.75e+00
   4.4102    5.2263    0.4195  1.75e+00
   4.9300    8.2898   10.4627  1.74e+00
   5.6014    4.5838    5.0593  1.74e+00
   4.5163    8.6862    8.5566  1.74e+00
   4.8228    4.5505   12.9825  1.74e+00
   4.6572    4.1649    8.2672  1.73e+00
   4.5015    7.9028    5.6649  1.73e+00
   6.0480    4.3888    9.7804  1.73e+00
   4.1876    7.0461   10.7434  1.72e+00
   5.7810    3.3806    5.0873 -3.63e-01
   4.9115    7.0532    3.6552  1.71e+00
   5.1371    5.3243    3.5490  1.70e+00
   4.0172    5.0665   10.5834  1.70e+00
   5.9046    6.6861   12.6961  1.70e+00
   5.1143    7.8369    7.4999  1.70e+00
   5.4088    5.3270   14.3201  1.70e+00
   4.7280    5.0091    0.0163  1.69e+00
   5.2878    4.1377    7.3086  1.68e+00
   5.0706    4.4012   13.8936  1.68e+00
   5.6028    5.7724    3.3070  1.68e+00
   5.5321    6.4559    4.0877  1.67e+00
   4.9463    4.5540    4.2194  1.67e+00
   4.2379    6.2017   11.3200  1.67e+00
   6.1316    5.8676    8.4457  1.66e+00
   4.0758    6.6114    5.5179  1.65e+00
   4.0311    7.1079    6.4371  1.65e+00
   3.7777    5.2061    7.1918  1.64e+00
   4.8989    4.0361    7.6853  1.63e+00
   3.9137    3.1491    7.0459 -4.72e-01
   4.6173    8.2919    7.8394  1.60e+00
   5.4734    4.6208    4.4812  1.60e+00
   4.7401    4.0984   12.1203  1.60e+00
   5.0803    5.5557    2.8251  1.59e+00
   6.2354    4.9277   12.8458  1.58e+00
   5.0602    5.8419    2.5037  1.58e+00
   4.4437    7.3604    2.9178  1.57e+00
   4.0045    9.3369    7.2368 -5.07e-01
   4.4107    4.7117    3.4726  1.57e+00
   5.3828    8.3197   10.0594  1.57e+00
   4.2380    7.5907    8.7359  1.57e+00
   5.7066    4.8666    9.2723  1.54e+00
   4.9486    3.9524    7.0791  1.52e+00
   5.4099    7.3786    5.1082  1.51e+00
   4.7272    7.9591    5.0066  1.51e+00
   4.3785    7.3079    1.3150  1.51e+00
   5.4342    6.2046   14.4433  1.49e+00
   5.2506    4.7322   14.3083  1.49e+00
   3.9314    7.6477    8.0814  1.49e+00
   5.5481    5.5401    2.1558  1.48e+00
   5.3405    5.8201    1.6834  1.48e+00
   5.4709    5.1172   14.4630  1.48e+00
   4.9020    4.8073    3.0237  1.48e+00
   6.1828    7.0944    9.7754  1.48e+00
   4.6198    5.1396   13.8258  1.47e+00
   5.4163    7.6082   12.8640  1.47e+00
   4.1748    7.4958   11.5426  1.47e+00
   5.9842    6.2014    8.1123  1.46e+00
   5.7839    6.5285   13.3473  1.46e+00
   4.8171    7.2594    2.0724  1.45e+00
   5.1368    3.2128   10.6276  1.44e+00
   4.5186    4.0587   15.2134 -6.47e-01
   4.8505    8.2370    7.3932  1.42e+00
   4.9404    4.5481    2.3549  1.42e+00
   5.2394    5.5983    1.4090  1.42e+00
   5.0050    6.0053    0.9954  1.42e+00
   5.1181    3.4863   11.3450  1.41e+00
   5.2950    3.5517   10.0124  1.41e+00
   5.1430    4.4778    3.4986  1.41e+00
   5.7232    3.7568   12.0079  1.40e+00
   4.8467    7.4206    0.8139  1.40e+00
   5.3628    3.8001    5.9400  1.40e+00
   4.4877    4.4844    2.1864  1.39e+00
   4.6526    4.7039   13.5444  1.39e+00
   4.8531    4.8058    1.3129  1.38e+00
   6.1282    4.4808    8.6277  1.37e+00
   5.8711    6.6994    8.1897  1.37e+00
   5.3109    6.4324    3.0406  1.37e+00
   4.4046    3.8276   12.5040  1.37e+00
   4.3810    4.7319    1.0697  1.36e+00
   3.8785    3.5560    5.9015 -7.23e-01
   6.1964    4.9505   13.6899  1.35e+00
   6.2129    5.2585    7.7921  1.35e+00
   6.1145    4.0149   10.1450  1.35e+00
   4.4995    4.8777    0.7432  1.33e+00
   3.8442    5.0374   11.8345  1.32e+00
   5.5641    6.5550   14.5041  1.31e+00
   4.1524    5.1524    5.4907  1.30e+00
   6.0174    3.7871   12.6608  1.29e+00
   4.4801    7.5021   13.1124  1.29e+00
   4.4223    4.9706    0.4573  1.28e+00
   5.4447    4.0966   13.8013  1.28e+00
   4.9071    4.0898    5.7325  1.28e+00
   5.0961    7.9245   13.3568  1.28e+00
   4.7832    6.1835    9.6175  3.35e+00
   4.8544    6.1280    9.4312  3.35e+00
   4.9764    6.4622    9.9612  3.35e+00
   4.7903    6.1712   10.0906  3.35e+00
   4.9973    6.0853    9.2339  3.34e+00
   4.7859    6.4511    9.2778  3.34e+00
   5.2933    6.1179    9.9596  3.33e+00
   4.9856    6.2423    9.1753  3.33e+00
   5.2242    5.9450    9.8409  3.33e+00
   4.7225    6.3920    9.1097  3.33e+00
   5.3103    5.7983   14.9134  1.25e+00
   5.3253    6.8264    1.9042  1.24e+00
   4.0454    7.7456    6.6198  1.24e+00
   5.0746    4.5008    2.2116  1.24e+00
   4.3787    3.9888   12.8353  1.23e+00
   4.8399    5.9376   10.4187  3.31e+00
   5.1317    6.2108   10.5634  3.30e+00
   4.8596    6.0365    8.8880  3.30e+00
   5.0715    6.3296    9.7681  3.30e+00
   5.0814    5.7776   10.2074  3.30e+00
   5.4396    5.2440    0.3683  1.22e+00
   4.8766    6.2767    8.8305  3.30e+00
   4.9369    6.4582   10.4233  3.30e+00
   4.9240    5.6676    9.4699  3.29e+00
   5.0090    6.2268    9.3516  3.29e+00
   4.8811    6.6386    9.5710  3.29e+00
   5.8548    4.8367    8.0595  1.21e+00
   4.9209    6.5927    9.8354  3.29e+00
   4.7320    5.6713    9.2466  3.29e+00
   5.0962    5.7549    9.5529  3.28e+00
   4.9247    6.5563    8.6291  3.28e+00
   5.2197    6.1171   10.7710  3.28e+00
   4.9720    4.6810   14.0023  1.20e+00
   5.2350    6.1739    9.0758  3.27e+00
   4.2999    6.8078    0.8116  1.19e+00
   4.1270    7.1301    4.6190  1.19e+00
   5.4077    3.3647    8.9089  1.18e+00
   4.1745    6.0537    1.0210  1.18e+00
   5.2630    6.2908    9.2322  3.26e+00
   4.7709    5.9331   10.4033  3.26e+00
   5.7026    5.7008   14.3094  1.18e+00
   5.1809    4.1449    5.0877  1.18e+00
   3.7739    5.2105    4.8787  1.18e+00
   4.7266    6.0974   10.7569  3.25e+00
   5.1297    5.8563    9.3060  3.25e+00
   5.3146    8.3518   15.0886 -9.08e-01
   4.9712    6.2239    8.3666  3.25e+00
   4.8727    5.8238    8.8457  3.25e+00
   4.8119    6.5119    8.4249  3.24e+00
   4.9153    6.5419   10.6753  3.24e+00
   4.9522    5.9330   10.5512  3.24e+00
   5.1757    6.7198    9.9836  3.23e+00
   6.2083    6.6380    7.6841  1.15e+00
   5.2643    6.3432   10.8821  3.22e+00
   5.2879    5.5121   10.0693  3.22e+00
   5.2268    5.3875    9.8676  3.22e+00
   3.7575    6.8190    0.4162  1.14e+00
   4.8551    5.7258    8.5694  3.21e+00
   5.0966    4.8967    1.4272  1.13e+00
   4.7635    6.2935   10.9312  3.20e+00
   4.9202    6.0135    8.0836  3.20e+00
   5.0696    5.6007   10.5309  3.20e+00
   4.6410    3.1114    4.5567 -9.65e-01
   4.0697    4.9659    7.7167  1.11e+00
   4.8344    5.7178    8.3110  3.19e+00
   5.0088    4.1195   14.2847  1.11e+00
   5.2068    6.0251   11.2330  3.19e+00
   5.2565    5.8392    8.8484  3.19e+00
   4.6226    7.5852    4.0020  1.11e+00
   4.8888    5.5552   10.1217  3.19e+00
   5.0845    6.6527   10.5331  3.19e+00
   3.7846    5.6678    1.6923  1.11e+00
   5.2611    6.8202    9.2335  3.18e+00
   5.2796    5.4068    9.3832  3.18e+00
   4.9186    5.6968   10.8068  3.18e+00
   4.7886    5.6170   10.1804  3.18e+00
   4.9863    5.9771    7.9416  3.17e+00
   5.2585    5.8913   11.2433  3.17e+00
   4.9483    7.0844    9.6762  3.17e+00
   4.9349    7.0049    9.4015  3.16e+00
   4.9867    5.4064    9.0913  3.16e+00
   4.9794    5.3702   10.4229  3.16e+00
   5.2320    6.5835    9.1257  3.16e+00
   5.3901    6.1831    0.2263  1.08e+00
   5.1720    6.2870   11.1227  3.16e+00
   5.0456    4.7772   14.7352  1.07e+00
   4.8289    7.0932   10.0426  3.15e+00
   4.8438    5.9860    7.7842  3.15e+00
   4.7893    7.0914    9.1821  3.14e+00
   4.3599    5.2651    4.1573  1.06e+00
   5.9103    7.3195   13.2685  1.06e+00
   4.2770    9.0661    5.8565 -1.02e+00
   4.2648    6.6089    1.9009  1.05e+00
   4.7282    6.9467    8.9646  3.13e+00
   4.9474    6.0961   14.5234  1.05e+00
   5.4767    4.2901    4.4009  1.05e+00
   4.3522    5.8197   12.7475  1.05e+00
   4.8909    6.7176    8.0861  3.12e+00
   5.1575    6.3524    8.3648  3.12e+00
   4.6934    5.8832    7.9278  3.12e+00
   5.1064    5.6387    8.3615  3.12e+00
   4.3838    4.1357    4.3784  1.04e+00
   5.0727    5.3237    9.0438  3.12e+00
   4.9376    3.5374   10.5917  1.04e+00
   4.8259    7.1390    8.7633  3.11e+00
   4.5666    6.3306    9.4120  3.11e+00
   5.7341    5.1532   14.4793  1.03e+00
   4.7286    6.4950    7.5054  3.11e+00
   4.4662    6.5221    8.9563  3.10e+00
   6.2009    5.7676    6.6059  1.02e+00
   5.2092    5.3443   11.1024  3.10e+00
   5.3442    3.6906    8.0124  1.02e+00
   4.4705    3.3489    9.7141  1.02e+00
   4.7436    5.8749    7.7049  3.10e+00
   4.8904    7.0317    8.6074  3.10e+00
   4.5490    6.2229    9.1848  3.09e+00
   5.0879    6.1487    8.0381  3.09e+00
   4.8910    6.1688    7.4197  3.09e+00
   4.8996    5.6009   10.7898  3.09e+00
   4.6754    5.9610    8.9569  3.09e+00
   5.5271    4.4326    0.8106  1.01e+00
   5.4669    6.9190    3.4478  1.00e+00
   5.2620    7.0216   10.2182  3.08e+00
   5.3931    5.6065   15.0387  1.00e-00
   5.7440    5.8178   14.6331  9.91e-01
   5.6535    4.0260    8.9150  9.90e-01
   5.5733    2.4539   12.2780 -1.09e+00
   5.9597    2.0666   11.7273 -1.09e+00
   5.2305    5.0038    9.7210  3.07e+00
   4.9292    6.6540    7.7417  3.07e+00
   5.0703    6.1145   11.6337  3.06e+00
   5.0198    5.2538   10.5379  3.06e+00
   5.1181    5.7971    7.9803  3.06e+00
   4.4537    6.6790    9.1394  3.06e+00
   5.4071    4.3237    4.2838  9.82e-01
   3.9025    6.9263    3.6198  9.77e-01
   5.1562    3.4334   13.2989  9.77e-01
   5.2674    5.1891    9.6203  3.05e+00
   4.4483    6.8633    9.7874  3.05e+00
   5.0158    7.0674   10.4788  3.05e+00
   5.2336    5.8440   11.6183  3.05e+00
   4.9599    7.0122    8.3886  3.05e+00
   4.6166    6.6552    8.8859  3.05e+00
   3.8130    7.5447   14.9928 -1.12e+00
   6.7946    5.2171   13.2504 -1.12e+00
   4.9682    5.7164    7.3515  3.04e+00
   4.9220    6.0217   11.5620  3.04e+00
   5.4409    5.7398   10.4132  3.03e+00
   4.8769    6.6245    7.5690  3.03e+00
   4.9073    8.1148    3.3043  9.53e-01
   5.1681    6.0880    7.6866  3.03e+00
   5.0122    6.5910   11.3032  3.03e+00
   5.1744    6.4393    7.8929  3.03e+00
   5.5429    6.0753   10.6972  3.03e+00
   4.5851    5.6625    9.4926  3.02e+00
   4.7676    6.1010    7.1627  3.02e+00
   5.0348    5.2649    9.3544  3.02e+00
   4.6589    6.6732    8.5637  3.02e+00
   5.8556    5.5138    6.2598  9.36e-01
   5.5483    5.8501    9.9011  3.02e+00
   5.5943    5.9648   10.8057  3.01e+00
   4.9362    4.3520    3.8262  9.30e-01
   5.3484    7.8466    5.5643  9.30e-01
   5.2438    5.3968    8.2142  3.01e+00
   4.6537    3.8526   13.5448  9.24e-01
   5.0750    5.9107   11.7407  3.00e+00
   5.5133    4.0340    4.0418  9.20e-01
   5.0410    7.0557    9.0171  3.00e+00
   5.2037    5.0166    9.2185  3.00e+00
   4.2174    6.9223    3.3877  9.16e-01
   4.8645    6.8635   11.3081  2.99e+00
   5.4037    6.4436   10.4391  2.99e+00
   5.0445    6.4010    7.7131  2.99e+00
   4.8955    5.0017   10.5934  2.99e+00
   5.3867    6.2310   11.0367  2.99e+00
   5.6131    5.9019   11.0519  2.99e+00
   4.9521    3.3259    8.8172  9.08e-01
   4.8723    5.4262    7.7124  2.99e+00
   4.9323    3.1314   11.7417  9.07e-01
   4.5306    6.3038   10.5521  2.99e+00
   4.7796    7.4377    9.6185  2.99e+00
   4.7481    6.0921    6.9584  2.99e+00
   4.8386    5.9584   11.6530  2.98e+00
   4.7296    7.1892    9.4868  2.98e+00
   4.4859    6.7291    8.2574  2.98e+00
   4.7699    5.1540    9.0186  2.98e+00
   5.2266    5.3365    8.0814  2.98e+00
   4.3138    7.9046    5.5057  8.97e-01
   4.8198    5.6658    7.0847  2.98e+00
   5.4986    3.3006    7.2482  8.95e-01
   4.7168    7.4395    9.2210  2.97e+00
   4.9024    6.3072   14.6191  8.94e-01
   5.2006    5.0294    9.0525  2.97e+00
   6.0115    6.3777    7.0902  8.92e-01
   5.5025    5.5067   10.1715  2.97e+00
   4.9618    7.4646   10.0068  2.97e+00
   4.8406    5.2517   10.6751  2.97e+00
   5.4551    6.2480   11.2030  2.97e+00
   5.1918    6.6199    7.9812  2.97e+00
   4.2060    8.1883    9.1693  8.88e-01
   5.3694    6.0662    9.5028  2.96e+00
   4.7916    6.2741   11.6947  2.96e+00
   4.5081    5.6733    8.2912  2.96e+00
   3.8517    4.2174   15.9869 -1.20e+00
   5.2502    6.2442    7.4054  2.96e+00
   4.2468    8.5545    9.5112  8.73e-01
   4.9867    5.9579    6.7796  2.95e+00
   5.4644    5.4534   10.8885  2.95e+00
   5.0154    6.9066    8.6382  2.95e+00
   3.7658    5.2450    0.2205  8.68e-01
   5.4921    5.7420   11.3999  2.94e+00
   5.4046    6.3203    9.6255  2.94e+00
   4.6612    6.3947    7.6334  2.94e+00
   4.7127    5.4230    7.3455  2.93e+00
   4.8517    6.8796    7.7165  2.93e+00
   4.7227    7.3105   10.3247  2.93e+00
   5.7526    3.8960    8.2902  8.44e-01
   4.2155    8.6831    9.7078  8.43e-01
   5.1406    7.1063    2.9837  8.39e-01
   5.3882    5.5259   11.1008  2.91e+00
   6.0960    4.8240    6.7614  8.35e-01
   5.2835    5.1859    8.5637  2.91e+00
   4.7336    7.4410    8.6971  2.91e+00
   4.6623    7.2531   14.2536  8.26e-01
   4.3359    5.4961    1.6399  8.24e-01
   4.4587    6.0073   10.8626  2.90e+00
   5.5130    5.9381    9.0708  2.90e+00
   3.8923    8.2637    8.2340  8.20e-01
   5.0962    5.7015    7.2856  2.90e+00
   5.2593    6.7408    7.7721  2.90e+00
   4.9509    5.9260   11.8141  2.90e+00
   6.1720    3.6998   10.8138  8.14e-01
   4.4772    5.4224    9.5203  2.89e+00
   5.3420    6.5905   10.3315  2.89e+00
   4.1072    7.2223    1.5789  8.09e-01
   5.0616    5.2837    8.2849  2.89e+00
   5.0789    7.2958    9.7559  2.89e+00
   5.5253    6.4603    9.2955  2.89e+00
   7.3602    1.1589   15.4046 -3.35e+00
   4.9517    6.8607    6.9337  2.89e+00
   4.9394    7.6518    1.5621  8.00e-01
   4.9944    5.1851   11.1396  2.88e+00
   5.5356    6.8434    9.9154  2.88e+00
   5.5641    6.6518   10.6263  2.88e+00
   4.9769    5.5996   11.6912  2.87e+00
   4.3969    5.5864   10.1385  2.87e+00
   5.5417    8.0629    5.1240  7.92e-01
   5.4226    7.0026    2.6419  7.90e-01
   5.8294    6.1675   14.9532  7.84e-01
   4.6853    7.5233    2.4508  7.83e-01
   5.1199    5.0545    8.2070  2.86e+00
   5.3091    5.8378    7.1722  2.86e+00
   5.5297    6.6524   10.8469  2.86e+00
   4.5939    6.2419   10.9711  2.86e+00
   4.5202    5.3975   10.3059  2.85e+00
   5.0003    7.2720   10.4769  2.85e+00
   4.5097    6.6896    7.4421  2.85e+00
   5.1756    7.1141    8.1517  2.85e+00
   5.0433    4.8294   10.8011  2.85e+00
   4.3818    5.8257   14.8866  7.72e-01
   5.5502    6.4525   15.1682  7.72e-01
   5.3967    4.1370    2.8893  7.70e-01
   4.8562    5.2820   11.2635  2.84e+00
   5.4434    6.6892    9.5358  2.84e+00
   5.3034    6.4873    7.0427  2.84e+00
   5.0416    6.0748   12.1959  2.83e+00
   5.5841    5.3119   10.9536  2.83e+00
   4.7272    7.2141    8.1638  2.83e+00
   5.0874    5.5701   12.0649  2.83e+00
   4.9065    6.4361   11.9429  2.83e+00
   4.5795    3.7671   13.9501  7.47e-01
   6.1991    3.9685   14.1659  7.43e-01
   5.6629    3.2342   12.7323  7.42e-01
   5.4412    5.4533   15.5157  7.41e-01
   4.8946    5.4367   11.8493  2.82e+00
   4.4683    8.9161    8.6533  7.37e-01
   4.9329    6.8479   11.8464  2.82e+00
   5.3336    6.6421    9.3765  2.81e+00
   5.4044    6.6809   11.0967  2.81e+00
   5.6121    5.9808    8.6388  2.81e+00
   4.5177    5.9807    6.9200  2.81e+00
   4.8786    4.9137   10.2276  2.81e+00
   4.7616    4.7941    9.5456  2.81e+00
   5.4414    3.7632   14.9556  7.26e-01
   4.4307    3.4480    7.7330  7.26e-01
   4.3836    5.7450   11.0003  2.80e+00
   5.2582    7.3963   10.7987  2.80e+00
   4.9197    4.8949   10.3843  2.80e+00
   5.8749    5.2489    5.7870  7.19e-01
   5.0153    7.2888    8.9375  2.80e+00
   6.0348    4.4546   14.9325  7.15e-01
   3.8355    8.1164    4.7412  7.15e-01
   4.9337    5.1635    7.6364  2.79e+00
   5.0989    5.8461   15.6246  7.12e-01
   4.5558    6.6706   11.0457  2.79e+00
