NLLOC "./loc/vinti.19950422.151959.grid0" "LOCATED" "Location completed."
SIGNATURE "Anthony Lomax - Geosciences Azur   NLLoc:v2.30 21May2001 10h45m58"
COMMENT "1995 Vintimiglia Sequence (NonLinLoc Sample Location)"
GRID  101 101 21  -50.000000 -50.000000 0.000000  1.000000 1.000000 1.000000 PROB_DENSITY
SEARCH OCTREE nInitial 400 nEvaluated 10008 smallestNodeSide 0.078125
HYPOCENTER  x 4.843750 y 4.843750 z 10.234375  OT 56.657636  ix -1 iy -1 iz -1
GEOGRAPHIC  OT 1995 04 22  15 19 56.657636  Lat 43.793584 Long 7.560187 Depth 10.234375
QUALITY  Pmax 3.391e-01 MFmin 0.424554 MFmax 8.461513 RMS 0.094933 Nphs 12 Gap 186 Dist 10.215761 Mamp -9.90 0 Mdur  0.00 0
VPVSRATIO  VpVsRatio 1.569e+00  Npair 3  Diff 1.070e+00
STATISTICS  ExpectX 4.8166e+00 Y 4.5204e+00 Z 9.2782e+00  CovXX 4.85e-01 XY -2.51e-01 XZ 9.72e-01 YY 1.61e+00 YZ 8.30e-01 ZZ 7.85e+00 EllAz1  254.2 Dip1  8.7 Len1  9.58e-01 Az2  163.5 Dip2  4.8 Len2  2.39e+00 Len3  5.34e+00
STAT_GEOG  ExpectLat 43.790674 Long 7.559846 Depth 9.278164
TRANSFORM  LAMBERT RefEllipsoid Clarke-1880  LatOrig 43.750000  LongOrig 7.500000  FirstStdParal 43.199300  SecondStdParal 44.996100  RotCW 0.000000
PHASE ID Ins Cmp On Pha  FM Date     HrMn   Sec     Err  ErrMag    Coda      Amp       Per      >   TTpred    Res       Weight    StaLoc(X  Y         Z)        SDist    SAzim  RAz   RDip  RQual
RONE   ?    ?    ? P      ? 19950422 1519   59.2800 GAU  1.00e-01 -1.00e+00 -1.00e+00 -1.00e+00 >    2.6887   -0.0663    1.0000    7.8887   14.5952   -0.3000   10.2158  17.34  17.3 129.9  9
RONE   ?    ?    ? S      ? 19950422 1520    1.1200 GAU  1.00e-01 -1.00e+00 -1.00e+00 -1.00e+00 >    4.5170   -0.0547    1.0000    7.8887   14.5952   -0.3000   10.2158  17.34  17.3 129.9  9
SBF    ?    ?    i p      d 19950422 1519   59.8800 GAU  1.00e-01 -1.00e+00 -1.00e+00 -1.00e+00 >    3.1342    0.0881    1.0000   -5.2384   12.6113   -0.8470   12.7273 307.61 307.6 123.0  9
NEGI   ?    ?    ? P      ? 19950422 1519   59.8200 GAU  1.00e-01 -1.00e+00 -1.00e+00 -1.00e+00 >    3.1315   -0.0092    1.0000   16.3893   10.8705   -0.6400   13.0239  62.44  62.4 122.0  9
NEGI   ?    ?    ? S      ? 19950422 1520    2.1100 GAU  1.00e-01 -1.00e+00 -1.00e+00 -1.00e+00 >    5.2610    0.1514    1.0000   16.3893   10.8705   -0.6400   13.0239  62.44  62.4 122.0  9
REVF   ?    ?    P G      ? 19950422 1520    0.1700 GAU  1.00e-01 -1.00e+00 -1.00e+00 -1.00e+00 >    3.6584   -0.1461    1.0000  -10.6730   -1.1024   -0.7000   16.6170 249.03 249.0 115.2  9
CEPP   ?    ?    ? P      ? 19950422 1520    0.9100 GAU  1.00e-01 -1.00e+00 -1.00e+00 -1.00e+00 >    4.2807   -0.0283    1.0000   19.7971   18.5085   -1.0800   20.2565  47.58  47.6 110.5  9
CEPP   ?    ?    ? S      ? 19950422 1520    3.8200 GAU  1.00e-01 -1.00e+00 -1.00e+00 -1.00e+00 >    7.1916   -0.0292    1.0000   19.7971   18.5085   -1.0800   20.2565  47.58  47.6 110.5  9
AURF   ?    ?    P G      ? 19950422 1520    1.1900 GAU  1.00e-01 -1.00e+00 -1.00e+00 -1.00e+00 >    4.4504    0.0820    1.0000  -13.8607   15.2716   -1.0400   21.4149 299.14 299.1 109.1  9
AUTN   ?    ?    ? p      ? 19950422 1520    1.6800 GAU  1.00e-01 -1.00e+00 -1.00e+00 -1.00e+00 >    5.1820   -0.1596    1.0000   -5.8149   27.2765   -2.0690   24.8362 334.59 334.6 106.3  9
MVIF   ?    ?    i p      d 19950422 1520    3.3700 GAU  1.00e-01 -1.00e+00 -1.00e+00 -1.00e+00 >    6.6290    0.0833    1.0000  -27.9180   16.3343   -1.4800   34.7183 289.33 289.3  98.2  9
TOUF   ?    ?    i p      u 19950422 1520    3.4900 GAU  1.00e-01 -1.00e+00 -1.00e+00 -1.00e+00 >    6.7438    0.0885    1.0000  -20.1791   29.3046   -1.8500   34.9925 314.35 314.3  98.2  9
END_PHASE
SCATTER Nsamples 977
   6.9640    3.8470   14.8072  7.38e-02
   4.6897    4.7090    9.3442  4.23e+00
   5.2556    4.1303   10.3311  4.23e+00
   4.7058    5.3222   10.5215  4.23e+00
   6.1375    3.5886   13.2796  2.14e+00
   4.3883    5.3934   10.1456  4.22e+00
   4.8874    5.3183   10.2984  4.21e+00
   6.2881    1.6005   12.4755  4.66e-02
   5.0324    4.0666   10.0465  4.20e+00
   4.0344    6.9862   10.6834  2.12e+00
   4.7627    5.4469   10.9114  4.20e+00
   4.2732    5.2564    0.4499  2.12e+00
   4.6664    4.4009    9.8729  4.19e+00
   5.7269    2.4589   12.5887  2.45e-02
   4.6515    5.5007   10.3663  4.18e+00
   5.1456    4.8672   11.3785  4.17e+00
   4.7984    4.8759   11.2181  4.17e+00
   4.9941    3.4427    1.0949  2.08e+00
   3.9499    3.3093    4.6165  2.08e+00
   4.4690    5.5345    9.4232  4.16e+00
   4.7616    5.3058    9.4950  4.16e+00
   4.2780    6.0449    6.4345  2.07e+00
   4.6811    2.6145    5.1572  2.07e+00
   5.3096    4.3017   10.9901  4.15e+00
   4.8385    4.6439   11.0545  4.15e+00
   5.1577    5.0079   11.1601  4.14e+00
   5.1458    4.1621    9.7866  4.14e+00
   4.6541    5.3896   10.5814  4.14e+00
   5.0380    4.5930   11.2792  4.14e+00
   4.8512    5.3569    9.9595  4.13e+00
   4.5087    4.1646    9.0307  4.13e+00
   3.8705    3.8986    3.6596  2.05e+00
   4.3471    1.9252    1.7869 -4.18e-02
   5.1766    3.8474   10.2622  4.11e+00
   5.1212    4.9713   11.4949  4.11e+00
   4.9936    5.3880   11.1741  4.11e+00
   5.1096    3.9458   10.0140  4.11e+00
   4.7694    3.8529    9.1670  4.10e+00
   5.0550    4.0402    9.9847  4.10e+00
   5.9749    4.8455   13.7509  2.01e+00
   4.8865    4.8481    9.0423  4.09e+00
   4.5987    5.5921   10.6287  4.09e+00
   5.4556    2.2563    7.6935  2.01e+00
   4.9964    4.7219   11.3768  4.08e+00
   5.9506    3.2802    9.2082  2.00e+00
   4.9853    3.7908    8.9496  4.08e+00
   5.1865    5.2172   11.5009  4.07e+00
   5.1020    4.0035   10.7609  4.07e+00
   4.9109    4.3566    8.7062  4.07e+00
   4.6401    5.8175   10.0325  4.07e+00
   4.4099    5.9154   10.2210  4.06e+00
   4.5786    5.4628    9.1073  4.06e+00
   3.5722    5.3214    8.1670  1.98e+00
   4.9304    5.3198   11.3583  4.05e+00
   4.5375    5.0959    8.6862  4.05e+00
   5.1512    4.7617   11.6773  4.05e+00
   4.4367    4.0879    9.8208  4.04e+00
   4.8474    4.6366    8.6850  4.04e+00
   4.4250    4.9982   10.7495  4.04e+00
   4.5816    4.9024    8.3330  4.04e+00
   4.7400    5.8096   10.6405  4.04e+00
   4.9920    5.7213   10.5371  4.03e+00
   5.3098    4.3175   11.3244  4.03e+00
   5.2034    4.0059   10.8765  4.03e+00
   6.0646    5.7573   12.0280  1.95e+00
   4.7038    5.7024   10.8752  4.03e+00
   4.5461    4.5944    8.1610  4.03e+00
   4.9052    5.1735   11.5351  4.02e+00
   4.7004    5.7171   10.4544  4.02e+00
   5.8554    6.1817   13.2942  1.94e+00
   4.7176    4.7937    8.8476  4.01e+00
   4.3029    5.0416    9.1389  4.01e+00
   5.1539    2.0393   10.7658  1.93e+00
   4.9383    7.1865   12.3332  1.93e+00
   4.8348    4.1730    8.5387  4.00e+00
   4.7288    5.7162   11.0022  4.00e+00
   4.7300    4.0131    8.6220  4.00e+00
   2.5014    7.3901    7.1841 -1.63e-01
   5.0329    5.4859   11.0650  3.99e+00
   5.1048    4.6763   11.6702  3.99e+00
   5.8184    2.1373   11.3523  1.91e+00
   3.3573    5.5510    8.6995  1.91e+00
   4.8121    3.0952   10.6645  1.91e+00
   3.9100    3.1677    9.4168  1.91e+00
   4.2220    4.9004    8.9560  3.99e+00
   5.2020    3.8109   11.0726  3.98e+00
   4.1903    5.0985    8.8691  3.98e+00
   5.5097    4.4215    7.5711  1.90e+00
   4.2708    4.9311    8.7795  3.98e+00
   4.4137    5.1632    8.4501  3.98e+00
   4.7148    4.3009   11.0020  3.98e+00
   5.0289    5.3963   11.2982  3.98e+00
   5.7620    1.8830    9.8777  1.89e+00
   4.4261    4.4682   10.5688  3.97e+00
   4.5634    3.5489    4.0802  1.89e+00
   4.5347    4.8164    5.5146  1.88e+00
   5.2999    4.8689   11.7526  3.96e+00
   5.0132    5.3148   10.7359  3.96e+00
   5.3491    4.2837   10.9880  3.96e+00
   4.3521    4.8928    9.2335  3.96e+00
   4.1622    5.5598    9.2819  3.96e+00
   4.1064    5.0102    8.6045  3.96e+00
   5.1509    4.3130   11.4735  3.96e+00
   4.9093    6.5641   12.9338  1.88e+00
   5.5446    4.4617   11.3732  3.95e+00
   4.4809    5.5916   10.9937  3.95e+00
   4.6069    4.1267   10.0446  3.95e+00
   5.0444    5.5235   11.4533  3.94e+00
   5.2716    5.1222   11.8686  3.94e+00
   4.5340    4.0665    8.0671  3.94e+00
   4.3877    5.6850   10.8155  3.93e+00
   4.6562    5.5576    8.7962  3.93e+00
   5.4399    4.5244   11.4243  3.93e+00
   4.1362    5.4043    8.9076  3.93e+00
   4.9525    4.8135    8.7386  3.93e+00
   4.2938    5.3905    9.7584  3.93e+00
   5.2606    5.4223   10.5577  3.93e+00
   4.5546    3.9405    8.9807  3.92e+00
   4.0561    6.9290    9.0141  1.84e+00
   4.4950    3.9931    8.8045  3.92e+00
   5.1385    3.7448    9.8723  3.92e+00
   4.3188    4.8027    8.3104  3.92e+00
   4.8147    2.7136    4.3888  1.84e+00
   4.7136    5.6351   11.2728  3.92e+00
   4.9442    5.0451    9.0503  3.91e+00
   5.2833    4.5487    9.2297  3.91e+00
   5.1075    4.6555   11.7219  3.90e+00
   5.0024    3.6286    9.6088  3.90e+00
   4.7923    3.7236    9.1172  3.90e+00
   5.2360    5.5924   11.6234  3.90e+00
   5.0225    3.6572   10.4252  3.90e+00
   5.3962    4.3323   11.5220  3.89e+00
   5.1731    3.9945    9.1456  3.89e+00
   4.0794    4.7480    9.5347  3.89e+00
   4.4409    4.8259    8.1235  3.89e+00
   4.7419    3.5121    9.0348  3.89e+00
   3.2058    5.3278    9.0551  1.81e+00
   4.4934    5.8071    9.2895  3.89e+00
   4.5760    4.3524    7.8431  3.88e+00
   5.3276    3.8863   10.9879  3.88e+00
   4.8576    4.2557   11.1430  3.88e+00
   4.8014    5.4695   11.6681  3.88e+00
   4.7686    6.0284    7.3347  1.80e+00
   4.9485    5.8263    9.8867  3.88e+00
   4.9607    3.9292   10.6300  3.88e+00
   5.0166    3.4634    9.4930  3.88e+00
   5.2815    5.4418   10.3315  3.88e+00
   5.3280    5.0254   14.0432  1.79e+00
   5.4032    3.9626   10.5751  3.87e+00
   4.3280    4.4099    8.5736  3.87e+00
   4.1781    6.6657    7.3908  1.79e+00
   3.8247    5.0358    4.7097  1.79e+00
   4.3377    4.2600    2.8007  1.79e+00
   4.6986    3.5645    8.8305  3.86e+00
   4.6609    4.9300   11.0731  3.86e+00
   2.8948    5.0001    1.5248 -2.98e-01
   4.0175    3.3457    1.4350  1.78e+00
   4.7151    3.6303    9.8367  3.86e+00
   4.8083    4.3350    8.1764  3.86e+00
   5.1702    5.1102   11.9958  3.85e+00
   4.1459    5.3341    8.6957  3.85e+00
   3.9766    3.6440    3.3221  1.77e+00
   4.1408    4.3795    9.0840  3.85e+00
   4.5316    5.2762   11.2020  3.85e+00
   4.9955    5.9131   11.4742  3.85e+00
   5.0021    3.8841   11.3189  3.85e+00
   4.4998    3.7805    8.1523  3.85e+00
   4.5745    6.0233   10.3884  3.84e+00
   4.1663    6.1698   12.0556  1.76e+00
   5.0640    5.4452   11.8454  3.84e+00
   4.3176    4.4441    8.1425  3.84e+00
   4.0904    5.8696    9.6064  3.84e+00
   5.4177    4.0486   11.3166  3.83e+00
   5.5382    2.1732    6.9143  1.75e+00
   5.1027    3.5738   10.7129  3.83e+00
   5.3734    1.4440    1.1834 -3.28e-01
   4.6743    6.2023   10.1305  3.83e+00
   4.4422    3.7693    9.5480  3.82e+00
   5.6214    4.8626   11.7777  3.82e+00
   4.1483    5.6605    9.3495  3.82e+00
   3.2670    4.6846    7.6359  1.74e+00
   4.1208    7.4494   11.3607  1.73e+00
   5.4931    4.4267   10.4467  3.81e+00
   4.5970    5.0748    8.2771  3.81e+00
   4.0905    5.6596    9.9517  3.81e+00
   5.0937    5.3945   10.1930  3.81e+00
   5.4425    3.8607   10.1725  3.81e+00
   4.7439    3.7631   10.9275  3.81e+00
   4.6128    6.1105    9.9331  3.80e+00
   4.4054    6.1007   10.7594  3.80e+00
   4.9385    2.2050    6.8730  1.72e+00
   4.3833    4.5224   10.8175  3.79e+00
   4.8546    3.6136   10.1500  3.79e+00
   4.6510    1.9976    0.9544 -3.72e-01
   4.0809    5.7701   10.0846  3.78e+00
   4.5217    5.8579   11.1559  3.78e+00
   3.7519    3.7369    3.0150  1.70e+00
   5.3865    4.5470   11.9306  3.78e+00
   4.7198    5.3976   11.7934  3.78e+00
   4.8302    6.0591   10.6366  3.77e+00
   4.7750    4.0828    8.1046  3.77e+00
   4.7286    2.0789    8.6591  1.69e+00
   5.0757    5.5966   11.9250  3.76e+00
   5.5352    4.2107   10.0174  3.76e+00
   4.8421    3.5263    8.3611  3.76e+00
   5.0116    3.7856    8.8737  3.76e+00
   4.9630    5.3986    9.0892  3.75e+00
   4.7209    6.0118   10.5359  3.75e+00
   5.2480    4.8038    9.2995  3.75e+00
   4.6139    4.5145    7.5109  3.75e+00
   5.4136    3.5504   10.7382  3.75e+00
   4.5506    4.9543   11.1701  3.75e+00
   5.3569    3.4702   10.5650  3.75e+00
   5.3721    5.0204   11.2942  3.75e+00
   5.2820    5.6612   11.4102  3.75e+00
   5.5163    5.9451   13.8936  1.66e+00
   5.4253    3.6837   10.8227  3.74e+00
   4.2627    4.4631    7.7924  3.74e+00
   5.6199    7.2398   12.4711  1.66e+00
   5.4500    3.6891   10.4206  3.74e+00
   4.6690    5.8900    8.9597  3.74e+00
   5.2649    5.3961   10.0921  3.74e+00
   3.7623    4.3801    3.2123  1.66e+00
   5.5318    3.8298   11.6463  3.73e+00
   3.9901    3.4911    2.8070  1.65e+00
   3.6959    5.3526    9.1625  1.65e+00
   4.1486    5.5530   10.3800  3.73e+00
   5.2549    5.8873   10.7825  3.73e+00
   5.2874    5.1492    9.6192  3.73e+00
   5.4383    5.1306   11.2188  3.73e+00
   4.7904    6.6458    8.3660  1.65e+00
   4.5643    4.8747    7.7029  3.73e+00
   5.3485    3.5409   11.0383  3.72e+00
   5.5399    4.0801   11.8863  3.72e+00
   4.4004    5.3017    8.0412  3.72e+00
   5.6458    2.0723   12.1792  1.64e+00
   4.6856    4.0350    9.9223  3.72e+00
   5.4394    5.1502   11.7388  3.71e+00
   4.0253    4.4699    1.5939  1.63e+00
   5.5506    3.7315    0.0707  1.63e+00
   4.4906    6.1672    9.6752  3.71e+00
   5.9808    4.8595   14.1026  1.63e+00
   4.7981    6.0351   11.3780  3.70e+00
   6.3285    3.2779   13.0888  1.62e+00
   5.5198    3.6608   11.1928  3.69e+00
   5.1738    3.4418    8.8179  3.69e+00
   4.6567    5.7471   11.3549  3.69e+00
   4.7379    4.2255    7.8991  3.69e+00
   6.7377    4.0066   12.5689  1.60e+00
   4.4370    3.1073    4.0235  1.60e+00
   5.3942    3.6352   10.0575  3.68e+00
   5.4554    5.2131   11.9463  3.67e+00
   4.0060    3.8210   11.1314  1.59e+00
   5.2362    3.9101    6.8314  1.59e+00
   5.0130    3.2193    9.6729  3.67e+00
   5.5981    3.9804   11.8570  3.67e+00
   4.6531    5.4977    0.1008  1.58e+00
   4.7963    2.8834    1.3064  1.58e+00
   3.7680    4.5999   11.7960  1.58e+00
   5.0019    3.6155   11.2187  3.65e+00
   4.0886    5.3612   10.5654  3.65e+00
   4.3238    5.0326    7.7867  3.65e+00
   3.7494    6.4798    8.6567  1.57e+00
   5.3127    3.8429    9.8427  3.65e+00
   3.5386    6.7515    8.9214  1.56e+00
   4.5178    3.4676    8.7281  3.64e+00
   5.1222    4.8499    9.0648  3.64e+00
   4.4695    3.5338    8.5156  3.64e+00
   4.4639    3.4613    8.8602  3.64e+00
   5.0238    3.1606    9.2935  3.64e+00
   4.3613    3.0100    6.6850  1.56e+00
   5.1066    4.8804   12.2608  3.63e+00
   4.4193    6.0856   11.1297  3.63e+00
   5.3787    4.1464   12.1312  3.63e+00
   5.1421    3.3978   10.3125  3.63e+00
   6.0670    5.2855   14.3549  1.55e+00
   4.4842    3.9631    7.3634  3.63e+00
   5.1748    5.2440    9.4016  3.62e+00
   4.1668    4.8076    7.4332  3.62e+00
   4.6876    3.4500   10.5696  3.62e+00
   4.5349    4.8809   11.2863  3.62e+00
   5.3427    5.2310   12.1261  3.62e+00
   5.1704    2.2153   11.3794  1.54e+00
   4.1955    6.0000    9.5001  3.62e+00
   4.1852    5.9233   10.5251  3.62e+00
   3.2722    6.7586    8.2044  1.53e+00
   5.4868    4.6567   12.1940  3.61e+00
   5.0409    4.4368    8.7887  3.61e+00
   5.5637    7.0214   11.5608  1.53e+00
   6.1326    5.1301   15.1087 -5.51e-01
   4.3374    5.2544   10.5002  3.60e+00
   4.7919    3.2064    9.3405  3.59e+00
   5.5787    4.8311   10.2990  3.59e+00
   4.1557    4.2507    9.2464  3.59e+00
   5.1540    3.0932   12.5673  1.51e+00
   4.8675    4.5424    7.9648  3.58e+00
   4.3819    4.5671    7.2173  3.58e+00
   4.2411    5.1967    7.6314  3.58e+00
   6.8544    3.3879   11.8136  1.50e+00
   5.0467    3.2602    8.9899  3.57e+00
   5.2896    5.3358   12.2062  3.57e+00
   4.2074    2.8429    5.3934  1.49e+00
   4.7247    5.7088   11.9355  3.57e+00
   4.2797    4.0840    7.3470  3.56e+00
   4.6866    5.4225    8.1722  3.56e+00
   5.0382    3.9743   11.8586  3.56e+00
   4.2000    5.5810   10.6830  3.56e+00
   4.2960    4.8876   10.3981  3.56e+00
   5.0472    3.4737    8.5802  3.56e+00
   5.6037    5.2049   12.2689  3.56e+00
   4.9707    3.6194   10.6298  3.55e+00
   3.1860    6.3263    7.9180  1.47e+00
   4.6074    6.5364   10.3872  3.55e+00
   5.4832    5.4753   11.5634  3.55e+00
   4.3936    4.2722   10.8157  3.55e+00
   4.3723    6.0487    9.1942  3.54e+00
   3.3911    5.2425    5.1484  1.46e+00
   4.9617    5.4540    8.8646  3.54e+00
   4.9669    3.5644    7.7402  3.54e+00
   4.7779    4.0581    7.5288  3.53e+00
   5.2087    4.3263    8.5202  3.53e+00
   5.3199    4.8026   12.3709  3.53e+00
   3.7639    4.4832    2.5023  1.45e+00
   3.6333    4.7888    4.8018  1.45e+00
   4.5899    6.3980   10.7574  3.53e+00
   5.5762    4.3705   12.3227  3.53e+00
   4.6899    3.3949    8.3275  3.53e+00
   4.6231    3.6718    9.5265  3.53e+00
   5.2790    4.0695   12.1403  3.53e+00
   4.7844    5.4643   12.1136  3.53e+00
   4.4025    5.3068    7.7714  3.52e+00
   4.3341    4.2615    7.2053  3.52e+00
   5.3849    3.3113   10.0004  3.51e+00
   4.8781    3.8042   11.2998  3.51e+00
   4.9421    4.2230    3.9641  1.42e+00
   4.1258    3.5061    0.0993  1.42e+00
   5.0965    4.5518    8.7478  3.50e+00
   4.4345    3.5808    7.5302  3.50e+00
   4.9050    4.2300    7.6460  3.50e+00
   4.9338    6.1359   11.7982  3.50e+00
   6.6697    3.9175   12.0679  1.42e+00
   5.1799    5.9195   10.1856  3.50e+00
   5.3468    4.8277   10.0561  3.50e+00
   4.5050    5.5263   11.6780  3.50e+00
   3.2234    6.5085    9.5492  1.42e+00
   4.5085    6.5301   13.3237  1.42e+00
   5.4732    5.4434   11.2189  3.49e+00
   5.3063    4.6899   12.3699  3.49e+00
   5.4884    4.0129    9.4811  3.49e+00
   5.4154    3.3922    9.9739  3.49e+00
   6.2355    4.2801   14.2047  1.41e+00
   5.4395    7.1269   12.9142  1.40e+00
   5.7695    4.1171   11.5425  3.48e+00
   4.8424    4.5154    7.7159  3.48e+00
   5.4279    3.1340   10.9711  3.48e+00
   4.4146    6.1695    9.1458  3.48e+00
   4.6088    3.5071    9.5431  3.48e+00
   5.3993    5.1163   12.3850  3.47e+00
   4.3096    4.2571    9.5745  3.47e+00
   4.8115    4.6455   11.9687  3.47e+00
   4.4553    5.0056   11.6024  3.46e+00
   4.9426    3.3011    9.9680  3.46e+00
   4.4041    6.5515    9.9569  3.46e+00
   4.3113    5.3684   10.8905  3.46e+00
   5.9217    3.5181   13.8407  1.38e+00
   3.5285    6.4876    7.5018  1.38e+00
   4.5120    5.8215    8.5239  3.45e+00
   4.9732    3.3386    8.1219  3.45e+00
   5.0541    6.0398   11.5884  3.45e+00
   4.9542    4.0045    7.3986  3.45e+00
   4.2938    7.3102    8.2071  1.37e+00
   4.8284    3.6084    2.8949  1.37e+00
   5.5309    5.1726   10.3402  3.44e+00
   4.5658    4.9613    4.8210  1.36e+00
   4.2104    3.7854    8.4745  3.44e+00
   4.9219    6.3114   11.0999  3.44e+00
   4.5240    4.8538    7.3089  3.44e+00
   5.1536    5.8852   12.2922  3.43e+00
   4.1986    4.5065   10.2770  3.43e+00
   5.6736    3.8366   10.9778  3.43e+00
   6.7106    2.6982   13.0355  1.35e+00
   4.2042    6.2407    8.7803  3.43e+00
   4.8737    6.4913   10.6999  3.43e+00
   5.5159    4.7663   12.5627  3.43e+00
   5.1107    4.1543    8.4135  3.42e+00
   5.7500    4.3978   11.4095  3.42e+00
   3.9584    5.4355    8.8451  3.42e+00
   3.9436    5.2917    8.8880  3.42e+00
   4.0390    5.3463    8.9441  3.42e+00
   4.0644    4.0302    8.7120  3.42e+00
   4.7065    3.3530   10.1148  3.41e+00
   5.8775    4.1371   10.9725  3.41e+00
   4.2423    4.9698    6.9890  3.40e+00
   4.2586    4.4373    6.8119  3.40e+00
   3.9904    5.3363    9.0638  3.40e+00
   5.8999    4.3854   11.3161  3.40e+00
   4.5034    2.9034    3.1064  1.31e+00
   5.1359    3.3680   10.9780  3.39e+00
   3.7558    5.0904    8.0737  3.39e+00
   5.4506    2.1855    6.1763  1.31e+00
   5.9336    4.5293   12.0775  3.39e+00
   4.0390    5.4015    8.4114  3.39e+00
   6.6059    2.3396   10.0660 -7.74e-01
   4.1037    3.7554    7.3650  3.38e+00
   5.6685    3.7009   11.1257  3.38e+00
   5.2901    2.7925    0.4229  1.30e+00
   5.4485    3.7565   12.2510  3.38e+00
   4.0582    5.2583    9.1707  3.37e+00
