NLLOC "./loc/vinti.19950422.151153.grid0" "LOCATED" "Location completed."
SIGNATURE "Anthony Lomax - Geosciences Azur   NLLoc:v2.30 21May2001 10h45m57"
COMMENT "1995 Vintimiglia Sequence (NonLinLoc Sample Location)"
GRID  101 101 21  -50.000000 -50.000000 0.000000  1.000000 1.000000 1.000000 PROB_DENSITY
SEARCH OCTREE nInitial 400 nEvaluated 10008 smallestNodeSide 0.078125
HYPOCENTER  x 4.453125 y 1.640625 z 7.695312  OT 50.834842  ix -1 iy -1 iz -1
GEOGRAPHIC  OT 1995 04 22  15 11 50.834842  Lat 43.764754 Long 7.555306 Depth 7.695312
QUALITY  Pmax 3.288e-02 MFmin 0.724814 MFmax 7.968176 RMS 0.162073 Nphs 13 Gap 200 Dist 13.402359 Mamp -9.90 0 Mdur  0.00 0
VPVSRATIO  VpVsRatio 1.617e+00  Npair 4  Diff 1.910e+00
STATISTICS  ExpectX 4.4131e+00 Y 1.4166e+00 Z 6.0595e+00  CovXX 2.99e-01 XY -3.14e-01 XZ -1.05e-01 YY 1.52e+00 YZ 1.32e+00 ZZ 9.54e+00 EllAz1  255.0 Dip1  1.5 Len1  8.76e-01 Az2  344.7 Dip2  -9.1 Len2  2.21e+00 Len3  5.87e+00
STAT_GEOG  ExpectLat 43.762738 Long 7.554807 Depth 6.059507
TRANSFORM  LAMBERT RefEllipsoid Clarke-1880  LatOrig 43.750000  LongOrig 7.500000  FirstStdParal 43.199300  SecondStdParal 44.996100  RotCW 0.000000
PHASE ID Ins Cmp On Pha  FM Date     HrMn   Sec     Err  ErrMag    Coda      Amp       Per      >   TTpred    Res       Weight    StaLoc(X  Y         Z)        SDist    SAzim  RAz   RDip  RQual
RONE   ?    ?    ? P      ? 19950422 1511   53.6300 GAU  1.00e-01 -1.00e+00 -1.00e+00 -1.00e+00 >    2.9104   -0.1152    1.0000    7.8887   14.5952   -0.3000   13.4024  14.85  14.9 115.1  9
RONE   ?    ?    ? S      ? 19950422 1511   55.7000 GAU  1.00e-01 -1.00e+00 -1.00e+00 -1.00e+00 >    4.8895   -0.0243    1.0000    7.8887   14.5952   -0.3000   13.4024  14.85  14.9 115.1  9
SBF    ?    ?    P G      ? 19950422 1511   54.3200 GAU  1.00e-01 -1.00e+00 -1.00e+00 -1.00e+00 >    3.2068    0.2784    1.0000   -5.2384   12.6113   -0.8470   14.6384 318.54 318.5 113.9  9
NEGI   ?    ?    ? P      ? 19950422 1511   54.1300 GAU  1.00e-01 -1.00e+00 -1.00e+00 -1.00e+00 >    3.2351    0.0200    1.0000   16.3893   10.8705   -0.6400   15.0885  52.29  52.3 113.1  9
NEGI   ?    ?    ? S      ? 19950422 1511   56.4200 GAU  1.00e-01 -1.00e+00 -1.00e+00 -1.00e+00 >    5.4350    0.1101    1.0000   16.3893   10.8705   -0.6400   15.0885  52.29  52.3 113.1  9
REVF   ?    ?    P G      ? 19950422 1511   53.8700 GAU  1.00e-01 -1.00e+00 -1.00e+00 -1.00e+00 >    3.2908   -0.2556    1.0000  -10.6730   -1.1024   -0.7000   15.3728 259.72 259.7 112.8  9
CEPP   ?    ?    ? P      ? 19950422 1511   55.3200 GAU  1.00e-01 -1.00e+00 -1.00e+00 -1.00e+00 >    4.5383   -0.0532    1.0000   19.7971   18.5085   -1.0800   22.8027  42.29  42.3 106.4  9
CEPP   ?    ?    ? S      ? 19950422 1511   58.3400 GAU  1.00e-01 -1.00e+00 -1.00e+00 -1.00e+00 >    7.6244   -0.1192    1.0000   19.7971   18.5085   -1.0800   22.8027  42.29  42.3 106.4  9
AURF   ?    ?    P G      ? 19950422 1511   55.5400 GAU  1.00e-01 -1.00e+00 -1.00e+00 -1.00e+00 >    4.5352    0.1700    1.0000  -13.8607   15.2716   -1.0400   22.8298 306.66 306.7 106.3  9
AUTN   ?    ?    P G      ? 19950422 1511   56.0300 GAU  1.00e-01 -1.00e+00 -1.00e+00 -1.00e+00 >    5.5035   -0.3083    1.0000   -5.8149   27.2765   -2.0690   27.6158 338.17 338.2 104.2  9
IMI    ?    ?    ? P      ? 19950422 1511   56.8700 GAU  1.00e-01 -1.00e+00 -1.00e+00 -1.00e+00 >    5.9227    0.1125    1.0000   31.5793   17.9062   -0.8400   31.6291  59.05  59.1 102.2  9
IMI    ?    ?    ? S      ? 19950422 1512    0.8500 GAU  1.00e-01 -1.00e+00 -1.00e+00 -1.00e+00 >    9.9501    0.0650    1.0000   31.5793   17.9062   -0.8400   31.6291  59.05  59.1 102.2  9
MVIF   ?    ?    P G      ? 19950422 1511   57.6400 GAU  1.00e-01 -1.00e+00 -1.00e+00 -1.00e+00 >    6.6852    0.1199    1.0000  -27.9180   16.3343   -1.4800   35.5499 294.41 294.4 101.2  9
END_PHASE
END_NLLOC

