NLLOC "./loc/vinti.19950422.151153.grid0" "LOCATED" "Location completed."
SIGNATURE "Anthony Lomax - Geosciences Azur   NLLoc:v2.30 21May2001 10h45m57"
COMMENT "1995 Vintimiglia Sequence (NonLinLoc Sample Location)"
GRID  101 101 21  -50.000000 -50.000000 0.000000  1.000000 1.000000 1.000000 PROB_DENSITY
SEARCH OCTREE nInitial 400 nEvaluated 10008 smallestNodeSide 0.078125
HYPOCENTER  x 4.453125 y 1.640625 z 7.695312  OT 50.834842  ix -1 iy -1 iz -1
GEOGRAPHIC  OT 1995 04 22  15 11 50.834842  Lat 43.764754 Long 7.555306 Depth 7.695312
QUALITY  Pmax 3.288e-02 MFmin 0.724814 MFmax 7.968176 RMS 0.162073 Nphs 13 Gap 200 Dist 13.402359 Mamp -9.90 0 Mdur  0.00 0
VPVSRATIO  VpVsRatio 1.617e+00  Npair 4  Diff 1.910e+00
STATISTICS  ExpectX 4.4131e+00 Y 1.4166e+00 Z 6.0595e+00  CovXX 2.99e-01 XY -3.14e-01 XZ -1.05e-01 YY 1.52e+00 YZ 1.32e+00 ZZ 9.54e+00 EllAz1  255.0 Dip1  1.5 Len1  8.76e-01 Az2  344.7 Dip2  -9.1 Len2  2.21e+00 Len3  5.87e+00
STAT_GEOG  ExpectLat 43.762738 Long 7.554807 Depth 6.059507
TRANSFORM  LAMBERT RefEllipsoid Clarke-1880  LatOrig 43.750000  LongOrig 7.500000  FirstStdParal 43.199300  SecondStdParal 44.996100  RotCW 0.000000
PHASE ID Ins Cmp On Pha  FM Date     HrMn   Sec     Err  ErrMag    Coda      Amp       Per      >   TTpred    Res       Weight    StaLoc(X  Y         Z)        SDist    SAzim  RAz   RDip  RQual
RONE   ?    ?    ? P      ? 19950422 1511   53.6300 GAU  1.00e-01 -1.00e+00 -1.00e+00 -1.00e+00 >    2.9104   -0.1152    1.0000    7.8887   14.5952   -0.3000   13.4024  14.85  14.9 115.1  9
RONE   ?    ?    ? S      ? 19950422 1511   55.7000 GAU  1.00e-01 -1.00e+00 -1.00e+00 -1.00e+00 >    4.8895   -0.0243    1.0000    7.8887   14.5952   -0.3000   13.4024  14.85  14.9 115.1  9
SBF    ?    ?    P G      ? 19950422 1511   54.3200 GAU  1.00e-01 -1.00e+00 -1.00e+00 -1.00e+00 >    3.2068    0.2784    1.0000   -5.2384   12.6113   -0.8470   14.6384 318.54 318.5 113.9  9
NEGI   ?    ?    ? P      ? 19950422 1511   54.1300 GAU  1.00e-01 -1.00e+00 -1.00e+00 -1.00e+00 >    3.2351    0.0200    1.0000   16.3893   10.8705   -0.6400   15.0885  52.29  52.3 113.1  9
NEGI   ?    ?    ? S      ? 19950422 1511   56.4200 GAU  1.00e-01 -1.00e+00 -1.00e+00 -1.00e+00 >    5.4350    0.1101    1.0000   16.3893   10.8705   -0.6400   15.0885  52.29  52.3 113.1  9
REVF   ?    ?    P G      ? 19950422 1511   53.8700 GAU  1.00e-01 -1.00e+00 -1.00e+00 -1.00e+00 >    3.2908   -0.2556    1.0000  -10.6730   -1.1024   -0.7000   15.3728 259.72 259.7 112.8  9
CEPP   ?    ?    ? P      ? 19950422 1511   55.3200 GAU  1.00e-01 -1.00e+00 -1.00e+00 -1.00e+00 >    4.5383   -0.0532    1.0000   19.7971   18.5085   -1.0800   22.8027  42.29  42.3 106.4  9
CEPP   ?    ?    ? S      ? 19950422 1511   58.3400 GAU  1.00e-01 -1.00e+00 -1.00e+00 -1.00e+00 >    7.6244   -0.1192    1.0000   19.7971   18.5085   -1.0800   22.8027  42.29  42.3 106.4  9
AURF   ?    ?    P G      ? 19950422 1511   55.5400 GAU  1.00e-01 -1.00e+00 -1.00e+00 -1.00e+00 >    4.5352    0.1700    1.0000  -13.8607   15.2716   -1.0400   22.8298 306.66 306.7 106.3  9
AUTN   ?    ?    P G      ? 19950422 1511   56.0300 GAU  1.00e-01 -1.00e+00 -1.00e+00 -1.00e+00 >    5.5035   -0.3083    1.0000   -5.8149   27.2765   -2.0690   27.6158 338.17 338.2 104.2  9
IMI    ?    ?    ? P      ? 19950422 1511   56.8700 GAU  1.00e-01 -1.00e+00 -1.00e+00 -1.00e+00 >    5.9227    0.1125    1.0000   31.5793   17.9062   -0.8400   31.6291  59.05  59.1 102.2  9
IMI    ?    ?    ? S      ? 19950422 1512    0.8500 GAU  1.00e-01 -1.00e+00 -1.00e+00 -1.00e+00 >    9.9501    0.0650    1.0000   31.5793   17.9062   -0.8400   31.6291  59.05  59.1 102.2  9
MVIF   ?    ?    P G      ? 19950422 1511   57.6400 GAU  1.00e-01 -1.00e+00 -1.00e+00 -1.00e+00 >    6.6852    0.1199    1.0000  -27.9180   16.3343   -1.4800   35.5499 294.41 294.4 101.2  9
END_PHASE
SCATTER Nsamples 988
   4.0627    1.7318    7.4182  2.10e+00
   4.1857    1.6247    7.5834  2.09e+00
   4.3818    1.4745    8.1146  2.09e+00
   4.0821    1.6267    6.9958  2.09e+00
   4.4310    1.3158    6.8718  2.09e+00
   4.1841    1.9746    7.8244  2.08e+00
   4.2213    1.8421    6.7574  2.08e+00
   4.1466    2.0507    7.5291  2.08e+00
   4.2167    3.6496   11.5892 -3.29e-03
   4.1767    1.9431    8.0066  2.07e+00
   3.2606    1.3144    2.5123 -6.82e-03
   4.4409    1.5378    8.1429  2.07e+00
   4.4001    1.8629    8.4506  2.07e+00
   4.1539    1.5804    7.8904  2.07e+00
   4.5254    1.4914    6.7061  2.07e+00
   4.5394    1.2125    7.0263  2.07e+00
   3.4940    1.7022    6.9378 -9.90e-03
   4.1865    2.0576    7.3565  2.07e+00
   4.6257    1.0396    6.8443  2.07e+00
   4.3874    1.7856    7.2471  2.07e+00
   5.2190    1.8553   10.7867 -1.50e-02
   4.5285    0.9650    6.6041  2.06e+00
   4.3971    1.1996    7.3023  2.06e+00
   4.7405   -0.9218    5.9403 -2.76e-02
   4.0859    1.8040    6.4775  2.05e+00
   4.6396    1.6210    8.6199  2.05e+00
   4.3657    1.4007    6.8536  2.05e+00
   4.5659    1.5034    8.3251  2.05e+00
   4.2849    1.3260    6.8863  2.05e+00
   4.1345    1.2742    6.6678  2.05e+00
   4.7626    1.6320   11.6902 -3.28e-02
   4.5661    1.8006    7.0860  2.05e+00
   4.1196    1.5347    7.1136  2.04e+00
   4.3214    2.1399    7.1765  2.04e+00
   3.2153    1.5292    2.0513 -3.85e-02
   3.2616    2.5775    9.5489 -4.12e-02
   4.3188    1.3759    6.3175  2.04e+00
   4.2570    1.2721    7.2686  2.03e+00
   4.6821    1.1828    6.1826  2.03e+00
   4.3218    1.5987    6.2839  2.03e+00
   4.1149    1.7267    8.1348  2.03e+00
   4.0810    2.0834    8.5304  2.03e+00
   4.6804    1.7148    8.8998  2.02e+00
   4.4310    1.5640    6.9803  2.02e+00
   4.0974    2.0721    6.8855  2.02e+00
   4.5993    1.9892    8.0275  2.02e+00
   5.1928    0.8731    4.8620 -6.44e-02
   5.5253   -0.9482    4.5778 -6.69e-02
   3.1659    2.0755    2.1167 -6.87e-02
   5.0404   -0.7437    5.2044 -6.90e-02
   4.6534    2.3086   11.9320 -6.96e-02
   4.5158    1.4164    6.2174  2.01e+00
   4.4392    1.2412    7.9082  2.01e+00
   4.6411    1.7144    6.7719  2.00e+00
   4.1283    1.4176    5.8508  2.00e+00
   3.4209    2.9178    4.5591 -8.19e-02
   4.2602    2.2111    8.3857  1.99e+00
   4.2211    1.6078    6.0462  1.99e+00
   4.5252    1.5556    8.6106  1.99e+00
   4.1322    2.2164    7.8428  1.99e+00
   4.2642    1.4575    5.7212  1.98e+00
   3.2654    3.3198    6.7237 -9.84e-02
   4.4496    1.1870    8.0075  1.98e+00
   4.1960    2.0660    6.6543  1.98e+00
   4.2082    3.8522    7.8347 -1.04e-01
   4.2890    2.3585    7.6795  1.97e+00
   4.0821    1.3610    5.5635  1.97e+00
   4.5527    0.9890    5.5727  1.96e+00
   4.2232    2.3949    8.8363  1.96e+00
   4.6035    0.9304    6.3852  1.96e+00
   4.4317    0.9208    6.5056  1.96e+00
   4.5911    1.3882    5.9129  1.95e+00
   4.6416    0.6694    6.6768  1.95e+00
   4.3139    1.9797    6.4725  1.95e+00
   4.5749    1.1643    8.1474  1.95e+00
   4.1282    1.4671    5.3227  1.95e+00
   4.5822    1.8627    6.5250  1.94e+00
   4.5794    3.2734    7.9815 -1.41e-01
   4.1679    2.2406    7.4792  1.94e+00
   4.2347    2.0230    9.0223  1.93e+00
   4.0730    1.0816    6.1545  1.93e+00
   4.1925    2.3069    8.9095  1.93e+00
   4.5986    0.6761    5.6945  1.93e+00
   5.0180   -1.0704    1.9627 -1.47e-01
   4.1371    1.3644    8.0819  1.93e+00
   4.3245    1.2397    6.0793  1.93e+00
   4.3300    1.1615    5.8933  1.93e+00
   4.0773    1.0080    6.6629  1.92e+00
   4.2834    1.3885    5.1795  1.92e+00
   4.6575    0.8130    5.4761  1.92e+00
   5.1003   -1.1820    6.5538 -1.59e-01
   4.0858    1.0649    5.7622  1.92e+00
   4.5160    1.0527    5.2281  1.92e+00
   4.1177    1.7871    5.6213  1.91e+00
   4.3237    1.0699    5.6206  1.91e+00
   4.3898    0.7020    7.2742  1.91e+00
   4.2156    0.9642    7.0159  1.90e+00
   4.4389    1.4463    5.5978  1.90e+00
   4.5499    0.7333    7.3564  1.89e+00
   4.5965    2.4024    8.8183  1.89e+00
   4.0756    2.2409    7.1310  1.89e+00
   4.4473    0.8534    5.1503  1.88e+00
   4.4766   -1.1814    6.5832 -2.05e-01
   4.6213    1.8112    6.1537  1.87e+00
   4.3586    1.2268    5.1502  1.87e+00
   4.5464    1.1578    8.4858  1.87e+00
   5.1300    1.8287    6.4298 -2.21e-01
   4.1135    1.3666    8.4108  1.86e+00
   4.2563    2.7771    8.4590  1.85e+00
   4.0860    2.7972    8.8184  1.85e+00
   4.2983    1.1434    4.7128  1.85e+00
   4.3894    1.9949    6.8955  1.85e+00
   4.2205    2.4298    9.2974  1.85e+00
   5.6051   -2.3264    7.3516 -2.31e+00
   4.6316    1.4202    9.1884  1.84e+00
   4.1669    1.6874    8.9651  1.84e+00
   4.5224    0.9289    7.7344  1.84e+00
   4.3528    2.7529    8.9334  1.84e+00
   4.5276    1.1364    8.6531  1.83e+00
   4.5656    2.3093    7.9800  1.83e+00
   4.6687    1.7658    9.5127  1.82e+00
   3.7135    2.0643    1.2638 -2.61e-01
   4.0783    2.0800    9.2610  1.82e+00
   4.3697    1.2333    7.6295  1.82e+00
   5.3890   -0.8935    7.0607 -2.64e-01
   4.1713    2.5263    8.1117  1.81e+00
   4.6074    0.8064    4.5051  1.81e+00
   4.1969    1.5597    4.5101  1.81e+00
   4.9384    0.9836    7.4449  1.80e+00
   4.7070    1.0573    7.8676  1.80e+00
   4.5634    2.4498    9.4547  1.80e+00
   4.5034    2.4331    7.8180  1.80e+00
   4.1188    1.0089    4.2861  1.80e+00
   3.8816    0.1909   12.4200 -2.36e+00
   4.7378    1.3208    8.0924  1.79e+00
   4.4134    1.3838    0.8658  1.79e+00
   4.7811    1.3094    8.4090  1.79e+00
   4.5254    1.1836    1.0549  1.78e+00
   4.4923    0.4999    5.9959  1.77e+00
   4.4524    1.4420    0.7196  1.77e+00
   4.5075    0.5452    5.4564  1.77e+00
   4.6636    1.4058    9.2232  1.77e+00
   4.5912    0.5314    6.1935  1.77e+00
   4.9161    1.1005    7.0238  1.77e+00
   4.4042    1.1949    1.2650  1.77e+00
   4.8577    1.5576    7.5248  1.77e+00
   4.5237    0.6204    6.2570  1.76e+00
   4.7128    0.7918    7.2027  1.76e+00
   4.7162    0.9091    6.9816  1.76e+00
   4.1452    1.7988    4.7058  1.76e+00
   4.8206    1.1712    6.7410  1.75e+00
   4.0915    1.1999    7.8980  1.75e+00
   4.3853    0.4865    6.4650  1.75e+00
   4.0571    3.2669   11.9531 -3.28e-01
   4.8325    0.8322    6.8409  1.75e+00
   4.1912    0.8839    5.7683  1.75e+00
   4.3680    0.8115    5.2976  1.75e+00
   4.0178    2.7865   11.9948 -3.35e-01
   4.1859    0.8415    6.0568  1.74e+00
   4.5279    2.0837    9.8138  1.74e+00
   4.3140    0.9666    3.7785  1.74e+00
   4.7805    1.3897    8.7839  1.74e+00
   4.7317    1.1929    8.5818  1.74e+00
   4.4051    0.6086    6.6723  1.74e+00
   4.5343    1.4796    0.6219  1.74e+00
   4.3403    0.7340    6.1184  1.74e+00
   4.9249    1.1252    6.5965  1.73e+00
   4.6336    0.8789    3.8989  1.73e+00
   4.2621    0.8802    4.9991  1.73e+00
   4.1837    1.3591    3.9855  1.73e+00
   4.2583    2.3889    9.5937  1.73e+00
   4.6721    1.5998    0.6992  1.73e+00
   4.1397    1.1104    3.6726  1.73e+00
   4.4236    0.9539    8.9982  1.72e+00
   4.5327    1.5853    5.4829  1.72e+00
   4.6860    0.5191    4.5103  1.72e+00
   4.7445    1.7039    8.5811  1.72e+00
   4.6865    0.7177    3.7086  1.72e+00
   4.8462    1.2768    9.0063  1.72e+00
   4.8854    1.2149    8.6765  1.71e+00
   3.9216    2.1795    6.7484  1.71e+00
   4.5266    2.2587    9.7046  1.71e+00
   3.7624    2.0658    7.5103  1.71e+00
   4.5831    0.3990    4.2356  1.71e+00
   4.1651    1.0409    3.4696  1.71e+00
   4.2839    1.9839    5.3845  1.71e+00
   4.1530    1.2563    3.7971  1.71e+00
   3.6864    2.5327    3.2783 -3.73e-01
   4.3940    1.8101    0.8003  1.71e+00
   4.1057    2.7722    7.3525  1.71e+00
   4.1324    2.3949    6.2883  1.70e+00
   4.9378    1.6275    8.2564  1.70e+00
   4.6662    0.7138    1.1531  1.70e+00
   3.8725    4.3372   11.7865 -3.77e-01
   4.4966    1.4971    1.3686  1.70e+00
   4.0197    2.2862    7.7447  1.70e+00
   3.8860    1.9767    6.5662  1.70e+00
   4.6470    0.6391    3.5539  1.70e+00
   4.0841    0.8426    4.2304  1.70e+00
   4.9859    0.9349    8.1102  1.70e+00
   3.9390    2.3293    7.4896  1.70e+00
   4.1534    1.7734    4.4510  1.69e+00
   4.0811    2.5719    9.5828  1.69e+00
   3.7771    2.3607    7.3294  1.69e+00
   3.7882    2.4948    8.0915  1.69e+00
   4.0458    1.9051    6.5500  1.69e+00
   4.7763    0.9957    6.3981  1.69e+00
   4.3888    1.1746    3.8255  1.69e+00
   4.5092    0.4489    3.9950  1.68e+00
   3.8681    2.1434    7.9383  1.68e+00
   4.4184    0.8626    3.2845  1.68e+00
   4.5788    1.7499    5.3671  1.68e+00
   4.3490    0.9271    6.7776  1.68e+00
   4.5617    0.7979    8.3150  1.68e+00
   4.8726    1.4959    6.9951  1.68e+00
   4.0833   -0.0514    6.7797 -4.01e-01
   3.9941    1.7565    6.5575  1.67e+00
   4.2849    0.9642    3.1957  1.67e+00
   4.7885    0.6810    8.1310  1.67e+00
   4.3949    2.0760    9.9590  1.67e+00
   4.7911    2.8426   12.4120 -4.09e-01
   4.9192    1.8170    9.1260  1.67e+00
   4.0080    1.7812    6.2685  1.67e+00
   4.5384    1.8706    0.9605  1.66e+00
   4.3029    1.1402    8.2264  1.66e+00
   3.8756    1.6832    7.0581  1.66e+00
   4.6518    0.9874    3.6272  1.66e+00
   4.6934    1.0757    6.2474  1.66e+00
   3.4257    3.0133   10.2408 -4.20e-01
   4.3662    1.7569    4.2995  1.66e+00
   4.2246    1.1965    3.0190  1.65e+00
   4.5908    0.3934    7.2400  1.65e+00
   4.3605    1.4936    1.3498  1.65e+00
   4.1378    0.7999    3.6324  1.65e+00
   4.4416    2.6206    8.7301  1.65e+00
   3.3049    3.9007    9.5808 -4.28e-01
   4.8250    1.4869    6.7572  1.65e+00
   3.8072    1.8625    5.9403  1.65e+00
   4.8439    0.6117    6.6159  1.65e+00
   4.4615    0.7436    1.8396  1.65e+00
   4.7970    0.3671    6.8156  1.65e+00
   5.0274    1.0977    3.6811 -4.35e-01
   3.7624    2.3793    6.7619  1.64e+00
   4.2745    0.7538    3.4441  1.64e+00
   4.8594    0.4194    6.9120  1.64e+00
   3.7571    1.7026    5.8231  1.64e+00
   3.9588    1.6690    7.4938  1.64e+00
   4.3545    1.4756    1.1088  1.64e+00
   4.1120    1.1294    1.6183  1.63e+00
   4.2310    0.7914    7.1540  1.63e+00
   4.9963    1.1637    0.9218  1.63e+00
   4.3172    3.1122    9.1667  1.63e+00
   4.6733    2.5754    8.5018  1.63e+00
   3.1840    0.6416    3.5795 -4.49e-01
   4.1402    1.2053    2.7784  1.63e+00
   3.9424    2.3655    8.4562  1.63e+00
   4.1576    4.2780    7.4958 -4.55e-01
   4.7209    1.3417    0.4798  1.62e+00
   4.2109    1.6931    4.0970  1.62e+00
   4.6090    0.5155    7.4217  1.62e+00
   4.8452    1.2286    0.4618  1.62e+00
   4.1035    3.0203    9.3397  1.61e+00
   4.4277    0.8240    2.7375  1.61e+00
   3.8049    2.7690    8.2768  1.61e+00
   4.1135    3.0964    8.4970  1.61e+00
   4.2531    1.0259    8.3340  1.61e+00
   3.8886    1.9291    5.8530  1.61e+00
   4.8466    0.4561    5.6972  1.61e+00
   5.5841    1.7181   11.3358 -4.76e-01
   4.5641    1.6330    1.1649  1.60e+00
   4.6175    0.3541    1.6101  1.60e+00
   4.4808    2.0374    0.4252  1.60e+00
   4.7799    1.1001    5.7928  1.60e+00
   4.5608    1.4890    0.1859  1.60e+00
   3.8335    2.2792    8.7292  1.60e+00
   4.9880    1.6405    7.4065  1.60e+00
   3.4234    2.8060    2.5870 -4.83e-01
   4.0714    1.6284    1.3680  1.60e+00
   4.6132    0.3345    2.9248  1.60e+00
   3.8912    2.7596    8.5237  1.59e+00
   3.9856    1.7974    7.7584  1.59e+00
   4.8374    0.8828    0.6900  1.59e+00
   4.9986    0.9956    1.0540  1.59e+00
   3.7614    1.6064    5.4620  1.59e+00
   4.3792    1.1184    1.7664  1.59e+00
   4.7965    1.4742    0.1455  1.59e+00
   4.2515    1.9915    9.7688  1.59e+00
   4.3966    1.8687    9.9090  1.59e+00
   4.4180    2.0702    0.1802  1.59e+00
   4.9184    1.4445    6.4167  1.59e+00
   4.4207    1.7414    0.1452  1.59e+00
   4.4264    0.5432    2.7881  1.59e+00
   4.8833    0.4374    7.5768  1.58e+00
   4.1315    2.3104    9.9107  1.58e+00
   3.1633    4.1072    9.9397 -4.98e-01
   4.2094    2.0354    4.9470  1.58e+00
   4.6929    0.4938    5.4481  1.58e+00
   4.1211    2.6534    7.0249  1.58e+00
   4.1836    1.2761    1.7933  1.58e+00
   4.9084    1.2481    0.1734  1.58e+00
   4.6849    0.9233    2.2311  1.58e+00
   5.3777    1.7592    5.8402 -5.04e-01
   4.2970    2.6424    9.9262  1.57e+00
   3.8452    1.6362    5.2450  1.57e+00
   4.3747    0.7459    2.3667  1.57e+00
   4.8347    1.9226    9.2018  1.57e+00
   4.4670    3.2818    0.1139 -5.10e-01
   4.5957    0.3276    2.3715  1.57e+00
   4.1861    0.6287    7.4252  1.57e+00
   4.0264    1.5796    7.9116  1.57e+00
   4.4835    1.1177    3.0574  1.57e+00
   4.9946    0.9367    8.5968  1.56e+00
   4.8688    1.4956    9.4681  1.56e+00
   4.7154    1.5978    7.2970  1.56e+00
   4.3508    0.7849    2.3214  1.56e+00
   3.9330    1.3900    6.2642  1.56e+00
   4.5593    0.3522    2.3265  1.56e+00
   4.2455    3.0558    9.5620  1.56e+00
   4.3948    0.3537    1.9172  1.56e+00
   4.6696    1.9491    0.0719  1.56e+00
   4.1670    1.1635    8.4431  1.56e+00
   3.9076    1.2576    5.7672  1.55e+00
   4.2851    0.7107    2.0439  1.55e+00
   4.5013    0.4933    7.7387  1.55e+00
   4.9928    1.4810    6.2741  1.55e+00
   4.7742    1.6384    0.1972  1.55e+00
   4.1740    0.8926    2.0184  1.55e+00
   4.5987    0.9453    2.8952  1.55e+00
   4.5245    2.7594    9.9650  1.54e+00
   4.3333    1.1967    1.2401  1.54e+00
   4.8606    1.4313    0.8770  1.54e+00
   4.6666    2.1605    5.8834  1.54e+00
   4.2174    2.7431    6.8236  1.53e+00
   4.5569    0.0218    5.0011  1.53e+00
   4.5256    0.2842    5.2031  1.53e+00
   4.7473    0.9452    1.2086  1.53e+00
   3.8288    1.7319    4.8587  1.53e+00
   4.4682    0.0005    4.5405  1.53e+00
   4.0077    1.4066    5.2946  1.53e+00
   4.2494    1.8461    0.6851  1.53e+00
   4.5279    0.0251    5.5199  1.52e+00
   4.2905    2.2358    5.7082  1.52e+00
   4.0325    2.1586    8.7252  1.52e+00
   4.4031    0.1019    4.2193  1.52e+00
   4.1480    2.8613    9.7428  1.52e+00
   3.9606    1.3587    5.1350  1.51e+00
   4.4749    0.2537    4.1886  1.51e+00
   4.5230    0.3870    7.8328  1.51e+00
   4.6864    2.3060   10.2566  1.51e+00
   4.9569    0.5584    4.7340  1.51e+00
   3.6059    2.9430    2.0396 -5.71e-01
   4.0252    1.6404    4.7957  1.51e+00
   4.6215    0.4981    1.2347  1.51e+00
   4.4060    0.2776    3.9466  1.51e+00
   4.6320    2.1835    0.8235  1.50e+00
   3.9490    1.4486    7.1319  1.50e+00
   4.2660    2.6608   10.0040  1.50e+00
   4.7617    0.3397    7.9744  1.50e+00
   4.2132    1.5797    1.5958  1.50e+00
   4.7344    1.3552    9.6043  1.50e+00
   4.6288    1.2598    0.0824  1.50e+00
   4.1768    0.4263    5.2264  1.50e+00
   4.3568    2.0181    0.9570  1.50e+00
   4.1339    1.2333    8.6592  1.49e+00
   4.2201    0.5075    4.2706  1.49e+00
   4.9478    0.5743    4.6342  1.49e+00
   4.3902    0.9547    1.9892  1.49e+00
   4.2014    1.9065    0.7370  1.49e+00
   4.5831    0.2726    6.1530  1.48e+00
   4.2902    0.5435    4.0452  1.48e+00
   4.0618    1.4984    7.2477  1.48e+00
   4.4737    0.3015    3.3225  1.48e+00
   4.8849    0.1275    5.8834  1.47e+00
   5.1792    2.0079   11.4087 -6.06e-01
   4.1730    1.7872   13.7221 -2.69e+00
   4.7992    0.4509    0.8053  1.47e+00
   4.9892    0.6900    9.0588  1.47e+00
   3.9871    2.7685    6.7483  1.47e+00
   4.7774    1.1205    5.2267  1.47e+00
   4.8028    0.0204    5.5485  1.47e+00
   4.3707    0.3898    3.4724  1.47e+00
   4.0806    1.8847    4.4043  1.46e+00
   4.5154    2.1892    6.6800  1.46e+00
   4.8573    0.1689    5.4233  1.46e+00
   4.0671    0.4613    3.3020  1.46e+00
   4.0289    1.2691    4.3750  1.46e+00
   4.3042    2.9228    7.7241  1.46e+00
   4.2004    1.7644    0.6085  1.46e+00
   3.9717    3.0471    8.6211  1.46e+00
   4.3604    0.4162    3.2145  1.45e+00
   4.4773    0.1474    2.8116  1.45e+00
   4.8351    0.9891    1.2618  1.45e+00
   4.2362    1.7403    3.2346  1.45e+00
   4.9959    0.9398    9.4890  1.45e+00
   5.4429    0.0973   10.6632 -6.36e-01
   4.9467    0.0285    5.1429  1.44e+00
   3.6487    3.0606   10.5536 -6.37e-01
   3.9788    1.9306    4.9177  1.44e+00
   4.5133    0.0106    2.6458  1.44e+00
   4.5735    2.0356    5.5799  1.44e+00
   4.5643    0.0223    2.3735  1.44e+00
   4.1054    2.5467    6.4747  1.44e+00
   4.8367    1.4210    5.8364  1.43e+00
