NLLOC "./loc/vinti.19950422.154719.grid0" "LOCATED" "Location completed."
SIGNATURE "Anthony Lomax - Geosciences Azur   NLLoc:v2.30 21May2001 10h45m59"
COMMENT "1995 Vintimiglia Sequence (NonLinLoc Sample Location)"
GRID  101 101 21  -50.000000 -50.000000 0.000000  1.000000 1.000000 1.000000 PROB_DENSITY
SEARCH OCTREE nInitial 400 nEvaluated 10000 smallestNodeSide 0.156250
HYPOCENTER  x 3.281250 y 2.656250 z 10.390625  OT 16.170514  ix -1 iy -1 iz -1
GEOGRAPHIC  OT 1995 04 22  15 47 16.170514  Lat 43.773903 Long 7.540758 Depth 10.390625
QUALITY  Pmax 3.601e-05 MFmin 1.254636 MFmax 8.186559 RMS 0.280545 Nphs 13 Gap 231 Dist 12.797117 Mamp -9.90 0 Mdur  0.00 0
VPVSRATIO  VpVsRatio 1.767e+00  Npair 4  Diff 2.350e+00
STATISTICS  ExpectX 3.2256e+00 Y 1.7770e+00 Z 8.1763e+00  CovXX 3.07e-01 XY -6.21e-02 XZ 4.30e-01 YY 3.72e+00 YZ 3.93e+00 ZZ 1.10e+01 EllAz1  83.8 Dip1  -4.6 Len1  9.68e-01 Az2  351.8 Dip2  -23.2 Len2  2.68e+00 Len3  6.70e+00
STAT_GEOG  ExpectLat 43.765988 Long 7.540062 Depth 8.176255
TRANSFORM  LAMBERT RefEllipsoid Clarke-1880  LatOrig 43.750000  LongOrig 7.500000  FirstStdParal 43.199300  SecondStdParal 44.996100  RotCW 0.000000
PHASE ID Ins Cmp On Pha  FM Date     HrMn   Sec     Err  ErrMag    Coda      Amp       Per      >   TTpred    Res       Weight    StaLoc(X  Y         Z)        SDist    SAzim  RAz   RDip  RQual
RONE   ?    ?    ? P      ? 19950422 1547   19.2900 GAU  1.00e-01 -1.00e+00 -1.00e+00 -1.00e+00 >    3.0431    0.0764    1.0000    7.8887   14.5952   -0.3000   12.7971  21.10  21.1 122.3  9
RONE   ?    ?    ? S      ? 19950422 1547   21.0200 GAU  1.00e-01 -1.00e+00 -1.00e+00 -1.00e+00 >    5.1124   -0.2629    1.0000    7.8887   14.5952   -0.3000   12.7971  21.10  21.1 122.3  9
SBF    ?    ?    P G      ? 19950422 1547   19.8900 GAU  1.00e-01 -1.00e+00 -1.00e+00 -1.00e+00 >    3.1985    0.5210    1.0000   -5.2384   12.6113   -0.8470   13.1030 319.44 319.4 122.4  9
NEGI   ?    ?    ? P      ? 19950422 1547   19.8000 GAU  1.00e-01 -1.00e+00 -1.00e+00 -1.00e+00 >    3.4895    0.1000    1.0000   16.3893   10.8705   -0.6400   15.4692  57.93  57.9 117.2  9
NEGI   ?    ?    ? S      ? 19950422 1547   21.9400 GAU  1.00e-01 -1.00e+00 -1.00e+00 -1.00e+00 >    5.8623   -0.1328    1.0000   16.3893   10.8705   -0.6400   15.4692  57.93  57.9 117.2  9
AURF   ?    ?    P G      ? 19950422 1547   20.6300 GAU  1.00e-01 -1.00e+00 -1.00e+00 -1.00e+00 >    4.4375    0.0219    1.0000  -13.8607   15.2716   -1.0400   21.2836 306.35 306.4 109.2  9
CEPP   ?    ?    ? P      ? 19950422 1547   20.9600 GAU  1.00e-01 -1.00e+00 -1.00e+00 -1.00e+00 >    4.6929    0.0966    1.0000   19.7971   18.5085   -1.0800   22.8925  46.17  46.2 107.4  9
CEPP   ?    ?    ? S      ? 19950422 1547   23.9700 GAU  1.00e-01 -1.00e+00 -1.00e+00 -1.00e+00 >    7.8840   -0.0845    1.0000   19.7971   18.5085   -1.0800   22.8925  46.17  46.2 107.4  9
AUTN   ?    ?    P G      ? 19950422 1547   21.7300 GAU  1.00e-01 -1.00e+00 -1.00e+00 -1.00e+00 >    5.4082    0.1513    1.0000   -5.8149   27.2765   -2.0690   26.2469 339.72 339.7 104.8  9
IMI    ?    ?    ? P      ? 19950422 1547   22.3300 GAU  1.00e-01 -1.00e+00 -1.00e+00 -1.00e+00 >    6.1004    0.0590    1.0000   31.5793   17.9062   -0.8400   32.1456  61.68  61.7  99.6  9
IMI    ?    ?    ? S      ? 19950422 1547   26.4100 GAU  1.00e-01 -1.00e+00 -1.00e+00 -1.00e+00 >   10.2488   -0.0093    1.0000   31.5793   17.9062   -0.8400   32.1456  61.68  61.7  99.6  9
MVIF   ?    ?    P G      ? 19950422 1547   21.9500 GAU  1.00e-01 -1.00e+00 -1.00e+00 -1.00e+00 >    6.5283   -0.7488    1.0000  -27.9180   16.3343   -1.4800   34.0658 293.67 293.7  98.5  9
TOUF   ?    ?    P G      ? 19950422 1547   23.2500 GAU  1.00e-01 -1.00e+00 -1.00e+00 -1.00e+00 >    6.8274    0.2120    1.0000  -20.1791   29.3046   -1.8500   35.5038 318.64 318.6  97.8  9
END_PHASE
SCATTER Nsamples 962
   2.5790   -0.0654    7.8625 -6.28e+00
   3.6100   -1.3313    4.4642 -6.29e+00
   4.9278   -0.2984   10.8328 -8.37e+00
   3.4176   -1.2146    8.0685 -6.29e+00
   4.2349    4.0066   12.3746 -6.31e+00
   2.6337    3.7134   12.7329 -6.31e+00
   4.0224    2.3480    9.1859 -6.31e+00
   3.0122    2.4693   11.9586 -6.32e+00
   3.6507    2.3511   12.9237 -6.32e+00
   3.4179    2.6762    6.8151 -6.33e+00
   3.2765    2.8467   13.3144 -6.34e+00
   4.0111    0.4443    9.6467 -6.35e+00
   3.5031   -1.6919    5.1360 -6.35e+00
   3.7284   -3.4945    3.0335 -8.43e+00
   4.1220    0.3662    8.7829 -6.36e+00
   3.4193    3.9837    8.7401 -6.36e+00
   3.1439    1.6694    4.0861 -6.37e+00
   3.7012    0.0363   11.2089 -6.37e+00
   3.4997    6.2403   12.3806 -6.38e+00
   4.2831    0.4976    8.2174 -6.39e+00
   3.1693    3.2765    1.8075 -8.47e+00
   3.9783    1.0990   11.2826 -6.41e+00
   2.5518    0.2489    9.3841 -6.41e+00
   3.1450    5.1110   13.1995 -6.43e+00
   3.7797    1.2118    8.0385 -6.43e+00
   2.8064    0.2025    1.5578 -6.43e+00
   3.6700   -1.5169    5.6740 -6.44e+00
   2.9497    2.0153    3.7325 -6.45e+00
   4.1142    1.9050   12.6904 -6.46e+00
   3.4634   -2.5376    3.3838 -8.54e+00
   4.0121    1.5895    8.2703 -6.49e+00
   3.7017    1.7319   12.6210 -6.49e+00
   2.6132    4.8302   14.5594 -8.58e+00
   3.6194    4.8053   13.6445 -6.51e+00
   3.2593    5.6225   10.0411 -6.53e+00
   2.6786    6.2379   11.3100 -6.56e+00
   4.6722   -2.4338    5.1346 -8.64e+00
   3.1179    1.3866   11.5835 -6.56e+00
   4.0542    1.7277   12.2097 -6.57e+00
   3.7065   -1.0852    8.5034 -6.57e+00
   3.7008   -1.8069    6.4906 -6.58e+00
   3.5722    2.3058    5.1707 -6.60e+00
   3.1360   -2.6279    3.8956 -8.68e+00
   3.3093   -0.0879   10.2130 -6.61e+00
   4.0996    0.0004   10.8538 -6.62e+00
   3.3561    5.8055   13.0337 -6.62e+00
   3.2764    0.4908   11.4748 -6.64e+00
   3.0475    1.9566    2.8725 -6.64e+00
   3.1485    0.5225    1.0161 -6.64e+00
   4.0149   -0.2417    8.3711 -6.64e+00
   4.3151    4.9967   12.0321 -6.65e+00
   3.8781    0.6834    7.4655 -6.65e+00
   2.6078   -1.1164    6.8893 -6.65e+00
   2.8597    4.7765    8.5266 -6.66e+00
   4.0944   -0.3080    8.7402 -6.67e+00
   4.0730    3.2380    9.9117 -6.67e+00
   4.3491    2.9554    9.2748 -6.67e+00
   3.0460    0.9194   11.1755 -6.68e+00
   4.3729   -0.3022    6.9821 -6.69e+00
   4.1030    2.4498   12.9100 -6.72e+00
   3.2614    0.7752    1.0130 -6.72e+00
   4.1356    4.8650   12.7296 -6.72e+00
   4.1593   -1.2790    7.7384 -8.80e+00
   3.0744    6.2128   12.4489 -6.73e+00
   4.7759    1.6435   14.2858 -8.82e+00
   2.7677    5.8082   10.6531 -6.74e+00
   3.3997    2.7416   10.3226 -4.67e+00
   3.3612    3.0870   10.6126 -4.68e+00
   2.1662    1.8595    6.1640 -6.76e+00
   3.2628    2.9219   10.3933 -4.68e+00
   3.3022    2.3139   10.1347 -4.69e+00
   3.6451    2.6981    6.1746 -6.77e+00
   2.2524    2.3533    7.5104 -6.78e+00
   3.1602    2.2072    9.5623 -4.70e+00
   3.1820    2.9078   10.3042 -4.70e+00
   3.2940    2.5741    9.8804 -4.70e+00
   2.4314    1.4692    5.7853 -6.78e+00
   1.9386    2.3399    7.1109 -6.79e+00
   3.1941    2.9583   10.9392 -4.71e+00
   2.7807    3.5492    6.0806 -6.79e+00
   3.4034    2.2837   10.5008 -4.72e+00
   2.3160    1.6484    5.3780 -6.81e+00
   3.2209    2.5664    9.5413 -4.73e+00
   3.2028    2.0598    9.0803 -4.74e+00
   2.8495   -1.6369    4.9320 -6.82e+00
   3.3054    2.6317   10.9839 -4.74e+00
   1.9508    1.1759    6.0314 -6.84e+00
   3.3325    1.6545    9.3416 -4.77e+00
   3.3013    1.6834    9.1888 -4.77e+00
   3.1337    3.6557   11.0450 -4.77e+00
   3.9339   -0.1150    6.1104 -6.85e+00
   3.1506    3.1187    9.8390 -4.77e+00
   3.2515    2.3594   10.8434 -4.78e+00
   2.2819    2.3299    6.3052 -6.86e+00
   3.3920    2.0915   10.3211 -4.78e+00
   3.3676    3.2490   11.3489 -4.78e+00
   3.1329    1.8411    8.4660 -4.79e+00
   3.2730    1.8830    8.6618 -4.79e+00
   3.1498    2.6074    9.3696 -4.79e+00
   3.5255    3.4662    7.0405 -6.87e+00
   2.3623    2.7344    8.4357 -6.88e+00
   2.4867    2.6162    8.0578 -6.89e+00
   4.2353   -0.2764    9.7419 -6.89e+00
   1.9153    0.9853    3.2864 -6.89e+00
   3.3032    2.0320   10.6037 -4.81e+00
   3.4273    1.5095    8.5498 -4.81e+00
   2.2714    2.5218    8.6621 -6.89e+00
   2.6997    0.8416    1.0073 -6.90e+00
   3.6426    4.3990    9.0233 -6.90e+00
   3.8660   -2.0377    8.5213 -8.98e+00
   3.2340    2.4102    8.7698 -4.82e+00
   3.1312    4.7304   13.7905 -6.91e+00
   1.9187    1.8526    7.8434 -6.91e+00
   3.3281    1.7462    9.9434 -4.83e+00
   3.1937   -0.7058    9.3623 -6.91e+00
   2.4627    2.5592    7.7483 -6.91e+00
   2.2035    1.6350    4.4925 -6.92e+00
   3.3969    2.6551    9.0656 -4.84e+00
   3.4015    1.3159    8.0300 -4.84e+00
   3.1272    1.8527    2.2036 -6.92e+00
   3.3449    1.5240    9.0767 -4.84e+00
   3.2006    1.9094    8.4022 -4.84e+00
   3.4549    2.7351   10.6886 -4.85e+00
   3.4135    3.6377   11.4564 -4.85e+00
   3.6984    2.7961   10.5642 -4.85e+00
   3.6127    2.7019   10.8076 -4.85e+00
   3.5938    2.3085   10.5060 -4.85e+00
   3.0119    2.1885    9.2905 -4.85e+00
   3.4134    1.5770   10.0409 -4.86e+00
   3.1151    2.5907    9.6073 -4.86e+00
   2.2273    0.5435    2.7021 -6.94e+00
   2.9148    1.9722    8.6464 -4.86e+00
   2.4060    0.5651    2.1675 -6.94e+00
   2.9819    2.7895    9.4996 -4.86e+00
   2.8860    2.1444    8.4719 -4.86e+00
   2.9334    2.6229    9.8177 -4.86e+00
   3.0556    2.1899    9.6767 -4.87e+00
   2.0954    0.9372    2.0844 -6.95e+00
   3.4250    1.0423    8.1511 -4.87e+00
   2.8754    2.4734    8.8709 -4.87e+00
   3.7099    3.0868   10.7088 -4.87e+00
   3.2121    3.9830   11.2092 -4.87e+00
   2.9012    2.6504    9.9147 -4.88e+00
   3.2390    3.1864   13.8648 -6.96e+00
   3.4220    1.2257    8.2933 -4.88e+00
   2.2168    1.7761    4.3167 -6.96e+00
   3.0364    1.6537    8.5539 -4.88e+00
   1.9653    0.4204    4.1582 -6.96e+00
   3.2626    1.8712    7.8693 -4.88e+00
   1.9373    2.3329    5.8250 -6.96e+00
   3.5592    2.7916   10.1939 -4.88e+00
   2.8327    2.8359   10.1373 -4.88e+00
   2.1099    1.2273    6.8945 -6.97e+00
   2.9017    2.9777    9.9999 -4.89e+00
   3.4746    2.9182   11.1655 -4.89e+00
   3.0179    1.0910   11.2526 -6.97e+00
   2.9907    1.6869    7.9579 -4.89e+00
   2.8842    2.8086    9.1712 -4.89e+00
   2.9007    2.8028   12.8988 -6.97e+00
   1.9641    2.7078    9.3454 -6.97e+00
   3.6052    2.6724   11.1212 -4.90e+00
   3.0315    2.2294    8.4465 -4.90e+00
   3.9351   -0.2495    5.4851 -6.99e+00
   3.6148    1.8852   10.5628 -4.91e+00
   2.9055    1.2608    7.9676 -4.91e+00
   3.3378    1.8350   10.3774 -4.91e+00
   2.8176    1.4982    7.9762 -4.91e+00
   1.9162    0.1692    4.7419 -6.99e+00
   2.9920    1.3100    7.7700 -4.91e+00
   3.5607    2.8809   10.3328 -4.92e+00
   3.3438    3.7746   11.5344 -4.92e+00
   3.6795    2.1875    9.7690 -4.92e+00
   2.8674    1.4446    7.6538 -4.92e+00
   2.9123    2.0727    9.6359 -4.92e+00
   3.3639    2.5021    8.7527 -4.92e+00
   3.6021    3.3853   10.7832 -4.92e+00
   3.0250    1.7470    7.5585 -4.92e+00
   3.0194    2.1400    7.8305 -4.92e+00
   3.7211   -0.2327   10.7680 -7.00e+00
   3.1252    3.6055   10.0038 -4.93e+00
   3.2448    1.0146    7.2217 -4.94e+00
   4.3448    3.3116   13.4764 -7.02e+00
   3.0044    1.7849    1.1455 -7.02e+00
   3.0206    2.3416    8.2207 -4.94e+00
   3.7622    4.8599   13.3992 -7.02e+00
   3.1595    1.9490   11.0762 -4.94e+00
   3.0107    3.2810   11.0403 -4.95e+00
   3.4272    1.6479   10.4934 -4.95e+00
   3.3793    2.3251   11.3978 -4.95e+00
   3.4224    3.4991   11.8043 -4.95e+00
   3.6959    1.8220    9.6950 -4.96e+00
   3.4614    1.7706    9.9971 -4.96e+00
   3.3119    1.4208    7.2889 -4.96e+00
   2.2500    1.4718    3.6643 -7.04e+00
   3.3165    3.1619   11.7282 -4.96e+00
   3.5772    2.4617    9.6689 -4.96e+00
   3.3655    0.7370    8.0082 -4.96e+00
   3.9250    2.2298    8.0937 -7.04e+00
   2.8669    1.5213    7.0513 -4.96e+00
   1.9680    2.6101    9.6473 -7.04e+00
   3.7077    1.8650   10.0470 -4.96e+00
   3.2983    1.0283    9.1359 -4.96e+00
   3.6329    3.3409   11.4617 -4.96e+00
   2.9446    0.9919    7.4346 -4.97e+00
   3.2878    1.4154    9.9182 -4.97e+00
   2.9991    3.0363    9.1231 -4.97e+00
   2.8339    1.5764    7.2156 -4.97e+00
   3.1845   -2.2651    4.8721 -7.05e+00
   3.2344    2.2434    8.2677 -4.97e+00
   3.0395    1.1573    7.0437 -4.98e+00
   2.9542    1.9806    7.5211 -4.98e+00
   3.2297    0.7952    7.1843 -4.98e+00
   2.8992    1.0934    7.8242 -4.98e+00
   3.2264    0.9438    6.9457 -4.99e+00
   3.0149    1.7917    9.4192 -4.99e+00
   3.7128    2.6147    9.7743 -4.99e+00
   2.9916    1.0208    6.7243 -5.00e+00
   3.5588    1.9424    9.3668 -5.00e+00
   2.3140    1.4259    3.1505 -7.08e+00
   2.3784    3.2587    9.0584 -7.08e+00
   3.7287    3.4539   11.3436 -5.00e+00
   3.2532    3.8720   11.8309 -5.00e+00
   2.9520    3.4494   11.1656 -5.01e+00
   3.5817    1.6134   10.4940 -5.01e+00
   2.9771    1.3401    6.8346 -5.01e+00
   3.2808    4.2771   11.3831 -5.01e+00
   3.2752    2.5384   11.6620 -5.01e+00
   2.8193    2.1950    7.8790 -5.01e+00
   3.1975    4.3388   11.0391 -5.01e+00
   2.7492    3.3118   13.3111 -7.09e+00
   3.0307    1.2335    8.2017 -5.01e+00
   2.3168    3.6122    9.4280 -7.09e+00
   2.8699    2.6237    8.3888 -5.01e+00
   1.9002    2.6235    6.6129 -7.09e+00
   3.1517    1.0527    6.7506 -5.01e+00
   3.1602    2.8860    8.9363 -5.02e+00
   1.9101    2.0607    5.0452 -7.10e+00
   2.8671    2.0842   10.0629 -5.02e+00
   3.6412    3.6681   10.8144 -5.02e+00
   2.0531    1.6559    8.5500 -7.10e+00
   3.4640    1.7996    9.1248 -5.02e+00
   3.5081    1.4936    9.5405 -5.03e+00
   3.6937    5.2316   13.9374 -7.11e+00
   2.9281    1.1963    6.4309 -5.03e+00
   4.1080   -0.2336    1.2479 -9.19e+00
   3.0034    1.9192    1.4369 -7.11e+00
   3.9679   -0.5392   10.4780 -7.11e+00
   2.8169    1.1515    8.3131 -5.04e+00
   3.2963    1.5235   10.2843 -5.04e+00
   2.0924    1.6701    2.9576 -7.12e+00
   3.7070    2.8138    9.8613 -5.04e+00
   3.3566    6.1513   13.5175 -7.13e+00
   3.7186    3.1285    6.8562 -7.13e+00
   3.2031    4.3359   11.7057 -5.05e+00
   2.4439    0.7550    7.6371 -7.13e+00
   3.3277    0.5972    7.1754 -5.05e+00
   2.8205    3.1426   11.2514 -5.05e+00
   3.3371    0.3247    7.3652 -5.05e+00
   2.9575    2.5214    3.9862 -7.13e+00
   3.3727    0.3783    6.9761 -5.06e+00
   2.8126    3.9704   10.5887 -5.06e+00
   4.1305    5.2292   12.2084 -7.14e+00
   4.7015    2.7979   14.9427 -9.22e+00
   2.9523    3.9351   11.2214 -5.06e+00
   3.0553    1.1894    8.5501 -5.06e+00
   3.3749   -1.2839    7.9885 -7.15e+00
   3.1144    1.7676    6.7235 -5.07e+00
   3.2436    0.6400    8.8491 -5.07e+00
   3.2351    4.3250   10.6293 -5.07e+00
   3.5183    1.6224   10.9053 -5.08e+00
   3.4285    1.0370    6.4210 -5.08e+00
   3.4284    0.6515    6.4005 -5.08e+00
   2.8373    0.8161    7.6641 -5.08e+00
   3.1575    0.3912    7.8651 -5.08e+00
   3.5177    1.8840    8.9589 -5.09e+00
   3.2918    3.6372    9.5551 -5.09e+00
   3.1290    1.0391    9.8156 -5.10e+00
   3.7226    0.6812   12.7882 -7.18e+00
   3.7368    2.2901   13.6396 -7.19e+00
   3.1297   -2.4972    5.5265 -7.19e+00
   2.9251    3.7480   11.4267 -5.11e+00
   3.4383    3.2223   12.0185 -5.11e+00
   3.5536    3.9216   11.2859 -5.11e+00
   3.9470   -1.0022    4.6270 -7.19e+00
   3.0677    0.8027    5.8842 -5.11e+00
   2.3265   -0.2986    2.3135 -7.19e+00
   3.6744    3.3482   10.0464 -5.11e+00
   3.7269    4.0595   11.2320 -5.12e+00
   3.1297    4.1830   10.5269 -5.12e+00
   3.5405    2.6574   11.8538 -5.12e+00
   2.8965    3.3853   11.4398 -5.12e+00
   2.9907    1.3281    6.2405 -5.13e+00
   3.6258    1.1944    8.6131 -5.13e+00
   3.7188    2.1907   11.7056 -5.13e+00
   3.8187   -0.5826    4.5335 -7.21e+00
   3.2028    1.3649   10.4892 -5.13e+00
   3.0442   -0.8090    1.2947 -7.21e+00
   2.4264    3.7231   10.4326 -7.21e+00
   3.9421    3.3346    9.3339 -7.22e+00
   3.0187    1.9460    7.0181 -5.14e+00
   3.6043    0.9482    8.3336 -5.14e+00
   2.9392    3.2303    8.9445 -5.15e+00
   2.9939    4.0263   11.4096 -5.15e+00
   3.5181    1.4820    8.1834 -5.16e+00
   3.4820    2.1405    8.6220 -5.16e+00
   3.6945    1.7458    0.8119 -7.24e+00
   3.2628    4.5320   11.2340 -5.16e+00
   3.0091    1.4237    6.0080 -5.16e+00
   3.5185    2.6197   13.9549 -7.25e+00
   3.2532    3.7720    9.9579 -5.17e+00
   3.2306   -0.0626   11.2283 -7.25e+00
   3.3764    0.1647    6.7284 -5.17e+00
   3.0148    2.6061    3.4375 -7.25e+00
   2.7657    6.7268   11.3531 -7.26e+00
   2.2387   -0.5429    3.5033 -7.26e+00
   2.8339    4.1244   11.3386 -5.18e+00
   3.8036    4.5552   13.4605 -7.26e+00
   3.4621    2.1861   11.4872 -5.18e+00
   3.8805    5.1108   11.6655 -7.26e+00
   3.6331    3.2247   12.0316 -5.18e+00
   2.9698    2.2999    7.2977 -5.18e+00
   2.8342    3.2789    8.8619 -5.19e+00
   3.6495    1.5919   11.2406 -5.19e+00
   2.9418    2.6553    7.7607 -5.19e+00
   2.1558    2.5592    6.2398 -7.27e+00
   3.6950    3.5777   12.1610 -5.19e+00
   3.5418    3.9011   11.9719 -5.20e+00
   3.2562    2.6183   11.9504 -5.20e+00
   3.1446    1.8664   11.2246 -5.20e+00
   2.2329   -0.4650    3.9166 -7.28e+00
   3.7290    2.1144    8.5597 -5.20e+00
   3.6088    1.0855    7.8143 -5.20e+00
   3.2895    1.3699    6.3667 -5.21e+00
   3.1769    3.0023   12.0340 -5.21e+00
   3.5339    0.8240    8.5371 -5.21e+00
   2.1810    0.6146    6.8705 -7.29e+00
   3.2820    1.9453    7.1682 -5.22e+00
   3.5999    2.8198   12.0915 -5.22e+00
   3.4398    2.9161    9.3899 -5.22e+00
   3.1000    2.3267   11.1518 -5.23e+00
   2.9832    2.1261    6.7030 -5.23e+00
   3.1166    2.0161   10.8646 -5.24e+00
   2.7255    6.3517   12.2850 -7.32e+00
   2.9362    2.6599    7.6441 -5.25e+00
   3.0733    0.2910    5.9160 -5.25e+00
   3.1339    1.0692   10.1779 -5.25e+00
   3.1234    0.0906    5.4706 -5.25e+00
   3.6191    0.7780    9.1480 -5.25e+00
   1.9071    4.0330    9.9301 -7.33e+00
   3.3013    3.1682    8.8121 -5.25e+00
   3.0861    0.2465    5.4446 -5.26e+00
   2.4716    2.2445    9.7846 -7.34e+00
   3.5414    4.2908   11.3464 -5.26e+00
   3.5595    1.6483   11.3493 -5.26e+00
   2.9804    0.9629    9.3027 -5.27e+00
   2.8707    3.9949   11.7649 -5.27e+00
   3.5455    4.1241   11.8410 -5.27e+00
   2.9715    0.5947    7.9606 -5.27e+00
   4.2001   -0.9920    9.2094 -7.35e+00
   3.5843    3.4683   10.0187 -5.28e+00
   2.9816    0.7823    4.5318 -5.29e+00
   3.2022    1.6966   11.3311 -5.29e+00
   3.3120    0.1745    7.9814 -5.29e+00
   3.0011    0.2615    4.6283 -5.30e+00
   2.9268    0.2307    6.7949 -5.30e+00
   3.4450    4.2180   11.8975 -5.30e+00
   3.5828    5.8986   10.0228 -7.38e+00
   3.3983    0.9822   10.4097 -5.30e+00
   4.3602   -1.2781    5.7017 -7.38e+00
   3.1088    4.5305   11.2722 -5.30e+00
   4.2800    3.6342   13.9978 -7.38e+00
   3.5496    1.6655    7.9242 -5.31e+00
   3.1884   -0.1160    6.2195 -5.31e+00
   2.8544    4.3372   13.7413 -7.39e+00
   3.4728    2.0348    8.2740 -5.31e+00
   3.0524   -0.2570    0.9656 -7.39e+00
   3.4874    0.6886    9.5984 -5.31e+00
   3.6304    0.3715    8.1184 -5.31e+00
   3.7414    1.3779    7.5218 -5.31e+00
   3.0089    4.6399   10.7940 -5.31e+00
   3.3073    2.6118   12.1374 -5.31e+00
   2.9863    0.1575    7.0147 -5.31e+00
   3.7138    0.4142    7.7516 -5.31e+00
   3.8106    2.3692   13.7349 -7.39e+00
   3.2985    3.7297    9.1073 -5.32e+00
   3.1194    2.9952    7.9670 -5.32e+00
   3.5144    0.4897    8.3836 -5.32e+00
   3.9524   -1.7240    4.4788 -7.41e+00
   3.3222    4.0328   12.4858 -5.33e+00
   2.7573    1.9726    8.0349 -5.33e+00
   4.3720   -0.5975    3.6085 -7.42e+00
   3.7325    0.4931    8.4678 -5.34e+00
   2.9793    0.4282    4.0613 -5.34e+00
   3.0061    0.1617    4.0622 -5.34e+00
   3.1213    3.0543   13.3566 -7.43e+00
   3.3891    0.2285    4.5809 -5.35e+00
   3.3284   -0.2127    5.0239 -5.35e+00
   2.5162    2.0456    7.6938 -5.35e+00
   3.4484    4.1072   10.7935 -5.35e+00
   3.7526   -0.6434    2.6721 -7.43e+00
   3.4375   -1.5961    9.4017 -9.51e+00
   2.7847    1.9646    8.4437 -5.35e+00
   3.4732    2.7802    8.8000 -5.36e+00
