   1 JAN 2000, 20:01  SEQUENCE NO.   14, ID NO.  21075147
                                                        ADJUSTMENTS (KM)
  I ORIGIN   LAT N     LON W     Z   NWR  RMS    DT    DLAT   DLON    DZ    RR NF MOD
  1 52.83  38 35.76  122 55.07  5.00  13 1.33  0.670  1.370-11.209  0.00011.292 3 NBY
  2 53.50  38 36.50  122 47.33  5.00  13 0.43 -0.492  0.108  1.593  0.000 1.597 3 NBY
 FREE DEPTH
  3 53.01  38 36.56  122 48.43  5.00  13 0.14 -0.152  0.094  0.525  2.549 2.604 4 NBY
 BEGIN DISTANCE WEIGHTING
 BEGIN RESIDUAL WEIGHTING
  4 52.86  38 36.61  122 48.79  7.55  13 0.12 -0.032  0.022  0.087 -0.209 0.228 4 NBY
  5 52.82  38 36.62  122 48.85  7.34  13 0.12 -0.005  0.025  0.006 -0.004 0.026 4 NBY
  6 52.82  38 36.63  122 48.86  7.34  13 0.12 -0.009  0.003  0.027  0.121 0.124 4 NBY
 ERROR ELLIPSE: <SERR AZ DIP>-<   1.31 285 79>-<   0.39 132  9>-<   0.34  42  4>
 ------------------------------------------------------------------------------------
 YEAR MO DA  --ORIGIN--  --LAT N-  --LON W--  DEPTH   RMS   ERH   ERZ  XMAG  FMAG  PMAG
 2000-01-01  2001 52.82  38 36.63  122 48.86   7.34  0.12  0.38  1.29        1.22  1.22D
                                                                                          SOURCE
 NSTA NPHS  DMIN MODEL GAP ITR NFM NWR NWS NVR REMRKS-AVH  N.XMG-XMMAD-T   N.FMG-FMMAD-T  L F X
   13   15   8.9  NBY   71   6   7  13   2  13 ROG          0.00  0.00 X    6.00  0.16 D  N N  

 XMAG2-N.XMG2-XMMAD-T-S  FMAG2-N.FMG2-FMMAD-T-S  PREF.MAG-N.PMAG-PRMAD-T
                                                     1.22   6.00  0.16 D
 REGION= Rodgers Creek Fault        MODELS USED:  NBY=1.00

 STA NET COM L CR DIST AZM  AN P/S WT   SEC (TOBS -TCAL -DLY  =RES)  WT   SR  INFO  CAL DUR-W-FMAG-T -AMP-U-PER-W-XMAG-T
 NMC  NC VHZ   VN  8.9 256 124 EP  3  54.83  2.01  2.19-0.04 -0.14  0.30  N  0.038 5.58   7   1.05 D                         
                               ES  2  56.59  3.77  3.90-0.07 -0.06  0.61S N  0.419                                           
 NMW  NC VHZ   VN 10.4 130 119 IPU 1  55.13  2.31  2.41 0.01 -0.11  1.52  N  0.501 2.80   9   1.22 D                         
 GAX  NC VHZ   VG 12.2  24 114 IPD 1  55.36  2.54  2.69-0.24  0.09  1.52  N  0.626 5.58   8 1 1.40 D                         
 NMH  NC VHZ   VN 17.1  67 105 EPD 2  56.20  3.38  3.50-0.08 -0.04  0.61  N  0.044                                           
 NMH  NC VLN   NN 17.1  67 105 ES  2  58.69  5.87  6.23-0.14 -0.22  0.61S N  0.210                                           
 GGP  NC VHZ   VG 17.3 352 105 EP  2  56.48  3.66  3.54 0.02  0.10  0.61  N  0.179 2.80   8 1 1.47 D                         
 NWR  NC VHZ   VN 18.2 201 103 IPD 1  56.46  3.64  3.70-0.01 -0.05  1.52  N  0.706                                           
 GSS  NC VHZ   VG 20.2 301 101 EP  3  56.66  3.84  4.03 0.03 -0.22  0.30  N  0.073 5.58   9   1.38 D                         
 NSH  NC VHZ   VN 20.6 119 101 IPU    56.91  4.09  4.10-0.09  0.08  3.04  N  0.681 5.58   9 1 1.13 D                         
 NPV  NC VHZ   VN 33.9  83  92 IPU 1  58.89  6.07  6.42-0.11 -0.24  1.52  N  0.386                                           
 NMT  NC VHZ   VN 38.6  55  93 EPU 2  60.00  7.18  7.23-0.22  0.17  0.61  N  0.12111.65  11 1 1.21 D                         
 NIM  NC VHZ   VN 48.1  96  85 EP  3  61.42  8.60  8.91-0.04 -0.27  0.21  N  0.011                                           
    2 UNWEIGHTED STATIONS NOT PRINTED.
 ####################################################################################
   1 JAN 2000, 20:38  SEQUENCE NO.   15, ID NO.  21075155
                                                        ADJUSTMENTS (KM)
  I ORIGIN   LAT N     LON W     Z   NWR  RMS    DT    DLAT   DLON    DZ    RR NF MOD
  1 13.45  38 48.77  122 47.98  5.00   9 0.99  1.235 -1.236 -4.509  0.000 4.675 3 GEY
 FREE DEPTH
  2 14.69  38 48.10  122 44.86  5.00   9 0.20  0.219 -0.688  0.613 -3.155 3.287 4 GEY
  3 14.90  38 47.73  122 45.28  1.85   9 0.14 -0.127  0.211 -0.104 -0.401 0.465 4 GEY
 BEGIN DISTANCE WEIGHTING
 BEGIN RESIDUAL WEIGHTING
  4 14.78  38 47.85  122 45.21  1.44   9 0.03 -0.017  0.021  0.006 -0.084 0.087 4 GEY
  5 14.76  38 47.86  122 45.21  1.36   9 0.03  0.000 -0.004 -0.001  0.044 0.044 4 GEY
  6 14.76  38 47.85  122 45.21  1.40   9 0.03  0.001  0.007 -0.008 -0.014 0.017 4 GEY
 ERROR ELLIPSE: <SERR AZ DIP>-<   0.63 355 81>-<   0.28 203  7>-<   0.20 113  4>
 ------------------------------------------------------------------------------------
 YEAR MO DA  --ORIGIN--  --LAT N-  --LON W--  DEPTH   RMS   ERH   ERZ  XMAG  FMAG  PMAG
 2000-01-01  2038 14.76  38 47.85  122 45.21   1.40  0.03  0.28  0.62  0.94  1.55  1.55D
                                                                                          SOURCE
 NSTA NPHS  DMIN MODEL GAP ITR NFM NWR NWS NVR REMRKS-AVH  N.XMG-XMMAD-T   N.FMG-FMMAD-T  L F X
   16   16   3.7  GEY   74   6   8   9   0   9 GEY          1.00  0.00 X    6.75  0.08 D  N N N

 XMAG2-N.XMG2-XMMAD-T-S  FMAG2-N.FMG2-FMMAD-T-S  PREF.MAG-N.PMAG-PRMAD-T
                                                     1.55   6.75  0.08 D
 REGION= Geysers                    MODELS USED:  GEY=1.00

 STA NET COM L CR DIST AZM  AN P/S WT   SEC (TOBS -TCAL -DLY  =RES)  WT   SR  INFO  CAL DUR-W-FMAG-T -AMP-U-PER-W-XMAG-T
 GDX  NC VHZ   VG  3.7 288 100 IPU    15.45  0.69  0.89-0.19 -0.01  1.48  N  0.842 5.58  10   1.63 D                         
 GCR  NC VHZ 01VG  4.2 129  98 IPU    15.50  0.74  0.98-0.27  0.03  1.48  N  0.753 5.58  10   1.55 D                         
 GBG  NC VHZ   VG  6.4  73  83 IPU    16.24  1.48  1.46 0.04 -0.02  1.48  N  0.672 2.80  11   1.58 D                         
 GSG  NC VHZ   VG  8.6  26  75 IPU 1  16.88  2.12  1.90 0.23 -0.01  0.74  N  0.301 5.58  15   1.43 D                         
 GGP  NC VHZ   VG  8.7 246  74 IPU 1  16.56  1.80  1.94-0.13 -0.01  0.74  N  0.196 2.80   7   1.29 D                         
 GAX  NC VHZ   VG  9.7 182  71 IPU 1  16.51  1.75  2.12-0.33 -0.04  0.74  N  0.174 5.58  10   1.60 D                         
 GAC  NC VHZ   VG 12.6 312  63  PU 1  17.46  2.70  2.70-0.10  0.10  0.74  W  0.331 5.58   7 1 1.21 D                         
 NMH  NC VHZ   VN 17.7 143  59 EP  3  17.90  3.14  3.63-0.41 -0.08  0.15  N  0.006                                           
 NSH  NC VHZ   VN 33.3 157  59 IPU    20.98  6.22  6.48-0.26  0.00  1.48  NM 0.721 5.58                 14M .14   0.94 X     
    7 UNWEIGHTED STATIONS NOT PRINTED.
 ####################################################################################
   1 JAN 2000, 21:06  SEQUENCE NO.   16, ID NO.  21075161
                                                        ADJUSTMENTS (KM)
  I ORIGIN   LAT N     LON W     Z   NWR  RMS    DT    DLAT   DLON    DZ    RR NF MOD
  1 17.66  37 21.84  121 45.75  5.00   9 0.46  0.475  2.388 -4.133  0.000 4.773 3 MOR
 FREE DEPTH
  2 18.13  37 23.13  121 42.94  5.00   9 0.17 -0.258 -0.773  1.199  3.901 4.154 4 LEW
  3 17.88  37 22.71  121 43.76  8.90   9 0.14 -0.152 -0.257  0.371  0.169 0.482 4 MOR
 BEGIN DISTANCE WEIGHTING
 BEGIN RESIDUAL WEIGHTING
  4 17.72  37 22.57  121 44.01  9.07   9 0.03 -0.020 -0.043  0.079 -0.015 0.091 4 MOR
  5 17.70  37 22.55  121 44.06  9.06   9 0.01 -0.002 -0.014  0.005  0.018 0.023 4 MOR
  6 17.70  37 22.54  121 44.07  9.07   9 0.02  0.000 -0.009  0.020 -0.049 0.054 4 MOR
 ERROR ELLIPSE: <SERR AZ DIP>-<   1.07 236 60>-<   0.32  29 26>-<   0.27 125 11>
 ------------------------------------------------------------------------------------
 YEAR MO DA  --ORIGIN--  --LAT N-  --LON W--  DEPTH   RMS   ERH   ERZ  XMAG  FMAG  PMAG
 2000-01-01  2106 17.70  37 22.54  121 44.07   9.07  0.02  0.52  0.93  1.11        1.11X
                                                                                          SOURCE
 NSTA NPHS  DMIN MODEL GAP ITR NFM NWR NWS NVR REMRKS-AVH  N.XMG-XMMAD-T   N.FMG-FMMAD-T  L F X
   10   11   2.8  MOR   98   6   5   9   1   9 ALU          1.00  0.00 X    0.00  0.00 D  N   N

 XMAG2-N.XMG2-XMMAD-T-S  FMAG2-N.FMG2-FMMAD-T-S  PREF.MAG-N.PMAG-PRMAD-T
                                                     1.11   1.00  0.00 X
 REGION= Alum Rock                  MODELS USED:  MOR=0.57  LEW=0.43

 STA NET COM L CR DIST AZM  AN P/S WT   SEC (TOBS -TCAL -DLY  =RES)  WT   SR  INFO  CAL DUR-W-FMAG-T -AMP-U-PER-W-XMAG-T
 CMH  NC VHZ   VC  2.8 228 161 IPD 1  19.66  1.96  1.80 0.16  0.00  1.67  N  0.827                                           
 CAL  NC VHZ   VC 10.1 325 125 IPD 1  20.18  2.48  2.56-0.06 -0.02  1.67  N  0.529                                           
 CAL  NC VLN   NC 10.1 325 125 EP  4  19.82  2.12  2.56-0.06 -0.38X       NM       0.18              1.856M .15   1.11 X     
                               ES  3  22.24  4.54  4.56-0.10  0.09  0.33S N  0.095                                           
 CAO  NC VHZ   VC 18.0  99 107 IPU 1  21.33  3.63  3.74-0.11  0.00  1.67  N  0.762                                           
 JST  NC VHZ   VJ 19.7 197 104 EPD 2  21.90  4.20  4.03 0.16  0.01  0.67  N  0.855                                           
 CMJ  NC VHZ   VC 20.2 323 103 EP  3  21.82  4.12  4.10 0.00  0.02  0.33  N  0.069                                           
 CDV  NC VHZ   VC 21.7  12 101 IPD 1  22.12  4.42  4.35 0.06  0.01  1.67  N  0.653                                           
 CMM  NC VHZ   VC 23.1  67 100 EP  3  22.29  4.59  4.58 0.01  0.00  0.33  N  0.030                                           
 CMP  NC VHZ   VC 36.9  92  88 EP  2  24.44  6.74  6.88-0.16  0.02  0.67  N  0.175                                           
    1 UNWEIGHTED STATIONS NOT PRINTED.
 ####################################################################################
   1 JAN 2000, 21:34  SEQUENCE NO.   17, ID NO.  51093455
                                                        ADJUSTMENTS (KM)
  I ORIGIN   LAT N     LON W     Z   NWR  RMS    DT    DLAT   DLON    DZ    RR NF MOD
  1 58.59  38 48.77  122 47.98  5.00   7 1.26  1.138  0.134 -0.521  0.000 0.538 3 GEY
 FREE DEPTH
  2 59.73  38 48.84  122 47.62  5.00   7 0.14  0.223  0.282 -0.110 -1.027 1.071 4 GEY
  3 59.95  38 48.99  122 47.54  3.97   7 0.01  0.010  0.023 -0.010 -0.066 0.071 4 GEY
 BEGIN DISTANCE WEIGHTING
 BEGIN RESIDUAL WEIGHTING
  4 59.96  38 49.01  122 47.54  3.91   7 0.01 -0.002 -0.004  0.025  0.010 0.027 4 GEY
  5 59.96  38 49.00  122 47.55  3.92   7 0.01  0.000  0.021 -0.008  0.003 0.022 4 GEY
 ERROR ELLIPSE: <SERR AZ DIP>-<   0.71 202 61>-<   0.39  44 26>-<   0.29 309  9>
 ------------------------------------------------------------------------------------
 YEAR MO DA  --ORIGIN--  --LAT N-  --LON W--  DEPTH   RMS   ERH   ERZ  XMAG  FMAG  PMAG
 2000-01-01  2134 59.96  38 49.00  122 47.55   3.92  0.01  0.35  0.63        0.89  0.89D
                                                                                          SOURCE
 NSTA NPHS  DMIN MODEL GAP ITR NFM NWR NWS NVR REMRKS-AVH  N.XMG-XMMAD-T   N.FMG-FMMAD-T  L F X
    7    7   1.0  GEY   97   5   7   7   0   7 GEY     1    0.00  0.00 X    4.00  0.06 D  W W  

 XMAG2-N.XMG2-XMMAD-T-S  FMAG2-N.FMG2-FMMAD-T-S  PREF.MAG-N.PMAG-PRMAD-T
                                                     0.89   4.00  0.06 D
 REGION= Geysers                    MODELS USED:  GEY=1.00

 STA NET COM L CR DIST AZM  AN P/S WT   SEC (TOBS -TCAL -DLY  =RES)  WT   SR  INFO  CAL DUR-W-FMAG-T -AMP-U-PER-W-XMAG-T
 GDX  NC VHZ   VG  1.0 191 164  PD    60.59  0.63  0.82-0.19  0.00  1.67  W  0.997 5.58   5 2 0.95 D                         
 GGP  NC VHZ   VG  7.4 219 108  PU 1  61.49  1.53  1.67-0.13 -0.01  0.83  W  0.681 2.80   5 2 0.96 D                         
 GCR  NC VHZ 01VG  8.1 125 105  PD 1  61.51  1.55  1.81-0.27  0.01  0.83  W  0.398 5.58   5 2 0.90 D                         
 GAC  NC VHZ   VG  8.7 316 104  PU    61.77  1.81  1.91-0.10  0.00  1.67  W  0.943 5.58   5 1 0.87 D                         
 GSG  NC VHZ   VG  9.1  52 103  PU 1  62.14  2.18  1.98 0.23 -0.03  0.83  W  0.451 5.58   7 1 0.70 D                         
 GBG  NC VHZ   VG  9.5  91 101  PU 1  62.06  2.10  2.05 0.04  0.01  0.83  W  0.397 2.80   5 2 0.84 D                         
 GAX  NC VHZ   VG 12.2 165  96  PD 2  62.14  2.18  2.52-0.33 -0.01  0.33  W  0.130 5.58   5 2 0.95 D                         
 ####################################################################################
   1 JAN 2000, 22:34  SEQUENCE NO.   18, ID NO.  51093456
                                                        ADJUSTMENTS (KM)
  I ORIGIN   LAT N     LON W     Z   NWR  RMS    DT    DLAT   DLON    DZ    RR NF MOD
  1 -0.42  37 35.70  118 50.05  5.00  12 0.92  0.770  0.632 -1.830  0.000 1.936 3 MAM
 FREE DEPTH
  2  0.35  37 36.04  118 48.80  5.00  12 0.10 -0.038 -0.023 -0.158  1.170 1.180 4 MAM
  3  0.31  37 36.03  118 48.70  6.17  12 0.04 -0.018  0.040 -0.005  0.204 0.208 4 MAM
 BEGIN DISTANCE WEIGHTING
 BEGIN RESIDUAL WEIGHTING
  4  0.29  37 36.05  118 48.69  6.37  12 0.04  0.000  0.002  0.003 -0.003 0.005 4 MAM
  5  0.30  37 36.05  118 48.70  6.37  12 0.04  0.000  0.002  0.003 -0.003 0.005 4 MAM
 ERROR ELLIPSE: <SERR AZ DIP>-<   0.73 217 76>-<   0.47  10 12>-<   0.28 101  5>
 ------------------------------------------------------------------------------------
 YEAR MO DA  --ORIGIN--  --LAT N-  --LON W--  DEPTH   RMS   ERH   ERZ  XMAG  FMAG  PMAG
 2000-01-01  2234  0.30  37 36.05  118 48.70   6.37  0.04  0.46  0.71        1.31  1.31D
                                                                                          SOURCE
 NSTA NPHS  DMIN MODEL GAP ITR NFM NWR NWS NVR REMRKS-AVH  N.XMG-XMMAD-T   N.FMG-FMMAD-T  L F X
   12   12   2.0  MAM   78   5  10  12   0  12 HCF     1    0.00  0.00 X   10.25  0.27 D  W W  

 XMAG2-N.XMG2-XMMAD-T-S  FMAG2-N.FMG2-FMMAD-T-S  PREF.MAG-N.PMAG-PRMAD-T
                                                     1.31  10.25  0.27 D
 REGION= Hilton Crk. Flt. (LVC)     MODELS USED:  MAM=1.00

 STA NET COM L CR DIST AZM  AN P/S WT   SEC (TOBS -TCAL -DLY  =RES)  WT   SR  INFO  CAL DUR-W-FMAG-T -AMP-U-PER-W-XMAG-T
 MCV  NC VHZ   VM  2.0 233 159  PU     1.58  1.28  1.37-0.07 -0.02  1.33  W  0.635 2.80   7   1.03 D                         
 MDR  NC VHZ   VM  4.6 333 137  PD     2.00  1.70  1.61 0.09  0.00  1.33  W  0.458 2.80  11   1.48 D                         
 MCM  NC VHZ   VM  5.5 280 131  PD     1.91  1.61  1.72-0.14  0.03  1.33  W  0.232 2.80  13   1.40 D                         
 MGP  NC VHZ   VM  8.5 290 116  PD 1   2.40  2.10  2.13 0.00 -0.03  0.67  W  0.061 2.80   5 1 0.16 D                         
 MLH  NC VHZ   VM  8.6 358 116  PD 1   2.62  2.32  2.15 0.35 -0.18  0.67  W  0.166 1.40  11   1.80 D                         
 HTC  NN VHZ   VU  8.7 155 116  P  1   2.38  2.08  2.15-0.02 -0.05  0.67  W  0.275 5.58  13   1.37 D                         
 MLC  NC VHZ   VM  9.2 278 114  PD     2.44  2.14  2.24-0.13  0.03  1.33  W  0.328 1.40   7   1.28 D                         
 MCS  NC VHZ   VM 10.3 306 110  PD     2.72  2.42  2.40 0.04 -0.02  1.33  W  0.327 2.80   7 1 0.83 D                         
 MEM  NC VHZ   VM 13.4 303 100  P  1   3.23  2.93  2.92 0.04 -0.03  0.67  W  0.118 2.80   5 2 0.44 D                         
 ORC  NN VHZ   VU 14.3  74 100  PU     3.30  3.00  3.05-0.09  0.04  1.33  W  0.802 0.35  17   2.86 D                         
 RCC  NN VHZ   VU 14.9 147  99  PD 1   3.25  2.95  3.15-0.12 -0.08  0.67  W  0.352 5.58   5 2 0.48 D                         
 MMP  NC VHZ   VM 19.2 273  96  PD 1   3.94  3.64  3.87-0.20 -0.03  0.67  W  0.239 2.80   7 1 1.16 D                         
 ####################################################################################
   1 JAN 2000, 22:39  SEQUENCE NO.   19, ID NO.  51093457
                                                        ADJUSTMENTS (KM)
  I ORIGIN   LAT N     LON W     Z   NWR  RMS    DT    DLAT   DLON    DZ    RR NF MOD
  1 33.64  37 32.09  118 46.56  5.00   7 0.63  0.652 -2.603  4.988  0.000 5.627 3 MAM
 FREE DEPTH
  2 34.29  37 30.69  118 49.95  5.00   7 0.19 -0.109  0.004  0.099 -1.784 1.786 4 MAM
  3 34.18  37 30.69  118 50.02  3.22   7 0.05 -0.047  0.002 -0.002 -0.784 0.784 4 MAM
 BEGIN DISTANCE WEIGHTING
 BEGIN RESIDUAL WEIGHTING
  4 34.14  37 30.69  118 50.02  2.43   7 0.03 -0.017  0.029 -0.030 -0.001 0.042 3 MAM
  5 34.12  37 30.70  118 50.00  2.43   7 0.02 -0.002  0.030 -0.031 -0.003 0.043 3 MAM
  6 34.12  37 30.72  118 49.98  2.43   7 0.02  0.002 -0.010  0.019  0.001 0.022 3 MAM
 ERROR ELLIPSE: <SERR AZ DIP>-<   6.98  51 86>-<   1.02 219  3>-<   0.28 310  0>
 ------------------------------------------------------------------------------------
 YEAR MO DA  --ORIGIN--  --LAT N-  --LON W--  DEPTH   RMS   ERH   ERZ  XMAG  FMAG  PMAG
 2000-01-01  2239 34.12  37 30.72  118 49.98   2.43  0.02  1.02  6.96        0.90  0.90D
                                                                                          SOURCE
 NSTA NPHS  DMIN MODEL GAP ITR NFM NWR NWS NVR REMRKS-AVH  N.XMG-XMMAD-T   N.FMG-FMMAD-T  L F X
    7    7   5.8  MAM  222   6   7   7   0   7 MOR  -  1    0.00  0.00 X    5.25  0.21 D  W W  

 XMAG2-N.XMG2-XMMAD-T-S  FMAG2-N.FMG2-FMMAD-T-S  PREF.MAG-N.PMAG-PRMAD-T
                                                     0.90   5.25  0.21 D
 REGION= Mt. Morrison (RSM)         MODELS USED:  MAM=1.00

 STA NET COM L CR DIST AZM  AN P/S WT   SEC (TOBS -TCAL -DLY  =RES)  WT   SR  INFO  CAL DUR-W-FMAG-T -AMP-U-PER-W-XMAG-T
 HTC  NN VHZ   VU  5.8  70  71  PU 1  35.64  1.52  1.52-0.02  0.02  0.64  W  0.950 5.58  13   1.35 D                         
 MCV  NC VHZ   VM  8.7   2  66  PD    36.06  1.94  2.03-0.07 -0.02  1.27  W  0.652 2.80   5 2 0.74 D                         
 RCC  NN VHZ   VU 10.2 105  66  PU    36.31  2.19  2.31-0.12  0.00  1.27  W  0.995 5.58   7   0.78 D                         
 MCM  NC VHZ   VM 11.4 342  66  PD    36.51  2.39  2.52-0.14  0.01  1.27  W  0.299 2.80   7 1 0.84 D                         
 MLC  NC VHZ   VM 13.3 327  66  PD    36.86  2.74  2.87-0.13  0.00  1.27  W  0.735 1.40   5 2 0.98 D                         
 MDR  NC VHZ   VM 14.0 359  66  PD 1  37.26  3.14  2.99 0.09  0.06  0.64  W  0.267 2.80   9   1.34 D                         
 MGP  NC VHZ   VM 14.1 335  65  PD 1  37.11  2.99  3.02 0.00 -0.03  0.64  W  0.098 2.80   5 2 0.20 D                         
 ####################################################################################
