   1 JAN 2000,  3:10  SEQUENCE NO.    5, ID NO.  21075046
                                                        ADJUSTMENTS (KM)
  I ORIGIN   LAT N     LON W     Z   NWR  RMS    DT    DLAT   DLON    DZ    RR NF MOD
  1 18.84  35 36.28  117 29.86  5.00  11 4.29 -0.083 18.839 25.576  0.00031.765 3 WAL
  2 18.76  35 46.45  117 46.87  5.00  11 2.60 -1.905 -5.113 -7.755  0.000 9.288 3 WAL
  3 16.85  35 43.69  117 41.72  5.00  11 0.38 -0.293  0.411 -1.069  0.000 1.145 3 WAL
 FREE DEPTH
 BEGIN DISTANCE WEIGHTING
 BEGIN RESIDUAL WEIGHTING
  4 16.56  35 43.91  117 41.01  5.00  10 0.08 -0.045  0.419 -1.127  5.811 5.934 4 WAL
 RMS INCREASE - MOVE HYPO 0.60 BACK
  5 16.51  35 44.13  117 40.26 10.81  10 0.12  0.027 -0.252  0.676 -3.487 3.560 4 WAL
  6 16.54  35 44.00  117 40.71  7.32  10 0.07 -0.106  0.326 -0.930  4.021 4.140 4 WAL
  7 16.43  35 44.17  117 40.09 11.35  10 0.06 -0.071  0.110 -0.332  0.594 0.689 4 WAL
  8 16.36  35 44.23  117 39.87 11.94  10 0.03 -0.005  0.006 -0.017  0.018 0.026 4 WAL
  9 16.36  35 44.24  117 39.86 11.96  10 0.03 -0.007  0.014 -0.045  0.155 0.162 4 WAL
 ERROR ELLIPSE: <SERR AZ DIP>-<   2.32  70 72>-<   0.29 235 16>-<   0.21 326  4>
 ------------------------------------------------------------------------------------
 YEAR MO DA  --ORIGIN--  --LAT N-  --LON W--  DEPTH   RMS   ERH   ERZ  XMAG  FMAG  PMAG
 2000-01-01  0310 16.36  35 44.24  117 39.86  11.96  0.03  0.68  2.22                   
                                                                                          SOURCE
 NSTA NPHS  DMIN MODEL GAP ITR NFM NWR NWS NVR REMRKS-AVH  N.XMG-XMMAD-T   N.FMG-FMMAD-T  L F X
   13   14  21.8  WAL  131   9   6  10   0  11 IWV          0.00  0.00 X    0.00  0.00 D  N    
 REGION= Indian Wells Val. (BRC)    MODELS USED:  WAL=1.00

 STA NET COM L CR DIST AZM  AN P/S WT   SEC (TOBS -TCAL -DLY  =RES)  WT   SR  INFO  CAL DUR-W-FMAG-T -AMP-U-PER-W-XMAG-T
 WSH  CI VHZ   VW 21.8 134 114 IPU    20.84  4.48  4.32 0.17 -0.01  2.30  N  0.97511.65  19 4 1.65XD                         
 WRC  CI VHZ   VW 23.5   3 112 IPD    21.05  4.69  4.58 0.10  0.01  2.30  N  0.85711.65  22 4 1.66XD                         
                               ES  3  24.21  7.85  8.15 0.18 -0.48  0.00S N  0.000                                           
 WVP  CI VHZ   VW 27.3 330 107 IPD 1  21.47  5.11  5.16-0.02 -0.03  1.15  N  0.27611.65  10 4 1.41XD                         
 WCH  CI VHZ   VW 40.2 294  97 IPU 1  23.52  7.16  7.21 0.00 -0.05  1.15  N  0.364 5.58  12 4 1.77XD                         
 WBS  CI VHZ   VW 48.5 243  93 IPU 1  24.97  8.61  8.55 0.00  0.06  1.15  N  0.546 5.58   9 4 1.36XD                         
 WLH  CI VHZ   VW 74.5 309  83 EP  3  29.14 12.78 12.76-0.01  0.03  0.23  N  0.042                                           
 WAS  CI VHZ   VW 80.8 271  81 EP  3  30.31 13.95 13.78 0.09  0.08  0.23  N  0.024                                           
 WJP  CI VHZ   VW 82.5 245  81 EP  3  30.25 13.89 14.05-0.11 -0.05  0.23  N  0.025                                           
 WOF  CI VHZ   VW 97.6 258  77 IPU 1  32.79 16.43 16.47-0.01 -0.03  1.06  N  0.852                                           
 WMP  NC VDZ   UW102.1 265  76 EP  3  33.67 17.31 17.17 0.02  0.12  0.20  A  0.035                                           
    3 UNWEIGHTED STATIONS NOT PRINTED.
 ####################################################################################
   1 JAN 2000,  5:19  SEQUENCE NO.    6, ID NO.  21075061
                                                        ADJUSTMENTS (KM)
  I ORIGIN   LAT N     LON W     Z   NWR  RMS    DT    DLAT   DLON    DZ    RR NF MOD
  1 24.18  35 59.13  120 36.71  5.00  15 0.81  0.469  4.146 -2.018  0.000 4.611 3 PMM
 FREE DEPTH
  2 24.65  36  1.37  120 35.36  5.00  15 0.24 -0.418  1.138 -0.629  3.616 3.842 4 PMM
  3 24.23  36  1.98  120 34.94  8.62  15 0.11 -0.212  0.742 -0.404  0.815 1.174 4 PMM
 BEGIN DISTANCE WEIGHTING
 BEGIN RESIDUAL WEIGHTING
  4 24.02  36  2.38  120 34.67  9.43  13 0.03 -0.041  0.154 -0.076  0.131 0.216 4 PMM
  5 23.98  36  2.46  120 34.62  9.56  13 0.02 -0.011  0.045 -0.015  0.079 0.093 4 PMM
  6 23.97  36  2.49  120 34.61  9.64  13 0.02  0.002 -0.030  0.033 -0.020 0.049 4 PMM
 ERROR ELLIPSE: <SERR AZ DIP>-<   0.76  15 63>-<   0.51 260 11>-<   0.26 165 23>
 ------------------------------------------------------------------------------------
 YEAR MO DA  --ORIGIN--  --LAT N-  --LON W--  DEPTH   RMS   ERH   ERZ  XMAG  FMAG  PMAG
 2000-01-01  0519 23.97  36  2.49  120 34.61   9.64  0.02  0.50  0.68  1.81  1.23  1.23D
                                                                                          SOURCE
 NSTA NPHS  DMIN MODEL GAP ITR NFM NWR NWS NVR REMRKS-AVH  N.XMG-XMMAD-T   N.FMG-FMMAD-T  L F X
   28   29   3.5  PMM  172   6   9  13   0  15 SLA          6.00  0.25 X    5.25  0.11 D  N N N

 XMAG2-N.XMG2-XMMAD-T-S  FMAG2-N.FMG2-FMMAD-T-S  PREF.MAG-N.PMAG-PRMAD-T
                                                     1.23   5.25  0.11 D
 REGION= Slack Canyon               MODELS USED:  PMM=1.00

 STA NET COM L CR DIST AZM  AN P/S WT   SEC (TOBS -TCAL -DLY  =RES)  WT   SR  INFO  CAL DUR-W-FMAG-T -AMP-U-PER-W-XMAG-T
 PSM  NC VHZ   VP  3.5 331 156 IPU    26.41  2.44  2.08 0.37 -0.01  2.13  NM 0.933 1.40   7   1.08 D    87M .32   1.90 X     
 PHP  NC VHZ   VP  7.3 202 136 IPD    26.18  2.21  2.43-0.21 -0.01  2.13  NM 0.582 1.40   7   1.18 D    88M .22   1.87 X     
 PPC  NC VHZ   VP 10.3 190 124 IPD    26.54  2.57  2.81-0.24  0.00  2.13  NM 0.426 1.40   8 1 1.48 D   100M .07   1.74 X     
 PMM  NC VHZ   VP 11.8 143 119 IPU 1  27.27  3.30  3.01 0.29  0.00  1.07  NM 0.313 1.40              8.793M .30   1.30 X     
 PST  NC VHZ   VP 13.5 155 114 IPD 1  27.10  3.13  3.26-0.15  0.02  1.07  N  0.211                                           
 PVC  NC VHZ   VP 13.8 164 114 IPD 1  27.18  3.21  3.30-0.09  0.00  1.07  N  0.147 1.40   8 1 1.29 D                         
 PPT  NC VHZ   VP 15.2 300 110 EPD 2  27.56  3.59  3.52-0.06  0.13  0.43  NM 0.161 1.40   8 1 1.20 D    27M .13   1.26 X     
 PHO  NC VLN   NP 21.3 155  99 ES  3  31.76  7.79  7.97 0.12 -0.31  0.00S N  0.000                                           
 PHO  NC VHZ   VP 21.3 155  99 IPD 1  28.50  4.53  4.48 0.07 -0.02  1.07  N  0.335                                           
 PCA  NC VHZ   VP 24.7 119  95 EP  3  30.09  6.12  5.04 0.72  0.36  0.00  N  0.000                                           
 PWK  NC VHZ   VP 25.9 166  94 EP  3  29.33  5.36  5.22 0.14  0.00  0.21  N  0.012                                           
 PHA  NC VHZ   VP 27.9 144  91 EP  3  29.63  5.66  5.55 0.02  0.09  0.21  N  0.025                                           
 PSA  NC VHZ   VP 28.2 267  91 EP  3  29.47  5.50  5.60-0.27  0.17  0.21  N  0.052                                           
 PAD  NC VHZ   VP 51.6 211  84 IPD 1  33.11  9.14  9.44-0.26 -0.04  1.07  N  0.722                                           
 PCC  NC VHZ   VP 53.1 276  84 EP  3  33.58  9.61  9.68-0.15  0.08  0.21  NM 0.073 2.80  13   1.87 D    60M .23   2.21 X     
   14 UNWEIGHTED STATIONS NOT PRINTED.
 ####################################################################################
   1 JAN 2000,  6:05  SEQUENCE NO.    7, ID NO.  21075067
                                                        ADJUSTMENTS (KM)
  I ORIGIN   LAT N     LON W     Z   NWR  RMS    DT    DLAT   DLON    DZ    RR NF MOD
  1 56.51  35 59.13  120 36.71  5.00  15 0.71  0.941  1.135 -7.241  0.000 7.330 3 PMM
  2 57.45  35 59.74  120 31.88  5.00  15 0.54 -0.328 -0.557  1.492  0.000 1.593 3 PMM
 FREE DEPTH
  3 57.12  35 59.44  120 32.88  5.00  15 0.07 -0.038 -0.109  0.097 -0.114 0.185 4 PMM
 BEGIN DISTANCE WEIGHTING
 BEGIN RESIDUAL WEIGHTING
  4 57.08  35 59.38  120 32.94  4.89  15 0.03 -0.004  0.012 -0.002  0.002 0.012 4 PMM
  5 57.08  35 59.39  120 32.94  4.89  15 0.03  0.001 -0.042  0.033  0.038 0.066 4 PMM
 ERROR ELLIPSE: <SERR AZ DIP>-<   0.89 226 67>-<   0.39  15 20>-<   0.17 109 10>
 ------------------------------------------------------------------------------------
 YEAR MO DA  --ORIGIN--  --LAT N-  --LON W--  DEPTH   RMS   ERH   ERZ  XMAG  FMAG  PMAG
 2000-01-01  0605 57.08  35 59.39  120 32.94   4.89  0.03  0.37  0.82  1.78  1.19  1.19D
                                                                                          SOURCE
 NSTA NPHS  DMIN MODEL GAP ITR NFM NWR NWS NVR REMRKS-AVH  N.XMG-XMMAD-T   N.FMG-FMMAD-T  L F X
   21   23   5.3  PMM  133   5   9  15   2  15 MID          2.00  0.13 X    4.25  0.07 D  N N N

 XMAG2-N.XMG2-XMMAD-T-S  FMAG2-N.FMG2-FMMAD-T-S  PREF.MAG-N.PMAG-PRMAD-T
                                                     1.19   4.25  0.07 D
 REGION= Middle Mountain            MODELS USED:  PMM=1.00

 STA NET COM L CR DIST AZM  AN P/S WT   SEC (TOBS -TCAL -DLY  =RES)  WT   SR  INFO  CAL DUR-W-FMAG-T -AMP-U-PER-W-XMAG-T
 PHP  NC VHZ   VP  5.3 259 122 IPU    58.51  1.43  1.64-0.21  0.00  2.63  N  0.728 1.40   7   1.17 D                         
 PHP  NC VLN   NP  5.3 259 122 EP  4  58.42  1.34  1.64-0.21 -0.09X       NM       0.18   6 6           41M .16   1.65 X     
                               ES  3  59.63  2.55  2.92-0.37  0.00  0.26S N  0.025                                           
 PMM  NC VHZ   VP  5.9 129 119 EPD 2  58.94  1.86  1.73 0.29 -0.16  0.53  N  0.101 1.40   7 1 1.33 D                         
 PPC  NC VHZ   VP  6.1 224 118 IPD    58.62  1.54  1.77-0.24  0.01  2.63  N  0.559 1.40   7   1.32 D                         
 PPC  NC VLE   EP  6.1 224 118 EP  4  58.62  1.54  1.77-0.24  0.01X       NM       0.18                 19M .21   1.91 X     
 PPC  NC VLN   NP  6.1 224 118 ES  3  59.78  2.70  3.15-0.43 -0.02  0.26S N  0.031                                           
 PST  NC VHZ   VP  7.3 154 112 IPD    58.88  1.80  1.95-0.15  0.00  2.63  N  0.634                                           
 PVC  NC VHZ   VP  7.6 170 110 IPD 1  58.97  1.89  2.02-0.09 -0.04  1.32  N  0.143 1.40   7 1 1.12 D                         
 PSM  NC VHZ   VP  9.7 335 103 EPD 2  59.75  2.67  2.38 0.37 -0.08  0.53  N  0.255 1.40   7 1 1.12 D                         
 PHO  NC VHZ   VP 15.0 155  93 IPD 1  60.44  3.36  3.32 0.07 -0.03  1.32  N  0.360                                           
 PHF  NC VHZ   VP 17.9 131  88 EP  3  61.00  3.92  3.84 0.07  0.01  0.26  N  0.013                                           
 PCA  NC VHZ   VP 20.1 108  87 IPU 1  62.08  5.00  4.22 0.72  0.06  1.32  N  0.560                                           
 PPT  NC VHZ   VP 20.6 311  87 EP  3  61.22  4.14  4.32-0.06 -0.12  0.26  N  0.053                                           
 PSR  NC VHZ   VP 28.4 121  79 EP  3  63.02  5.94  5.71 0.15  0.08  0.26  N  0.024                                           
 PSA  NC VHZ   VP 30.9 278  77 EP  3  62.92  5.84  6.15-0.27 -0.04  0.26  N  0.073                                           
 PCC  NC VHZ   VP 56.5 282  65 EPU 2  67.31 10.23 10.45-0.15 -0.07  0.52  N  0.433                                           
    6 UNWEIGHTED STATIONS NOT PRINTED.
 ####################################################################################
   1 JAN 2000,  9:31  SEQUENCE NO.    8, ID NO.  51093450
                                                        ADJUSTMENTS (KM)
  I ORIGIN   LAT N     LON W     Z   NWR  RMS    DT    DLAT   DLON    DZ    RR NF MOD
  1 24.35  37 29.56  118 43.60  5.00  22 0.71  0.588  0.160  3.675  0.000 3.678 3 MAM
 FREE DEPTH
  2 24.94  37 29.65  118 46.10  5.00  22 0.10 -0.118 -1.177  0.832  1.276 1.924 4 MAM
  3 24.82  37 29.01  118 46.66  6.28  22 0.05 -0.040 -0.267  0.137  0.208 0.365 4 MAM
 BEGIN DISTANCE WEIGHTING
 BEGIN RESIDUAL WEIGHTING
  4 24.78  37 28.87  118 46.76  6.48  22 0.05 -0.009 -0.059  0.021 -0.006 0.063 4 MAM
  5 24.77  37 28.84  118 46.77  6.48  22 0.05  0.003  0.024 -0.010  0.003 0.026 4 MAM
  6 24.78  37 28.85  118 46.77  6.48  22 0.05 -0.002 -0.001 -0.004  0.018 0.018 4 MAM
 ERROR ELLIPSE: <SERR AZ DIP>-<   0.81 197 47>-<   0.56  18 42>-<   0.21 287  1>
 ------------------------------------------------------------------------------------
 YEAR MO DA  --ORIGIN--  --LAT N-  --LON W--  DEPTH   RMS   ERH   ERZ  XMAG  FMAG  PMAG
 2000-01-01  0931 24.78  37 28.85  118 46.77   6.48  0.05  0.55  0.60        1.66  1.66D
                                                                                          SOURCE
 NSTA NPHS  DMIN MODEL GAP ITR NFM NWR NWS NVR REMRKS-AVH  N.XMG-XMMAD-T   N.FMG-FMMAD-T  L F X
   22   22   5.2  MAM  176   6  21  22   0  22 MOR     1    0.00  0.00 X   16.75  0.32 D  W W  

 XMAG2-N.XMG2-XMMAD-T-S  FMAG2-N.FMG2-FMMAD-T-S  PREF.MAG-N.PMAG-PRMAD-T
                                                     1.66  16.75  0.32 D
 REGION= Mt. Morrison (RSM)         MODELS USED:  MAM=1.00

 STA NET COM L CR DIST AZM  AN P/S WT   SEC (TOBS -TCAL -DLY  =RES)  WT   SR  INFO  CAL DUR-W-FMAG-T -AMP-U-PER-W-XMAG-T
 RCC  NN VHZ   VU  5.2  81 134  PU    26.35  1.57  1.68-0.12  0.01  1.22  W  0.770 5.58  11   1.18 D                         
 HTC  NN VHZ   VU  5.5   7 132  P  1  26.49  1.71  1.72-0.02  0.01  0.61  W  0.178 5.58  31   2.18 D                         
 MCV  NC VHZ   VM 12.9 341 101  PD    27.48  2.70  2.83-0.07 -0.06  1.22  W  0.181 2.80   9   1.34 D                         
 MCM  NC VHZ   VM 16.5 330  99  PD    28.06  3.28  3.43-0.14 -0.01  1.22  W  0.113 2.80  17   1.72 D                         
 MDR  NC VHZ   VM 18.1 345  97  PD    28.62  3.84  3.70 0.09  0.05  1.22  W  0.115 2.80  15   1.86 D                         
 MLC  NC VHZ   VM 18.9 321  97  PD    28.46  3.68  3.82-0.13 -0.01  1.22  W  0.153 1.40  13   1.94 D                         
 MGP  NC VHZ   VM 19.5 327  96  PD    28.67  3.89  3.92 0.00 -0.03  1.22  W  0.116 2.80  15   1.29 D                         
 ORC  NN VHZ   VU 20.3  32  95  PU    28.83  4.05  4.06-0.09  0.08  1.22  W  0.193 0.35  27   3.34 D                         
 MSL  NC VHZ   VM 21.7 314  93  PD    28.94  4.16  4.30-0.12 -0.02  1.22  W  0.247 1.40   9   1.75 D                         
 MLH  NC VHZ   VM 22.2 352  91  PD    29.37  4.59  4.37 0.35 -0.13  1.22  W  0.127 1.40  17   2.31 D                         
 MCS  NC VHZ   VM 22.3 331  91  PD    29.25  4.47  4.39 0.04  0.04  1.22  W  0.108 2.80  11   1.34 D                         
 CAS  NN VHZ   VU 22.7  62  90  PD    29.18  4.40  4.46-0.01 -0.05  1.22  W  0.186 5.58   3 4 0.04XD                         
 MLK  NC VHZ   VM 26.8 320  94  PD    30.06  5.28  5.14 0.12  0.02  1.22  W  0.204 1.40  17   2.34 D                         
 MLM  NC VHZ   VM 31.2 332  83  PD 1  31.00  6.22  5.88 0.28  0.06  0.61  W  0.033 2.80  13   1.34 D                         
 MDP  NC VHZ   VM 31.4 303  83  PD 2  30.50  5.72  5.92-0.20  0.00  0.24  W  0.021 1.40   3 4 0.66XD                         
 BEN  NN VHZ   VU 31.8  34  83  PD    30.55  5.77  5.98-0.19 -0.02  1.22  W  0.19111.65  13   1.19 D                         
 MRC  NC VHZ   VM 32.2  48  83  PU 2  30.68  5.90  6.05-0.09 -0.06  0.24  W  0.007 1.40   3 4 0.67XD                         
 BHP  NN VHZ   VU 32.8 127  83  PU 2  30.73  5.95  6.14-0.09 -0.10  0.24  W  0.086 5.58  15   1.65 D                         
 MGN  NN VHZ   VU 37.6  11  81  PD    31.87  7.09  6.95 0.09  0.05  1.22  W  0.179 5.58  11 1 1.38 D                         
 MLN  NN VHZ   VU 40.6  71  81  PU    32.15  7.37  7.44-0.02 -0.05  1.22  W  0.293 5.58  11   1.40 D                         
 BCK  NN VHZ   VU 43.3  56  81  PU    32.66  7.88  7.89 0.00 -0.01  1.22  W  0.199 5.58   3 4 0.15XD                         
 POC  NN VHZ   VU 46.2 106  81  PU 1  32.95  8.17  8.37-0.29  0.09  0.61  W  0.289 5.58   3 4 0.15XD                         
 ####################################################################################
   1 JAN 2000, 10:45  SEQUENCE NO.    9, ID NO.  21075087
                                                        ADJUSTMENTS (KM)
  I ORIGIN   LAT N     LON W     Z   NWR  RMS    DT    DLAT   DLON    DZ    RR NF MOD
  1 11.91  39 38.63  123 25.81  5.00  12 1.25  0.343 -8.967 -4.453  0.00010.011 3 MAN
  2 12.25  39 33.79  123 22.69  5.00  12 0.43 -0.336 -1.254 -0.158  0.000 1.264 3 MAN
 FREE DEPTH
  3 11.92  39 33.12  123 22.58  5.00  12 0.12 -0.149 -0.169  0.033  4.241 4.244 4 MAA
 BEGIN DISTANCE WEIGHTING
 BEGIN RESIDUAL WEIGHTING
  4 11.77  39 33.02  123 22.61  9.24   9 0.10 -0.087 -0.023  0.050 -0.070 0.089 4 MAA
  5 11.68  39 33.01  123 22.64  9.17  11 0.03  0.002  0.111 -0.010 -0.253 0.276 4 MAA
  6 11.68  39 33.07  123 22.63  8.92  11 0.03 -0.004  0.007  0.010  0.017 0.021 4 MAA
  7 11.68  39 33.08  123 22.64  8.93  11 0.03 -0.001  0.009  0.011  0.018 0.023 4 MAA
 ERROR ELLIPSE: <SERR AZ DIP>-<   0.99 261 88>-<   0.35 357  0>-<   0.18  86  1>
 ------------------------------------------------------------------------------------
 YEAR MO DA  --ORIGIN--  --LAT N-  --LON W--  DEPTH   RMS   ERH   ERZ  XMAG  FMAG  PMAG
 2000-01-01  1045 11.68  39 33.08  123 22.64   8.93  0.03  0.35  0.99  1.14  1.16  1.16D
                                                                                          SOURCE
 NSTA NPHS  DMIN MODEL GAP ITR NFM NWR NWS NVR REMRKS-AVH  N.XMG-XMMAD-T   N.FMG-FMMAD-T  L F X
   15   17  10.6  MAA  102   7   7  11   1  12 MAA          2.00  0.30 X    3.25  0.05 D  N N N

 XMAG2-N.XMG2-XMMAD-T-S  FMAG2-N.FMG2-FMMAD-T-S  PREF.MAG-N.PMAG-PRMAD-T
                                                     1.16   3.25  0.05 D
 REGION= Maacama Fault              MODELS USED:  MAA=0.54  MAN=0.46

 STA NET COM L CR DIST AZM  AN P/S WT   SEC (TOBS -TCAL -DLY  =RES)  WT   SR  INFO  CAL DUR-W-FMAG-T -AMP-U-PER-W-XMAG-T
 KFP  NC VHZ   VK 10.6 338 126 EPU 2  13.91  2.23  2.60-0.22 -0.15  0.58  N  0.157 5.58   8 1 1.21 D                         
 KSP  NC VHZ   VK 11.3 252 123 IPU 1  14.35  2.67  2.71-0.03 -0.01  1.45  N  0.572 5.58   8   1.13 D                         
 GBD  NC VHZ   VG 13.4 154 118 EPU 2  14.49  2.81  3.02-0.20 -0.01  0.58  NM 0.107 2.80              7.034M .20   0.84 X     
                               ES  3  16.78  5.10  5.38-0.36  0.08  0.29S N  0.127                                           
 KRK  NC VHZ   VK 16.7  85 112 IPU    15.34  3.66  3.55 0.10  0.01  2.91  NM 0.869 5.58                 23M .19   1.44 X     
 GTC  NC VHZ   VG 22.8 223 104 IPD 1  16.17  4.49  4.56-0.07  0.00  1.45  N  0.668 5.58   9 1 1.10 D                         
 KCP  NC VHZ   VK 22.9 312 104 EP  3  16.05  4.37  4.58 0.01 -0.22  0.25  N  0.022 2.80   9 1 1.37 D                         
 KCPB NC BHZ   4K 23.1 311 104 IPD 1  16.33  4.65  4.62 0.01  0.02  1.45  A  0.769                                           
 KCPB NC BHE   6K 23.1 311 104 ES  3  20.67  8.99  8.22 0.01  0.75* 0.00S A  0.000                                           
 KIP  NC VHZ   VK 29.9 343  98 EP  3  17.34  5.66  5.78-0.20  0.08  0.29  N  0.045                                           
 GHM  NC VHZ   VG 38.9  99  93 IPU 1  19.07  7.39  7.34 0.08 -0.03  1.45  N  0.607                                           
 GWR  NC VHZ   VG 38.9 170  93 EP  3  19.05  7.37  7.35-0.01  0.03  0.29  N  0.050                                           
    5 UNWEIGHTED STATIONS NOT PRINTED.
 ####################################################################################
