   2 JAN 2000,  3:07  SEQUENCE NO.   28, ID NO.  21075201
                                                        ADJUSTMENTS (KM)
  I ORIGIN   LAT N     LON W     Z   NWR  RMS    DT    DLAT   DLON    DZ    RR NF MOD
  1 45.86  38 48.77  122 47.98  5.00  22 1.25  1.163 -0.818 -0.227  0.000 0.849 3 GEY
 FREE DEPTH
  2 47.02  38 48.33  122 47.82  5.00  22 0.13  0.123 -0.081 -0.020 -0.182 0.200 4 GEY
  3 47.15  38 48.29  122 47.81  4.82  22 0.05  0.013 -0.017 -0.001 -0.049 0.051 4 GEY
 BEGIN DISTANCE WEIGHTING
 BEGIN RESIDUAL WEIGHTING
  4 47.16  38 48.28  122 47.81  4.77  22 0.05  0.002  0.016 -0.007 -0.010 0.020 4 GEY
  5 47.16  38 48.28  122 47.80  4.76  22 0.05  0.001 -0.010  0.015  0.008 0.019 4 GEY
 ERROR ELLIPSE: <SERR AZ DIP>-<   0.36 342 78>-<   0.19 199  9>-<   0.15 109  7>
 ------------------------------------------------------------------------------------
 YEAR MO DA  --ORIGIN--  --LAT N-  --LON W--  DEPTH   RMS   ERH   ERZ  XMAG  FMAG  PMAG
 2000-01-02  0307 47.16  38 48.28  122 47.80   4.76  0.05  0.18  0.35  1.77  1.75  1.75D
                                                                                          SOURCE
 NSTA NPHS  DMIN MODEL GAP ITR NFM NWR NWS NVR REMRKS-AVH  N.XMG-XMMAD-T   N.FMG-FMMAD-T  L F X
   40   40   0.4  GEY   38   5  14  22   0  22 GEY          4.00  0.12 X   15.25  0.20 D  N N N

 XMAG2-N.XMG2-XMMAD-T-S  FMAG2-N.FMG2-FMMAD-T-S  PREF.MAG-N.PMAG-PRMAD-T
                                                     1.75  15.25  0.20 D
 REGION= Geysers                    MODELS USED:  GEY=1.00

 STA NET COM L CR DIST AZM  AN P/S WT   SEC (TOBS -TCAL -DLY  =RES)  WT   SR  INFO  CAL DUR-W-FMAG-T -AMP-U-PER-W-XMAG-T
 GDX  NC VHZ   VG  0.4  27 174 IPD    47.86  0.70  0.95-0.19 -0.06  1.90  N  0.636 5.58  14   1.94 D                         
 GGP  NC VHZ   VG  6.1 224 122 IPD    48.57  1.41  1.53-0.13  0.01  1.90  N  0.390 2.80  11   1.71 D                         
 GCR  NC VHZ 01VG  7.8 116 114 IPU    48.71  1.55  1.79-0.27  0.03  1.90  N  0.230 5.58  15   1.96 D                         
 GAC  NC VHZ   VG  9.5 323 108  PU    49.18  2.02  2.08-0.10  0.04  1.90  W  0.499 5.58  15   1.93 D                         
 GBG  NC VHZ   VG 10.0  83 107 IPU    49.41  2.25  2.16 0.04  0.05  1.90  N  0.267 2.80  15   1.90 D                         
 GSG  NC VHZ   VG 10.2  48 106 IPU    49.61  2.45  2.21 0.23  0.01  1.90  N  0.414 5.58  25   1.94 D                         
 GAX  NC VHZ   VG 11.0 161 104 IPU    49.23  2.07  2.34-0.33  0.06  1.90  N  0.272 5.58  18   2.17 D                         
 GMK  NC VHZ   VG 18.3   2  94 EP  3  51.07  3.91  3.64 0.28 -0.01  0.19  N  0.007 5.58  24   2.03 D                         
 GRT  NC VHZ   VG 18.4  36  94 EP  3  50.69  3.53  3.66-0.19  0.06  0.19  N  0.005                                           
 GCV  NC VHZ 01VG 19.4 259  93  PU 5  51.02  3.86  3.83 0.06 -0.03X       W        5.58   9 1 1.32 D                         
                               IPU    51.02  3.86  3.83 0.06 -0.03  1.90  N  0.507 5.58   4 4 0.53XD                         
 NMH  NC VHZ   VN 20.7 136  92 EPD 2  50.70  3.54  4.07-0.41 -0.12  0.38  N  0.009 5.58  11   1.52 D                         
 GSS  NC VHZ   VG 22.1 239  90 EP  3  51.39  4.23  4.32-0.01 -0.08  0.19  NM 0.004 5.58  13   1.75 D    75M .26   1.88 X     
 NMC  NC VHZ   VN 25.8 204  89 EP  3  52.07  4.91  4.98-0.11  0.04  0.19  N  0.004                                           
 NMW  NC VHZ   VN 29.0 167  89 EP  3  52.40  5.24  5.55-0.11 -0.20  0.19  NM 0.003 2.80  10   1.44 D    27M .28   1.65 X     
 NMT  NC VHZ   VN 30.3  89  87 EP  4  52.73  5.57  5.80-0.08 -0.15X       NM      11.65  10   1.07 D    95M .22   1.89 X     
 GHL  NC VHZ   VG 32.5 324  86 EPU 2  53.17  6.01  6.19-0.16 -0.02  0.38  N  0.03311.65  14 1 1.73 D                         
 NSH  NC VHZ   VN 35.6 152  84 IPU    53.68  6.52  6.75-0.26  0.03  1.90  NM 0.332 5.58  11   1.42 D    77M .12   1.64 X     
 NPV  NC VHZ   VN 36.8 119  84 IPU    53.69  6.53  6.96-0.33 -0.10  1.90  N  0.320                                           
 GSN  NC VHZ   VG 37.5 294  83 EP  3  54.30  7.14  7.08 0.07 -0.01  0.19  N  0.007                                           
 GDC  NC VHZ   VG 38.7 265  83 EPU 2  54.51  7.35  7.29 0.07 -0.01  0.38  N  0.027 5.58   7 4 1.12XD                         
 NIM  NC VHZ   VN 53.5 120  78 EP  3  56.87  9.71  9.92-0.16 -0.05  0.19  N  0.003 5.58  13 1 1.68 D                         
 NVE  NC VHZ   VN 56.6 147  77 EP  3  57.05  9.89 10.46-0.40 -0.17  0.19  N  0.004                                           
 NAPB NC VHZ   VN 62.4 130  75 EPD 2  58.29 11.13 11.48-0.24 -0.11  0.35  N  0.014                                           
   16 UNWEIGHTED STATIONS NOT PRINTED.
 ####################################################################################
   2 JAN 2000,  4:44  SEQUENCE NO.   29, ID NO.  21075203
                                                        ADJUSTMENTS (KM)
  I ORIGIN   LAT N     LON W     Z   NWR  RMS    DT    DLAT   DLON    DZ    RR NF MOD
  1 14.70  40 28.83  124 20.54  5.00   6 1.47 -3.238  0.126 17.643  0.00017.644 3 MEN
  2 11.46  40 28.90  124 33.06  5.00   6 0.59 -4.650  5.985 24.793  0.00025.506 3 MEN
  3  6.81  40 32.13  124 50.66  5.00   6 0.24  0.336 -5.559  0.494  0.000 5.581 3 MEN
 FREE DEPTH
 BEGIN DISTANCE WEIGHTING
 BEGIN RESIDUAL WEIGHTING
  4  7.15  40 29.13  124 51.01  5.00   4 0.03 -0.008 -0.678 -0.019 -0.242 0.720 3 MEN
  5  7.14  40 28.76  124 51.00  4.76   4 0.01 -0.002 -0.124 -0.014 -0.057 0.137 3 MEN
  6  7.14  40 28.69  124 50.99  4.70   4 0.01  0.003 -0.003 -0.041 -0.050 0.065 3 MEN
  7  7.14  40 28.69  124 50.96  4.65   4 0.01  0.001 -0.004 -0.048 -0.057 0.074 3 MEN
 ERROR ELLIPSE: <SERR AZ DIP>-<   8.25 106 39>-<   2.06 274 49>-<   1.24  11  5>
 ------------------------------------------------------------------------------------
 YEAR MO DA  --ORIGIN--  --LAT N-  --LON W--  DEPTH   RMS   ERH   ERZ  XMAG  FMAG  PMAG
 2000-01-02  0444  7.14  40 28.69  124 50.96   4.65  0.01  6.34  5.27  2.36  1.93  1.93D
                                                                                          SOURCE
 NSTA NPHS  DMIN MODEL GAP ITR NFM NWR NWS NVR REMRKS-AVH  N.XMG-XMMAD-T   N.FMG-FMMAD-T  L F X
    7    7  62.2  MEN  334   7   3   4   0   6 MEN  -       3.00  0.11 X    1.50  0.08 D  N N N

 XMAG2-N.XMG2-XMMAD-T-S  FMAG2-N.FMG2-FMMAD-T-S  PREF.MAG-N.PMAG-PRMAD-T
                                                     1.93   1.50  0.08 D
 REGION= Mendocino Escarpment       MODELS USED:  MEN=1.00

 STA NET COM L CR DIST AZM  AN P/S WT   SEC (TOBS -TCAL -DLY  =RES)  WT   SR  INFO  CAL DUR-W-FMAG-T -AMP-U-PER-W-XMAG-T
 KCT  NC VHZ   VK 43.4  90  69 EP  3  16.70  9.56  8.91 0.15  0.50  0.00  N  0.000 2.80   9 4 1.52XD                         
 KMP  NC VHZ   VK 62.2  95  59 IPU    19.25 12.11 12.24-0.13  0.00  1.55  NM 1.000 2.80                 60M .32   2.50 X     
 KSM  NC VHZ   VK 65.8 119  58 IPU    19.78 12.64 12.84-0.20  0.00  1.55  NM 1.000 5.58  16 1 1.85 D   113M .14   2.36 X     
 KCR  NC VHZ   VK 87.5  93  40 IPU 1  23.13 15.99 15.93 0.06  0.00  0.77  N  0.999                                           
 KBB  NC VHZ   VK 90.4 109  40 EP  3  23.83 16.69 16.30 0.17  0.22  0.13  NM 1.000 5.58  19 1 2.00 D    18M .62   2.25 X     
 KBS  NC VHZ   VK123.6 119  40 EP  3  28.10 20.96 20.51 0.06  0.39  0.00  N  0.000                                           
    1 UNWEIGHTED STATIONS NOT PRINTED.
 ####################################################################################
   2 JAN 2000,  4:49  SEQUENCE NO.   30, ID NO.  21075205
                                                        ADJUSTMENTS (KM)
  I ORIGIN   LAT N     LON W     Z   NWR  RMS    DT    DLAT   DLON    DZ    RR NF MOD
  1 23.90  38 48.77  122 47.98  5.00  17 1.36  1.210 -2.033 -0.273  0.000 2.051 3 GEY
 FREE DEPTH
  2 25.11  38 47.67  122 47.79  5.00  17 0.24  0.235  0.033 -0.333 -1.876 1.906 4 GEY
  3 25.34  38 47.69  122 47.56  3.12  17 0.19 -0.023 -0.030  0.092  0.146 0.175 4 GEY
 BEGIN DISTANCE WEIGHTING
 BEGIN RESIDUAL WEIGHTING
  4 25.32  38 47.67  122 47.62  3.27  16 0.10 -0.068  0.449  0.331  0.857 1.023 4 GEY
  5 25.25  38 47.92  122 47.85  4.13  16 0.04 -0.026  0.045  0.047  0.101 0.120 4 GEY
  6 25.23  38 47.94  122 47.89  4.23  16 0.04 -0.001 -0.004  0.006 -0.012 0.014 4 GEY
  7 25.23  38 47.94  122 47.89  4.22  16 0.04 -0.002 -0.009  0.016  0.042 0.046 4 GEY
 ERROR ELLIPSE: <SERR AZ DIP>-<   0.36 277 77>-<   0.22  32  5>-<   0.18 123 11>
 ------------------------------------------------------------------------------------
 YEAR MO DA  --ORIGIN--  --LAT N-  --LON W--  DEPTH   RMS   ERH   ERZ  XMAG  FMAG  PMAG
 2000-01-02  0449 25.23  38 47.94  122 47.89   4.22  0.04  0.22  0.35  1.59  1.64  1.64D
                                                                                          SOURCE
 NSTA NPHS  DMIN MODEL GAP ITR NFM NWR NWS NVR REMRKS-AVH  N.XMG-XMMAD-T   N.FMG-FMMAD-T  L F X
   30   30   1.0  GEY   67   7  12  16   0  17 GEY          4.00  0.23 X   12.50  0.15 D  N N N

 XMAG2-N.XMG2-XMMAD-T-S  FMAG2-N.FMG2-FMMAD-T-S  PREF.MAG-N.PMAG-PRMAD-T
                                                     1.64  12.50  0.15 D
 REGION= Geysers                    MODELS USED:  GEY=1.00

 STA NET COM L CR DIST AZM  AN P/S WT   SEC (TOBS -TCAL -DLY  =RES)  WT   SR  INFO  CAL DUR-W-FMAG-T -AMP-U-PER-W-XMAG-T
 GDX  NC VHZ   VG  1.0  17 165 IPD    25.90  0.67  0.87-0.19 -0.01  2.32  N  0.872 5.58  12   1.79 D                         
 GGP  NC VHZ   VG  5.6 227 120 IPU    26.49  1.26  1.40-0.13 -0.01  2.32  N  0.775 2.80   7 2 1.27 D                         
 GCR  NC VHZ 01VG  7.6 111 110 IPD 1  26.72  1.49  1.73-0.27  0.03  1.16  N  0.173 5.58  13   1.82 D                         
 GAC  NC VHZ   VG  9.9 326 103  PU    27.26  2.03  2.13-0.10  0.00  2.32  W  0.874 5.58  11   1.63 D                         
 GBG  NC VHZ   VG 10.2  80 102 IPD 1  27.50  2.27  2.18 0.04  0.05  1.16  N  0.195 2.80  13   1.77 D                         
 GAX  NC VHZ   VG 10.4 160 102 IPU 1  27.20  1.97  2.22-0.33  0.08  1.16  N  0.207 5.58  12   1.78 D                         
 GSG  NC VHZ   VG 10.8  46 101 IPD 1  27.74  2.51  2.28 0.23  0.00  1.16  N  0.221 5.58  19   1.67 D                         
 GMK  NC VHZ   VG 19.0   2  90 EP  3  29.27  4.04  3.75 0.28  0.01  0.23  N  0.011 5.58  26   2.11 D                         
 GRT  NC VHZ   VG 19.0  35  90 EP  3  28.85  3.62  3.76-0.19  0.05  0.23  N  0.010                                           
 GCV  NC VHZ 01VG 19.1 261  90 EPU 2  29.12  3.89  3.78 0.06  0.05  0.46  N  0.055 5.58   6 2 0.92 D                         
 NMH  NC VHZ   VN 20.3 135  90 EP  3  28.93  3.70  4.00-0.41  0.11  0.23  N  0.008 5.58   9   1.32 D                         
 GSS  NC VHZ   VG 21.7 241  90 EP  3  29.35  4.12  4.24-0.01 -0.11  0.23  NM 0.014 5.58  11   1.58 D    72M .19   1.72 X     
 NMT  NC VHZ   VN 30.5  88  85 EP  4  30.81  5.58  5.83-0.08 -0.17X       NM      11.65  14   1.39 D    90M .30   2.00 X     
                                PD 2  31.09  5.86  5.83-0.08  0.11  0.46  W  0.03811.65  13 5 1.32XD                         
 GHL  NC VHZ   VG 33.0 325  84 EP  4  31.31  6.08  6.28-0.16 -0.04X       N       11.65  11 1 1.50 D                         
                                PU 1  32.30  7.07  6.28-0.16  0.95* 0.00  W  0.00011.65   3 4 0.25XD                         
 NSH  NC VHZ   VN 35.1 151  83 EP  3  31.62  6.39  6.67-0.26 -0.02  0.23  NM 0.011 5.58  11 1 1.42 D    43M .09   1.27 X     
 NPV  NC VHZ   VN 36.6 118  83 IPU 1  31.73  6.50  6.94-0.33 -0.11  1.16  NM 0.245 2.80                 15M .15   1.45 X     
 NIM  NC VHZ   VN 53.3 119  77 IPD 1  34.94  9.71  9.91-0.16 -0.04  1.16  N  0.282                                           
   11 UNWEIGHTED STATIONS NOT PRINTED.
 ####################################################################################
   2 JAN 2000,  5:24  SEQUENCE NO.   31, ID NO.  51093465
                                                        ADJUSTMENTS (KM)
  I ORIGIN   LAT N     LON W     Z   NWR  RMS    DT    DLAT   DLON    DZ    RR NF MOD
  1 49.79  38 48.77  122 47.98  5.00   8 1.34  1.171 -0.338  0.852  0.000 0.917 3 GEY
 FREE DEPTH
  2 50.96  38 48.59  122 48.57  5.00   8 0.15  0.227  0.048 -0.100 -1.352 1.356 4 GEY
  3 51.19  38 48.61  122 48.50  3.65   8 0.05 -0.002  0.000  0.033 -0.045 0.055 4 GEY
 BEGIN DISTANCE WEIGHTING
 BEGIN RESIDUAL WEIGHTING
  4 51.19  38 48.61  122 48.52  3.60   8 0.05  0.000  0.007 -0.024  0.024 0.035 4 GEY
  5 51.19  38 48.62  122 48.51  3.63   8 0.05 -0.002 -0.001  0.040  0.017 0.043 4 GEY
 ERROR ELLIPSE: <SERR AZ DIP>-<   0.70 237 82>-<   0.35 102  5>-<   0.30  11  5>
 ------------------------------------------------------------------------------------
 YEAR MO DA  --ORIGIN--  --LAT N-  --LON W--  DEPTH   RMS   ERH   ERZ  XMAG  FMAG  PMAG
 2000-01-02  0524 51.19  38 48.62  122 48.51   3.63  0.05  0.35  0.70        1.27  1.27D
                                                                                          SOURCE
 NSTA NPHS  DMIN MODEL GAP ITR NFM NWR NWS NVR REMRKS-AVH  N.XMG-XMMAD-T   N.FMG-FMMAD-T  L F X
    8    8   1.2  GEY  114   5   8   8   0   8 GEY     1    0.00  0.00 X    7.25  0.04 D  W W  

 XMAG2-N.XMG2-XMMAD-T-S  FMAG2-N.FMG2-FMMAD-T-S  PREF.MAG-N.PMAG-PRMAD-T
                                                     1.27   7.25  0.04 D
 REGION= Geysers                    MODELS USED:  GEY=1.00

 STA NET COM L CR DIST AZM  AN P/S WT   SEC (TOBS -TCAL -DLY  =RES)  WT   SR  INFO  CAL DUR-W-FMAG-T -AMP-U-PER-W-XMAG-T
 GDX  NC VHZ   VG  1.2 102 160  PD    51.79  0.60  0.78-0.19  0.01  1.19  W  0.961 5.58   7   1.27 D                         
 GGP  NC VHZ   VG  6.0 212 112  PU    52.47  1.28  1.42-0.13 -0.01  1.19  W  0.610 2.80  10   1.62 D                         
 GAC  NC VHZ   VG  8.4 326 101  PD    52.89  1.70  1.84-0.10 -0.04  1.19  W  0.760 5.58   7   1.19 D                         
 GCR  NC VHZ 01VG  9.0 116 100  PD 2  52.84  1.65  1.94-0.27 -0.02  0.24  W  0.017 5.58   7   1.23 D                         
 GSG  NC VHZ   VG 10.7  54  97  PU    53.62  2.43  2.24 0.23 -0.04  1.19  W  0.444 5.58  13   1.31 D                         
 GBG  NC VHZ   VG 10.9  87  96  PU    53.53  2.34  2.29 0.04  0.01  1.19  W  0.454 2.80   7 2 1.17 D                         
 GAX  NC VHZ   VG 11.9 158  94  PD    53.33  2.14  2.47-0.33  0.00  1.19  W  0.586 5.58   7 1 1.27 D                         
 GMK  NC VHZ   VG 17.8   5  89  PU 1  55.20  4.01  3.53 0.28  0.20  0.59  W  0.163 5.58  11   1.27 D                         
 ####################################################################################
   2 JAN 2000,  5:34  SEQUENCE NO.   32, ID NO.  51093466
                                                        ADJUSTMENTS (KM)
  I ORIGIN   LAT N     LON W     Z   NWR  RMS    DT    DLAT   DLON    DZ    RR NF MOD
  1 51.42  38 48.77  122 47.98  5.00   9 1.77  1.544 -0.585  0.940  0.000 1.107 3 GEY
 FREE DEPTH
  2 52.96  38 48.45  122 48.63  5.00   9 0.26  0.493  0.532 -0.251 -4.734 4.771 4 GEY
 RMS INCREASE - MOVE HYPO 0.60 BACK
  3 53.46  38 48.74  122 48.46  0.27   9 0.35 -0.296 -0.319  0.151  2.841 2.862 4 GEY
 BEGIN DISTANCE WEIGHTING
 BEGIN RESIDUAL WEIGHTING
  4 53.16  38 48.57  122 48.56  3.11   8 0.09  0.068  0.370  0.095 -1.770 1.811 4 GEY
  5 53.23  38 48.77  122 48.63  1.34   8 0.07 -0.059  0.058 -0.109 -0.252 0.281 4 GEY
  6 53.17  38 48.80  122 48.55  1.08   8 0.03 -0.010  0.014 -0.008 -0.046 0.049 4 GEY
  7 53.16  38 48.81  122 48.55  1.04   8 0.03  0.001  0.008 -0.017  0.015 0.024 4 GEY
 ERROR ELLIPSE: <SERR AZ DIP>-<   0.77 203 83>-<   0.27 332  4>-<   0.22  61  5>
 ------------------------------------------------------------------------------------
 YEAR MO DA  --ORIGIN--  --LAT N-  --LON W--  DEPTH   RMS   ERH   ERZ  XMAG  FMAG  PMAG
 2000-01-02  0534 53.16  38 48.81  122 48.55   1.04  0.03  0.27  0.76        1.51  1.51D
                                                                                          SOURCE
 NSTA NPHS  DMIN MODEL GAP ITR NFM NWR NWS NVR REMRKS-AVH  N.XMG-XMMAD-T   N.FMG-FMMAD-T  L F X
    9    9   1.4  GEY   90   7   8   8   0   9 GEY     1    0.00  0.00 X    7.25  0.08 D  W W  

 XMAG2-N.XMG2-XMMAD-T-S  FMAG2-N.FMG2-FMMAD-T-S  PREF.MAG-N.PMAG-PRMAD-T
                                                     1.51   7.25  0.08 D
 REGION= Geysers                    MODELS USED:  GEY=1.00

 STA NET COM L CR DIST AZM  AN P/S WT   SEC (TOBS -TCAL -DLY  =RES)  WT   SR  INFO  CAL DUR-W-FMAG-T -AMP-U-PER-W-XMAG-T
 GDX  NC VHZ   VG  1.4 116 133  PU 1  53.42  0.26  0.40-0.19  0.05  0.70  W  0.860 5.58  10 2 1.62 D                         
 GGP  NC VHZ   VG  6.3 210  80  PD    54.44  1.28  1.43-0.13 -0.02  1.40  W  0.772 2.80   9   1.52 D                         
 GAC  NC VHZ   VG  8.1 325  74  PU    54.87  1.71  1.82-0.10 -0.01  1.40  W  0.885 5.58   9   1.43 D                         
 GCR  NC VHZ 01VG  9.2 118  70  PU 1  54.92  1.76  2.05-0.27 -0.02  0.70  W  0.152 5.58   9   1.47 D                         
 GSG  NC VHZ   VG 10.5  55  66  PU    55.71  2.55  2.32 0.23  0.00  1.40  W  0.471 5.58  19 1 1.67 D                         
 GBG  NC VHZ   VG 11.0  89  65  PU    55.61  2.45  2.42 0.04 -0.01  1.40  W  0.520 2.80   9   1.42 D                         
 GAX  NC VHZ   VG 12.3 158  61  P  2  55.46  2.30  2.67-0.33 -0.04  0.28  W  0.040 5.58   9   1.51 D                         
 GMK  NC VHZ   VG 17.4   6  56  PD 1  57.51  4.35  3.62 0.28  0.45  0.00  W  0.000 5.58  21   1.89 D                         
 GSS  NC VHZ   VG 21.7 236  56  PU 1  57.67  4.51  4.40-0.01  0.12  0.70  W  0.297 5.58   3 4 0.33XD                         
 ####################################################################################
