   1 JAN 2000, 22:52  SEQUENCE NO.   20, ID NO.  21075173
                                                        ADJUSTMENTS (KM)
  I ORIGIN   LAT N     LON W     Z   NWR  RMS    DT    DLAT   DLON    DZ    RR NF MOD
  1 22.80  35 24.96  118 29.22  5.00  13 1.81 -0.037-10.338 14.315  0.00017.657 3 WAL
  2 22.76  35 19.38  118 38.69  5.00  13 1.07 -0.996 -1.264 -2.211  0.000 2.547 3 WAL
 FREE DEPTH
  3 21.77  35 18.70  118 37.23  5.00  13 0.18 -0.155 -0.343 -1.115  4.030 4.195 4 WAL
 BEGIN DISTANCE WEIGHTING
 BEGIN RESIDUAL WEIGHTING
  4 21.61  35 18.51  118 36.49  9.03   9 0.11 -0.206 -0.536 -0.200  2.644 2.705 4 WAL
  5 21.41  35 18.23  118 36.36 11.67   8 0.03 -0.051 -0.127  0.051  0.367 0.392 4 WAL
  6 21.36  35 18.16  118 36.39 12.04   8 0.01 -0.012 -0.028 -0.050  0.151 0.162 4 WAL
  7 21.34  35 18.14  118 36.36 12.19   8 0.01  0.004  0.001  0.050 -0.095 0.108 4 WAL
  8 21.35  35 18.14  118 36.39 12.10   8 0.01  0.003  0.010 -0.035 -0.021 0.042 4 WAL
 ERROR ELLIPSE: <SERR AZ DIP>-<   1.29 117 72>-<   0.41 260 13>-<   0.20 353  9>
 ------------------------------------------------------------------------------------
 YEAR MO DA  --ORIGIN--  --LAT N-  --LON W--  DEPTH   RMS   ERH   ERZ  XMAG  FMAG  PMAG
 2000-01-01  2252 21.35  35 18.14  118 36.39  12.10  0.01  0.40  1.24  1.44        1.44X
                                                                                          SOURCE
 NSTA NPHS  DMIN MODEL GAP ITR NFM NWR NWS NVR REMRKS-AVH  N.XMG-XMMAD-T   N.FMG-FMMAD-T  L F X
   16   17  16.5  WAL  134   8   6   8   0  13 WWF          3.00  0.05 X    0.00  0.00 D  N   N

 XMAG2-N.XMG2-XMMAD-T-S  FMAG2-N.FMG2-FMMAD-T-S  PREF.MAG-N.PMAG-PRMAD-T
                                                     1.44   3.00  0.05 X
 REGION= White Wolf Fault           MODELS USED:  WAL=1.00

 STA NET COM L CR DIST AZM  AN P/S WT   SEC (TOBS -TCAL -DLY  =RES)  WT   SR  INFO  CAL DUR-W-FMAG-T -AMP-U-PER-W-XMAG-T
 WJP  CI VHZ   VW 16.5  43 119 IPU    24.80  3.45  3.57-0.11 -0.01  1.88  NM 0.948 5.58   9 4 1.30XD   123M .08   1.44 X     
 BMT  CI VHZ   VT 18.4 177 117 IPD    25.13  3.78  3.84-0.06  0.00  1.88  N  0.98411.65  15 4 1.63XD                         
 WOF  CI VHZ   VW 27.6 340 107 IPD    26.57  5.22  5.22-0.01  0.01  1.88  NM 0.65711.65  12 4 1.51XD    91M .10   1.39 X     
 TJR  CI VHZ   VT 33.0 203 102 EP  3  27.41  6.06  6.06-0.02  0.02  0.19  NM 0.018 0.00  11 4 1.53XD    43M .49              
 WMP  NC VDZ   UW 40.9 337  97 IPD    28.68  7.33  7.32 0.02 -0.01  1.88  AM 0.474 0.20              7.279M .09 4 1.93XX     
 WMP  NC VDN   WW 40.9 337  97 ES  3  33.79 12.44 13.03 0.04 -0.63* 0.00S A  0.000                                           
 WAS  CI VHZ   VW 48.5   5  93 IPD    29.99  8.64  8.55 0.09  0.00  1.88  NM 0.826 5.58                109M .08   1.82 X     
 WBS  CI VHZ   VW 49.7  58  93 EP  3  30.14  8.79  8.74 0.00  0.05  0.19  N  0.042                                           
 PLE  CI VHZ   VT 56.1 229  91 EP  3  32.22 10.87  9.79 0.19  0.89* 0.00  N  0.000                                           
 WCH  CI VHZ   VW 80.1  36  81 EP  3  35.12 13.77 13.67 0.00  0.10  0.16  N  0.036                                           
 CRG  CI VHZ   VT102.0 267  76 IPD 1  39.25 17.90 17.15 0.10  0.65* 0.00  N  0.000                                           
 WSH  CI VHZ   VW106.4  71  75 EP  3  39.45 18.10 17.84 0.17  0.09  0.05  N  0.008                                           
 WRC  CI VHZ   VW112.6  50  73 EP  3  40.34 18.99 18.82 0.10  0.07  0.03  N  0.00211.65  20 4 1.75XD                         
    4 UNWEIGHTED STATIONS NOT PRINTED.
 ####################################################################################
   1 JAN 2000, 23:36  SEQUENCE NO.   21, ID NO.  21075177
                                                        ADJUSTMENTS (KM)
  I ORIGIN   LAT N     LON W     Z   NWR  RMS    DT    DLAT   DLON    DZ    RR NF MOD
  1 16.75  37 38.58  118 50.45  5.00  34 0.43  0.253 -0.718 -1.184  0.000 1.384 3 MAM
 FREE DEPTH
  2 17.00  37 38.19  118 49.64  5.00  34 0.26 -0.088  0.288  0.271  4.294 4.312 4 MAM
  3 16.92  37 38.35  118 49.83  9.29  34 0.19 -0.171  0.048  0.216  0.814 0.843 4 MAM
 BEGIN DISTANCE WEIGHTING
 BEGIN RESIDUAL WEIGHTING
  4 16.74  37 38.37  118 49.97 10.11  29 0.07  0.036 -0.096 -0.151 -0.466 0.499 4 MAM
  5 16.78  37 38.32  118 49.87  9.64  28 0.06  0.015  0.063 -0.064 -0.202 0.221 4 MAM
  6 16.80  37 38.36  118 49.83  9.44  27 0.05  0.013  0.026 -0.054 -0.145 0.157 4 MAM
  7 16.81  37 38.37  118 49.79  9.30  27 0.05  0.002  0.016 -0.001 -0.039 0.042 4 MAM
 ERROR ELLIPSE: <SERR AZ DIP>-<   0.51 302 77>-<   0.27 188  5>-<   0.15  98 11>
 ------------------------------------------------------------------------------------
 YEAR MO DA  --ORIGIN--  --LAT N-  --LON W--  DEPTH   RMS   ERH   ERZ  XMAG  FMAG  PMAG
 2000-01-01  2336 16.81  37 38.37  118 49.79   9.30  0.05  0.27  0.49        1.45  1.45D
                                                                                          SOURCE
 NSTA NPHS  DMIN MODEL GAP ITR NFM NWR NWS NVR REMRKS-AVH  N.XMG-XMMAD-T   N.FMG-FMMAD-T  L F X
   60   60   0.6  MAM   83   7  24  27   0  34 HCF          0.00  0.00 X   19.00  0.25 D  N N  

 XMAG2-N.XMG2-XMMAD-T-S  FMAG2-N.FMG2-FMMAD-T-S  PREF.MAG-N.PMAG-PRMAD-T
                                                     1.45  19.00  0.25 D
 REGION= Hilton Crk. Flt. (LVC)     MODELS USED:  MAM=1.00

 STA NET COM L CR DIST AZM  AN P/S WT   SEC (TOBS -TCAL -DLY  =RES)  WT   SR  INFO  CAL DUR-W-FMAG-T -AMP-U-PER-W-XMAG-T
 MDR  NC VHZ   VM  0.6 253 176 EPD 2  18.75  1.94  1.80 0.09  0.05  0.35  N  0.018 2.80  13   1.62 D                         
 MLH  NC VHZ   VM  4.5  16 150 IPU    19.02  2.21  1.99 0.35 -0.13  1.76  N  0.478 1.40  17   2.20 D                         
 MCM  NC VHZ   VM  5.1 230 147 EP  3  18.86  2.05  2.04-0.14  0.15  0.18  N  0.002 2.80  17   1.65 D                         
 MCV  NC VHZ   VM  5.5 179 145 IPD    18.82  2.01  2.07-0.07  0.01  1.76  N  0.369 2.80   7   1.05 D                         
 MGP  NC VHZ   VM  6.6 258 140 IPU    19.02  2.21  2.18 0.00  0.03  1.76  N  0.163 2.80  15   1.21 D                         
 MCS  NC VHZ   VM  6.9 285 138 IPU    19.10  2.29  2.22 0.04  0.03  1.76  N  0.184 2.80  13   1.41 D                         
 MLC  NC VHZ   VM  8.1 249 133 IPU    19.11  2.30  2.36-0.13  0.07  1.76  N  0.150 1.40  11   1.71 D                         
 MEM  NC VHZ   VM 10.1 287 126 IPU    19.50  2.69  2.62 0.04  0.03  1.76  N  0.214 2.80   9   0.99 D                         
 MSL  NC VHZ   VM 11.5 258 122 IPU    19.48  2.67  2.80-0.12 -0.01  1.76  N  0.180 1.40   8   1.58 D                         
 MLK  NC VHZ   VM 13.2 282 116 EP  3  20.01  3.20  3.05 0.12  0.03  0.18  N  0.002 1.40   6 2 1.25 D                         
 HTC  NN VHZ   VU 13.2 156 116  PU    19.81  3.00  3.05-0.02 -0.03  1.76  W  0.299 5.58  19   1.76 D                         
 MLM  NC VHZ   VM 14.3 314 115 EP  4  20.13  3.32  3.21 0.28 -0.17X       N        2.80  12   1.16 D                         
 ORC  NN VHZ   VU 15.4  91 113 IPU 1  20.17  3.36  3.37-0.09  0.08  0.88  N  0.063 0.35  22   3.11 D                         
 MMS  NC VHZ   VM 17.8 267 111 EP  3  20.53  3.72  3.75 0.03 -0.06  0.18  N  0.003 1.40   8 1 1.55 D                         
 MMP  NC VHZ   VM 17.9 260 110 IPU 1  20.37  3.56  3.75-0.20  0.01  0.88  N  0.087 2.80   9   1.40 D                         
 RCC  NN VHZ   VU 19.4 150 109 IPD    20.67  3.86  3.99-0.12 -0.01  1.76  N  0.298 5.58   9 2 1.08 D                         
 MDC  NC VHZ   VM 20.3 293 107 EPU 2  20.75  3.94  4.13-0.18 -0.01  0.35  N  0.022                                           
                                PU 5  20.80  3.99  4.13-0.18  0.04X       W        5.58   5 2 0.76 D                         
 MRD  NC VHZ   VM 20.7 258 107 IPU    20.81  4.00  4.19-0.10 -0.09  1.76  N  0.428                                           
 MDP  NC VHZ   VM 22.1 269 104 EP  3  21.01  4.20  4.41-0.20 -0.01  0.18  N  0.004                                           
                                P  6  21.05  4.24  4.41-0.20  0.03X       W        1.40   5 2 1.10 D                         
 MGN  NN VHZ   VU 22.6  31 104 EP  3  21.09  4.28  4.51 0.09 -0.32  0.00  N  0.000 5.58  13   1.45 D                         
 BEN  NN VHZ   VU 24.2  69 103 IPD    21.41  4.60  4.75-0.19  0.04  1.76  N  0.43311.65  11   0.98 D                         
 CAS  NN VHZ   VU 25.6 106 102 IPD    21.77  4.96  4.99-0.01 -0.02  1.76  N  0.254                                           
 MRC  NC VHZ   VM 28.7  82  99 EPD 2  22.36  5.55  5.49-0.09  0.15  0.35  N  0.014 1.40   6 4 1.31XD                         
                                PD 5  22.37  5.56  5.49-0.09  0.16X       W        1.40   9 1 1.70 D                         
 MTU  NC VHZ   VM 39.6 143  95 IPD 1  23.90  7.09  7.27-0.17 -0.01  0.88  N  0.097                                           
 BCK  NN VHZ   VU 40.9  80  94 IPU 1  24.33  7.52  7.49 0.00  0.03  0.88  N  0.111                                           
 MMT  NC VHZ   VM 42.6 227  94 IPU 1  24.18  7.37  7.76-0.11 -0.28  0.01  N  0.000                                           
 MLN  NN VHZ   VU 43.3  96  94 IPU 1  24.74  7.93  7.89-0.02  0.06  0.88  N  0.090 5.58  12 2 1.48 D                         
 BHP  NN VHZ   VU 48.4 141  93 EPU 2  25.46  8.65  8.73-0.09  0.01  0.35  N  0.016                                           
 POC  NN VHZ   VU 57.6 122  91 EP  3  26.78  9.97 10.24-0.29  0.02  0.17  N  0.003                                           
 MWB  NC VHZ   VM 68.1 140  89 EP  3  28.52 11.71 11.97-0.10 -0.16  0.14  N  0.002                                           
 MMI  NC VHZ   VM 84.4 254  88 IPU 1  30.97 14.16 14.67-0.16 -0.35  0.00  N  0.000                                           
 MPR  NC VHZ   VM106.0 281  86 EP  3  34.56 17.75 18.23-0.14 -0.34  0.00  N  0.000                                           
 MBU  NC VHZ   VM110.4 266  86 EP  2  35.23 18.42 18.95-0.14 -0.39  0.00  N  0.000                                           
 MHD  NC VHZ   VM110.7 239  86 IPU 1  35.23 18.42 19.01-0.45 -0.14  0.00  N  0.000                                           
 MBO  NC VHZ   VM136.1 273  84 EP  3  34.86 18.05 23.18-0.66 -4.47* 0.00  N  0.000                                           
   22 UNWEIGHTED STATIONS NOT PRINTED.
 ####################################################################################
   2 JAN 2000,  0:05  SEQUENCE NO.   22, ID NO.  21075179
                                                        ADJUSTMENTS (KM)
  I ORIGIN   LAT N     LON W     Z   NWR  RMS    DT    DLAT   DLON    DZ    RR NF MOD
  1 31.03  37 32.09  118 46.56  5.00  36 0.83  0.096 -3.694  4.981  0.000 6.201 3 MAM
 FREE DEPTH
  2 31.13  37 30.10  118 49.95  5.00  36 0.28 -0.224 -1.017  1.007  3.229 3.532 4 MAM
  3 30.90  37 29.55  118 50.63  8.23  36 0.11 -0.106 -0.162  0.162  0.666 0.705 4 MAM
 BEGIN DISTANCE WEIGHTING
 BEGIN RESIDUAL WEIGHTING
  4 30.80  37 29.46  118 50.74  8.90  31 0.05  0.044  0.262 -0.244 -0.238 0.430 4 MAM
  5 30.84  37 29.60  118 50.58  8.66  30 0.04  0.018  0.105 -0.065 -0.078 0.146 4 MAM
  6 30.86  37 29.66  118 50.53  8.58  29 0.03  0.003  0.019  0.000 -0.028 0.034 4 MAM
  7 30.86  37 29.67  118 50.53  8.55  29 0.03  0.001 -0.019 -0.008 -0.050 0.054 4 MAM
 ERROR ELLIPSE: <SERR AZ DIP>-<   0.48  10 76>-<   0.28 199 12>-<   0.14 110  2>
 ------------------------------------------------------------------------------------
 YEAR MO DA  --ORIGIN--  --LAT N-  --LON W--  DEPTH   RMS   ERH   ERZ  XMAG  FMAG  PMAG
 2000-01-02  0005 30.86  37 29.67  118 50.53   8.55  0.03  0.28  0.47        1.42  1.42D
                                                                                          SOURCE
 NSTA NPHS  DMIN MODEL GAP ITR NFM NWR NWS NVR REMRKS-AVH  N.XMG-XMMAD-T   N.FMG-FMMAD-T  L F X
   54   54   7.4  MAM  174   7  27  29   0  36 MOR          0.00  0.00 X   16.75  0.22 D  N N  

 XMAG2-N.XMG2-XMMAD-T-S  FMAG2-N.FMG2-FMMAD-T-S  PREF.MAG-N.PMAG-PRMAD-T
                                                     1.42  16.75  0.22 D
 REGION= Mt. Morrison (RSM)         MODELS USED:  MAM=1.00

 STA NET COM L CR DIST AZM  AN P/S WT   SEC (TOBS -TCAL -DLY  =RES)  WT   SR  INFO  CAL DUR-W-FMAG-T -AMP-U-PER-W-XMAG-T
 HTC  NN VHZ   VU  7.4  58 133  PU    33.03  2.17  2.19-0.02  0.00  2.33  W  0.656 5.58  21   1.82 D                         
 MCV  NC VHZ   VM 10.7   6 121 IPU    33.37  2.51  2.62-0.07 -0.04  2.33  N  0.277 2.80   8   1.21 D                         
 RCC  NN VHZ   VU 10.7  94 121 IPU 1  33.40  2.54  2.62-0.12  0.04  1.17  N  0.176 5.58   9   1.02 D                         
 MCM  NC VHZ   VM 13.0 348 113 EPU 2  33.72  2.86  2.97-0.14  0.03  0.47  N  0.009 2.80  16   1.64 D                         
 MLC  NC VHZ   VM 14.6 334 111 IPD 1  33.97  3.11  3.20-0.13  0.04  1.17  N  0.056 1.40  10   1.66 D                         
 MGP  NC VHZ   VM 15.6 341 110 IPD 1  34.24  3.38  3.36 0.00  0.02  1.17  N  0.052 2.80  12   1.05 D                         
 MDR  NC VHZ   VM 15.9   2 110 IPU    34.36  3.50  3.41 0.09  0.00  2.33  N  0.226 2.80  12   1.63 D                         
 MSL  NC VHZ   VM 16.9 324 109 IPD    34.29  3.43  3.56-0.12 -0.01  2.33  N  0.258 1.40   8 1 1.61 D                         
 MCS  NC VHZ   VM 18.7 343 107 EP  3  34.71  3.85  3.84 0.04 -0.03  0.23  N  0.002 2.80  12   1.40 D                         
 MLH  NC VHZ   VM 20.6   6 104 EP  3  35.13  4.27  4.14 0.35 -0.22  0.19  N  0.001 1.40  11   1.88 D                         
 MMP  NC VHZ   VM 20.9 308 104 EP  3  34.78  3.92  4.19-0.20 -0.07  0.23  N  0.004 2.80   9   1.42 D                         
 MEM  NC VHZ   VM 20.9 336 104 EPD 2  35.07  4.21  4.20 0.04 -0.03  0.47  N  0.010 2.80   9   1.06 D                         
 MLK  NC VHZ   VM 22.2 328 102 EP  3  35.26  4.40  4.41 0.12 -0.13  0.23  N  0.003 1.40   7 2 1.45 D                         
 MRD  NC VHZ   VM 22.3 302 102 IPD    35.20  4.34  4.42-0.10  0.02  2.33  N  0.509                                           
                                PD 5  35.21  4.35  4.42-0.10  0.03X       W        2.80   5 2 0.83 D                         
 MMS  NC VHZ   VM 22.5 313 101 EP  3  35.23  4.37  4.46 0.03 -0.12  0.23  N  0.003                                           
 ORC  NN VHZ   VU 22.7  46 101 IPU    35.32  4.46  4.49-0.09  0.06  2.33  N  0.291 0.35  15   2.79 D                         
 MDP  NC VHZ   VM 26.0 307  99 IPD 1  35.70  4.84  5.02-0.20  0.02  1.17  N  0.119                                           
 CAS  NN VHZ   VU 27.2  70  98 IPD    36.07  5.21  5.22-0.01  0.00  2.33  N  0.312                                           
 MLM  NC VHZ   VM 27.5 341  98 EP  3  36.17  5.31  5.28 0.28 -0.25  0.05  N  0.000 2.80  12   1.24 D                         
 MTU  NC VHZ   VM 29.2 122  97 EPD 2  36.17  5.31  5.56-0.17 -0.08  0.47  N  0.043                                           
 BEN  NN VHZ   VU 34.1  43  95 IPD 1  36.98  6.12  6.36-0.19 -0.05  1.17  N  0.11111.65   9 2 0.85 D                         
 MRC  NC VHZ   VM 35.7  55  94 IPU 1  37.32  6.46  6.61-0.09 -0.06  1.17  N  0.102                                           
 MCD  NC VHZ   VM 35.8  80  94 EP  3  37.47  6.61  6.63 0.13 -0.15  0.23  N  0.004                                           
 MGN  NN VHZ   VU 37.7  20  93 EPU 2  37.89  7.03  6.95 0.09 -0.01  0.47  N  0.021 5.58  11   1.38 D                         
 BHP  NN VHZ   VU 38.2 124  93 IPU 1  37.81  6.95  7.03-0.09  0.01  1.17  N  0.289                                           
 SLK  NN VHZ   VU 45.4 327  91 EP  3  38.76  7.90  8.22-0.19 -0.13  0.23  N  0.005                                           
 MLN  NN VHZ   VU 45.5  75  91 EPU 2  39.04  8.18  8.24-0.02 -0.04  0.47  N  0.017 5.58  12 2 1.49 D                         
 BCK  NN VHZ   VU 47.2  61  91 IPU 1  39.38  8.52  8.53 0.00 -0.01  1.17  N  0.112                                           
 POC  NN VHZ   VU 52.0 106  91 EP  3  40.08  9.22  9.31-0.29  0.20  0.23  N  0.007                                           
 MWB  NC VHZ   VM 57.5 128  90 IPD 1  40.93 10.07 10.23-0.10 -0.06  1.14  N  0.312                                           
 MMI  NC VHZ   VM 80.2 265  87 IPU 1  44.37 13.51 13.98-0.16 -0.31  0.00  N  0.000                                           
 MHD  NC VHZ   VM102.3 247  86 EPU 2  48.00 17.14 17.63-0.45 -0.04  0.00  N  0.000                                           
 MPR  NC VHZ   VM109.0 289  86 IPD 1  49.01 18.15 18.73-0.14 -0.44  0.00  N  0.000                                           
 MBU  NC VHZ   VM109.3 275  86 IPU 1  49.32 18.46 18.78-0.14 -0.18  0.00  N  0.000                                           
 MLR  NC VHZ   VM133.8 301  84 IPU 1  52.93 22.07 22.83-0.74 -0.02  0.00  N  0.000                                           
 MST  NC VHZ   VM145.3 289  83 EPD 2  54.60 23.74 24.71-0.98  0.01  0.00  N  0.000                                           
   17 UNWEIGHTED STATIONS NOT PRINTED.
 ####################################################################################
