   2 JAN 2000,  5:37  SEQUENCE NO.   33, ID NO.  21075209
                                                        ADJUSTMENTS (KM)
  I ORIGIN   LAT N     LON W     Z   NWR  RMS    DT    DLAT   DLON    DZ    RR NF MOD
  1  6.23  37 35.70  118 50.05  5.00  14 1.20  0.993 -0.763 -0.678  0.000 1.021 3 MAM
 FREE DEPTH
  2  7.22  37 35.29  118 49.59  5.00  14 0.12  0.126 -0.146  0.003 -0.437 0.460 4 MAM
  3  7.35  37 35.21  118 49.59  4.56  14 0.04  0.008  0.010 -0.041 -0.034 0.054 4 MAM
 BEGIN DISTANCE WEIGHTING
 BEGIN RESIDUAL WEIGHTING
  4  7.36  37 35.22  118 49.56  4.53  13 0.03  0.001  0.027 -0.001  0.020 0.034 4 MAM
  5  7.36  37 35.23  118 49.56  4.55  13 0.03 -0.002 -0.035  0.017  0.024 0.046 4 MAM
 ERROR ELLIPSE: <SERR AZ DIP>-<   0.61  31 72>-<   0.36 224 16>-<   0.27 134  3>
 ------------------------------------------------------------------------------------
 YEAR MO DA  --ORIGIN--  --LAT N-  --LON W--  DEPTH   RMS   ERH   ERZ  XMAG  FMAG  PMAG
 2000-01-02  0537  7.36  37 35.23  118 49.56   4.55  0.03  0.34  0.58  1.02  1.51  1.51D
                                                                                          SOURCE
 NSTA NPHS  DMIN MODEL GAP ITR NFM NWR NWS NVR REMRKS-AVH  N.XMG-XMMAD-T   N.FMG-FMMAD-T  L F X
   26   26   0.4  MAM  132   5  10  13   0  14 MOR          3.00  0.37 X   12.50  0.26 D  N N N

 XMAG2-N.XMG2-XMMAD-T-S  FMAG2-N.FMG2-FMMAD-T-S  PREF.MAG-N.PMAG-PRMAD-T
                                                     1.51  12.50  0.26 D
 REGION= Mt. Morrison (RSM)         MODELS USED:  MAM=1.00

 STA NET COM L CR DIST AZM  AN P/S WT   SEC (TOBS -TCAL -DLY  =RES)  WT   SR  INFO  CAL DUR-W-FMAG-T -AMP-U-PER-W-XMAG-T
 MCV  NC VHZ   VM  0.4 319 172 IPD 1   8.23  0.87  1.00-0.07 -0.06  1.14  N  0.615 2.80   8   1.15 D                         
 MCM  NC VHZ   VM  4.9 301 123 IPD     8.67  1.31  1.43-0.14  0.02  2.28  N  0.544 2.80  15   1.53 D                         
 MDR  NC VHZ   VM  5.7 352 117 IPD     9.02  1.66  1.56 0.09  0.01  2.28  N  0.833 2.80  12   1.57 D                         
 HTC  NN VHZ   VU  8.0 142 106  PD 2   9.27  1.91  1.94-0.02 -0.01  0.46  W  0.115 5.58  15   1.50 D                         
 MGP  NC VHZ   VM  8.0 303 106 IPD 1   9.28  1.92  1.94 0.00 -0.02  1.14  NM 0.129 2.80  11   0.92 D    64M .10   0.65 X     
 MLC  NC VHZ   VM  8.4 290 105 IPD 1   9.27  1.91  2.00-0.13  0.04  1.14  NM 0.174 1.40   9   1.52 D   125M .11   1.50 X     
 MLH  NC VHZ   VM 10.2   5 100 EPD 2   9.87  2.51  2.31 0.35 -0.15  0.46  N  0.080 1.40  11   1.81 D                         
 MCS  NC VHZ   VM 10.3 317  99 IPD 1   9.72  2.36  2.33 0.04 -0.01  1.14  NM 0.188 2.80   9   1.07 D    51M .17   1.02 X     
 MSL  NC VHZ   VM 12.0 286  94 EP  3   9.89  2.53  2.62-0.12  0.03  0.23  N  0.010 1.40   7 1 1.45 D                         
 MEM  NC VHZ   VM 13.3 312  90 EP  4  10.25  2.89  2.85 0.04  0.00X       N        2.80   7   0.77 D                         
 RCC  NN VHZ   VU 14.4 140  91 IPD 1  10.30  2.94  3.04-0.12  0.02  1.14  N  0.819                                           
 MLK  NC VHZ   VM 15.8 303  92 EP  4  10.28  2.92  3.28 0.12 -0.48X       N        1.40  10   1.76 D                         
 ORC  NN VHZ   VU 15.9  70  93 EP  3  10.58  3.22  3.31-0.09  0.00  0.23  N  0.040 0.35  14   2.68 D                         
 MMP  NC VHZ   VM 18.1 279  85 EP  3  10.87  3.51  3.68-0.20  0.03  0.23  N  0.014 2.80   8 1 1.29 D                         
 MRD  NC VHZ   VM 20.5 274  84 IPU 1  11.30  3.94  4.11-0.10 -0.07  1.14  N  0.433                                           
 MHD  NC VHZ   VM108.1 242  71 EP  3  25.66 18.30 18.70-0.45  0.05  0.00  N  0.000                                           
   10 UNWEIGHTED STATIONS NOT PRINTED.
 ####################################################################################
   2 JAN 2000,  5:46  SEQUENCE NO.   34, ID NO.  21075211
                                                        ADJUSTMENTS (KM)
  I ORIGIN   LAT N     LON W     Z   NWR  RMS    DT    DLAT   DLON    DZ    RR NF MOD
  1 54.26  37 34.29  121 41.06  5.00  10 0.81  0.619  1.555  2.245  0.000 2.731 3 LEW
 FREE DEPTH
  2 54.88  37 35.13  121 42.59  5.00  10 0.15 -0.193  0.387  0.176  1.037 1.121 4 LEW
  3 54.69  37 35.34  121 42.71  6.04  10 0.08 -0.081  0.099  0.041  0.320 0.337 4 LEW
 BEGIN DISTANCE WEIGHTING
 BEGIN RESIDUAL WEIGHTING
  4 54.60  37 35.39  121 42.74  6.36   8 0.04 -0.040  0.071  0.121  0.163 0.215 4 LEW
  5 54.56  37 35.43  121 42.82  6.52   8 0.03 -0.019  0.023  0.025  0.015 0.037 4 LEW
  6 54.55  37 35.44  121 42.84  6.53   8 0.02 -0.006  0.017  0.013  0.057 0.061 4 LEW
 ERROR ELLIPSE: <SERR AZ DIP>-<   0.63  19  4>-<   0.56 134 79>-<   0.29 288  9>
 ------------------------------------------------------------------------------------
 YEAR MO DA  --ORIGIN--  --LAT N-  --LON W--  DEPTH   RMS   ERH   ERZ  XMAG  FMAG  PMAG
 2000-01-02  0546 54.55  37 35.44  121 42.84   6.53  0.02  0.63  0.55  1.58  0.93  0.93D
                                                                                          SOURCE
 NSTA NPHS  DMIN MODEL GAP ITR NFM NWR NWS NVR REMRKS-AVH  N.XMG-XMMAD-T   N.FMG-FMMAD-T  L F X
   13   15   4.1  LEW  145   6   7   8   1  10 HAM          2.00  0.05 X    2.25  0.05 D  N N N

 XMAG2-N.XMG2-XMMAD-T-S  FMAG2-N.FMG2-FMMAD-T-S  PREF.MAG-N.PMAG-PRMAD-T
                                                     0.93   2.25  0.05 D
 REGION= Mt. Hamilton               MODELS USED:  LEW=0.64  CON=0.22  LIV=0.14

 STA NET COM L CR DIST AZM  AN P/S WT   SEC (TOBS -TCAL -DLY  =RES)  WT   SR  INFO  CAL DUR-W-FMAG-T -AMP-U-PER-W-XMAG-T
 CDV  NC VLN   NC  4.1 131 142 EP  4  56.06  1.51  1.64 0.07 -0.20X       NM       0.18              7.816M .25   1.62 X     
                               ES  3  57.55  3.00  2.92 0.13 -0.05  0.25S N  0.051                                           
 CDV  NC VHZ   VC  4.1 131 142 IPU    56.26  1.71  1.64 0.07  0.00  2.50  N  0.914 5.58   6   0.99 D                         
 CMR  NC VHZ   VC  6.7  85 124 IPD 1  56.61  2.06  1.98 0.05  0.03  1.25  NM 0.581 5.58   7 1 0.91 D    78M .24   1.53 X     
 CVL  NC VHZ   VC 11.4 289 106 IPU 1  57.59  3.04  2.73 0.34 -0.03  1.25  N  0.898 5.58   6 2 0.29 D                         
 CMJ  NC VHZ   VC 16.1 241  95 EPU 2  58.15  3.60  3.53-0.02  0.09  0.50  N  0.201                                           
 CAL  NC VHZ   VC 17.4 207  93 EPD 2  58.20  3.65  3.74-0.14  0.05  0.50  N  0.266                                           
 CSTB NC VHZ   VC 19.8  74  90 EPD 2  59.07  4.52  4.17 0.36 -0.01  0.50  N  0.248                                           
 CSU1 NC VDE   XC 20.8 287  90 EP  3  59.35  4.80  4.34 0.00  0.46  0.00  A  0.000                                           
                               ES  3  62.88  8.33  7.73 0.00  0.60* 0.00S A  0.000                                           
 CMM  NC VHZ   VC 24.6 127  90 IPU 1  59.52  4.97  5.00 0.00 -0.03  1.25  N  0.838                                           
    4 UNWEIGHTED STATIONS NOT PRINTED.
 ####################################################################################
   2 JAN 2000,  5:49  SEQUENCE NO.   35, ID NO.  21075213
                                                        ADJUSTMENTS (KM)
  I ORIGIN   LAT N     LON W     Z   NWR  RMS    DT    DLAT   DLON    DZ    RR NF MOD
  1 47.88  40 28.83  124 20.54  5.00  15 3.91 -3.490  0.615 10.051  0.00010.070 3 MEN
  2 44.39  40 29.16  124 27.67  5.00  15 2.29 -5.117 -6.938 37.473  0.00038.110 3 MEN
  3 39.27  40 25.42  124 54.23  5.00  15 0.87 -2.251 -7.549 12.800  0.00014.860 3 MEN
 BEGIN DISTANCE WEIGHTING
 BEGIN RESIDUAL WEIGHTING
  4 37.02  40 21.34  125  3.30  5.00  14 0.38 -1.140 -1.962  8.729  0.000 8.947 3 MEN
  5 35.88  40 20.29  125  9.48  5.00  14 0.28 -0.333 -0.253  2.692  0.000 2.704 3 MEN
 FREE DEPTH
  6 35.55  40 20.15  125 11.38  5.00  14 0.27  1.172  0.852 -2.691  5.784 6.436 4 MEN
  7 36.72  40 20.61  125  9.48 10.78  14 0.28 -0.066  0.061 -0.021  0.009 0.065 3 MEN
  8 36.66  40 20.64  125  9.46 10.79  14 0.27 -0.008 -0.064 -0.027  0.002 0.070 3 MEN
  9 36.65  40 20.61  125  9.44 10.80  14 0.27  0.021  0.013 -0.180  0.007 0.181 3 MEN
 10 36.67  40 20.61  125  9.32 10.80  14 0.27 -0.006 -0.020  0.054 -0.002 0.057 3 MEN
 11 36.66  40 20.60  125  9.35 10.80  14 0.27 -0.008 -0.014  0.043 -0.001 0.046 3 MEN
 ERROR ELLIPSE: <SERR AZ DIP>-<  23.51 256 87>-<   6.22  79  2>-<   1.32 168  0>
 ------------------------------------------------------------------------------------
 YEAR MO DA  --ORIGIN--  --LAT N-  --LON W--  DEPTH   RMS   ERH   ERZ  XMAG  FMAG  PMAG
 2000-01-02  0549 36.66  40 20.60  125  9.35  10.80  0.27  6.21 23.48  2.43  2.34  2.34D
                                                                                          SOURCE
 NSTA NPHS  DMIN MODEL GAP ITR NFM NWR NWS NVR REMRKS-AVH  N.XMG-XMMAD-T   N.FMG-FMMAD-T  L F X
   17   18  71.0  MEN  289  11   5  14   0  15 MEN  -       9.00  0.15 X    3.75  0.07 D  N N N

 XMAG2-N.XMG2-XMMAD-T-S  FMAG2-N.FMG2-FMMAD-T-S  PREF.MAG-N.PMAG-PRMAD-T
                                                     2.34   3.75  0.07 D
 REGION= Mendocino Escarpment       MODELS USED:  MEN=1.00

 STA NET COM L CR DIST AZM  AN P/S WT   SEC (TOBS -TCAL -DLY  =RES)  WT   SR  INFO  CAL DUR-W-FMAG-T -AMP-U-PER-W-XMAG-T
 KCT  NC VHZ   VK 71.0  77  48 IPU 1  49.88 13.22 13.04 0.15  0.03  2.06  NM 0.999 2.80  14 2 1.98 D    35M .48   2.52 X     
 KSM  NC VHZ   VK 85.2 101  46 IPD 1  50.77 14.11 14.82-0.20 -0.51* 2.06  NM 0.337 5.58  28   2.42 D   118M .14   2.58 X     
 KMP  NC VHZ   VK 88.3  84  46 IPU 1  51.96 15.30 15.22-0.13  0.21  2.06  NM 0.712 2.80  18 1 2.32 D    40M .14 5 2.27XX     
 KMP  NC VLE   EK 88.3  84  46 ES  3  62.00 25.34 27.09-0.23 -1.52* 0.00S N  0.000                                           
 KMP  NC VLN   NK 88.3  84  46 EP  4  52.17 15.51 15.22-0.13  0.42X       NM       0.18              4.348M .33   2.13 X     
 KBR  NC VHZ   VK110.4  66  46 EP  3  54.30 17.64 18.02-0.26 -0.12  0.41  NM 0.030 5.58              9.233M .14   1.71 X     
 KBB  NC VHZ   VK112.1  97  46 EP  3  55.12 18.46 18.23 0.17  0.06  0.41  NM 0.014 5.58  21 1 2.13 D    25M .28   2.25 X     
 KCR  NC VHZ   VK113.8  84  46 EP  3  55.13 18.47 18.44 0.06 -0.03  0.41  NM 0.027 5.58                 13M .12   1.81 X     
 KRP  NC VHZ   VK131.7  46  46 IPU 1  57.00 20.34 20.71-0.34 -0.03  2.06  NM 0.983 5.58                 24M .15   2.50 X     
 KHM  NC VHZ   VK134.1  63  46 EP  3  57.63 20.97 21.02-0.03 -0.02  0.41  N  0.028                                           
 KCS  NC VHZ   VK141.0  80  46 EP  3  58.77 22.11 21.88 0.28 -0.05  0.41  N  0.031                                           
 KBS  NC VHZ   VK141.2 109  46 IPU 1  58.90 22.24 21.91 0.06  0.27  2.06  NM 0.671 5.58  24 1 2.38 D    20M .27   2.43 X     
 KKP  NC VHZ   VK145.2  98  46 EP  3  59.88 23.22 22.41 0.55  0.26  0.41  NM 0.013 5.58                 20M .19   2.43 X     
 KIP  NC VHZ   VK154.7 112  46 EP  3  60.69 24.03 23.62 0.11  0.30  0.41  N  0.039                                           
 KFP  NC VHZ   VK167.3 117  46 EP  3  62.07 25.41 25.21-0.19  0.39  0.41  N  0.074                                           
 LGP  NC VHZ   VL206.7  71  46 EP  3  66.78 30.12 30.21-0.01 -0.08  0.41  N  0.03311.65  27 4 2.49XD                         
    2 UNWEIGHTED STATIONS NOT PRINTED.
 ####################################################################################
   2 JAN 2000,  6:32  SEQUENCE NO.   36, ID NO.  21075215
                                                        ADJUSTMENTS (KM)
  I ORIGIN   LAT N     LON W     Z   NWR  RMS    DT    DLAT   DLON    DZ    RR NF MOD
  1  4.10  37 36.88  119  2.02  5.00  11 1.00  0.925  1.704  1.005  0.000 1.978 3 MAM
 FREE DEPTH
  2  5.03  37 37.80  119  2.70  5.00  11 0.07  0.243 -0.287 -0.284 -1.449 1.504 4 MAM
  3  5.27  37 37.64  119  2.51  3.55  11 0.03 -0.007 -0.022  0.088  0.016 0.092 4 MAM
 BEGIN DISTANCE WEIGHTING
 BEGIN RESIDUAL WEIGHTING
  4  5.26  37 37.63  119  2.57  3.57  11 0.02 -0.002  0.021 -0.001  0.007 0.022 4 MAM
  5  5.26  37 37.64  119  2.57  3.57  11 0.02  0.000  0.021 -0.001  0.007 0.022 4 MAM
 ERROR ELLIPSE: <SERR AZ DIP>-<   0.56 335 68>-<   0.34 150 21>-<   0.25 241  1>
 ------------------------------------------------------------------------------------
 YEAR MO DA  --ORIGIN--  --LAT N-  --LON W--  DEPTH   RMS   ERH   ERZ  XMAG  FMAG  PMAG
 2000-01-02  0632  5.26  37 37.64  119  2.57   3.57  0.02  0.31  0.52        1.04  1.04D
                                                                                          SOURCE
 NSTA NPHS  DMIN MODEL GAP ITR NFM NWR NWS NVR REMRKS-AVH  N.XMG-XMMAD-T   N.FMG-FMMAD-T  L F X
   13   15   1.0  MAM   80   5   7  11   2  11 MAM          0.00  0.00 X    2.00  0.13 D  N N  

 XMAG2-N.XMG2-XMMAD-T-S  FMAG2-N.FMG2-FMMAD-T-S  PREF.MAG-N.PMAG-PRMAD-T
                                                     1.04   2.00  0.13 D
 REGION= Mammoth Mtn. (LVC)         MODELS USED:  MAM=1.00

 STA NET COM L CR DIST AZM  AN P/S WT   SEC (TOBS -TCAL -DLY  =RES)  WT   SR  INFO  CAL DUR-W-FMAG-T -AMP-U-PER-W-XMAG-T
 MMS  NC VHZ   VM  1.0  71 160 IPD     6.14  0.88  0.86 0.03 -0.01  2.50  N  0.906 1.40   6   1.17 D                         
 MMP  NC VHZ   VM  2.3 147 138 IPD 1   6.10  0.84  0.98-0.20  0.06  1.25  N  0.227 2.80   6   0.91 D                         
                               ES  3   6.64  1.38  1.74-0.36 -0.01  0.25S N  0.063                                           
 MDP  NC VHZ   VM  3.3 280 126 IPU 1   6.21  0.95  1.11-0.20  0.04  1.25  N  0.575                                           
 MDP  NC VLN   NM  3.3 280 126 ES  2   6.85  1.59  1.98-0.36 -0.03  0.50S N  0.184                                           
 MRD  NC VHZ   VM  3.5 203 123 IPD     6.29  1.03  1.14-0.10 -0.01  2.50  N  0.882                                           
 MSL  NC VHZ   VM  7.7  98  98 IPU 1   7.00  1.74  1.85-0.12  0.01  1.25  N  0.646                                           
 MDC  NC VHZ   VM  9.1   0  95 EPU 2   7.13  1.87  2.10-0.18 -0.05  0.50  N  0.298                                           
 MLC  NC VHZ   VM 11.4  98  91 EP  3   7.59  2.33  2.50-0.13 -0.04  0.25  N  0.032                                           
 MGP  NC VHZ   VM 12.4  90  89 EP  3   7.92  2.66  2.68 0.00 -0.02  0.25  N  0.035                                           
 MCM  NC VHZ   VM 15.1  97  86 EPU 2   8.23  2.97  3.16-0.14 -0.05  0.50  N  0.147                                           
    4 UNWEIGHTED STATIONS NOT PRINTED.
 ####################################################################################
   2 JAN 2000,  7:30  SEQUENCE NO.   37, ID NO.  21075221
                                                        ADJUSTMENTS (KM)
  I ORIGIN   LAT N     LON W     Z   NWR  RMS    DT    DLAT   DLON    DZ    RR NF MOD
  1 56.67  38 15.37  118 30.57  5.00  21 2.04  0.178 -9.800-22.244  0.00024.307 3 MAM
  2 56.85  38 10.08  118 15.30  5.00  21 0.89 -2.480  9.420 -4.699  0.00010.527 3 MAM
  3 54.37  38 15.17  118 12.07  5.00  21 0.12 -0.588  2.858 -1.147  0.000 3.080 3 MAM
 FREE DEPTH
 BEGIN DISTANCE WEIGHTING
 BEGIN RESIDUAL WEIGHTING
  4 53.78  38 16.71  118 11.29  5.00  16 0.04  0.143 -1.077 -0.290 -0.085 1.118 3 MAM
  5 53.92  38 16.13  118 11.09  4.91  15 0.03  0.207 -1.192  0.435 -0.085 1.272 3 MAM
  6 54.13  38 15.48  118 11.39  4.83  16 0.03  0.180 -1.070  0.392 -0.072 1.142 3 MAM
 ERROR ELLIPSE: <SERR AZ DIP>-<   8.58 192 87>-<   5.94  23  2>-<   0.60 293  0>
 ------------------------------------------------------------------------------------
 YEAR MO DA  --ORIGIN--  --LAT N-  --LON W--  DEPTH   RMS   ERH   ERZ  XMAG  FMAG  PMAG
 2000-01-02  0730 54.13  38 15.48  118 11.39   4.83  0.03  5.94  8.57                   
                                                                                          SOURCE
 NSTA NPHS  DMIN MODEL GAP ITR NFM NWR NWS NVR REMRKS-AVH  N.XMG-XMMAD-T   N.FMG-FMMAD-T  L F X
   22   23  64.2  MAM  319   6   5  16   0  21 NEV  -       0.00  0.00 X    0.00  0.00 D  N    
 REGION= Nevada                     MODELS USED:  MAM=1.00

 STA NET COM L CR DIST AZM  AN P/S WT   SEC (TOBS -TCAL -DLY  =RES)  WT   SR  INFO  CAL DUR-W-FMAG-T -AMP-U-PER-W-XMAG-T
 LHV  NN VHZ   VU 27.6 269  80 EP  3  58.67  4.54  5.31 0.15 -0.92* 0.00  N  0.000 0.00  12 4 1.55XD                         
 BCK  NN VHZ   VU 64.2 195  72 IPD    65.51 11.38 11.42 0.00 -0.04  3.83  N  0.630                                           
 MGN  NN VHZ   VU 66.4 223  72 EP  3  65.54 11.41 11.78 0.09 -0.46  0.00  N  0.000 5.58  22 4 2.09XD                         
 BEN  NN VHZ   VU 69.0 210  73 IPU    66.16 12.03 12.21-0.19  0.01  3.83  N  0.940                                           
 MRC  NC VHZ   VM 70.6 204  73 EP  3  66.43 12.30 12.47-0.09 -0.08  0.38  N  0.008                                           
 MLN  NN VHZ   VU 74.9 191  73 IPD    67.32 13.19 13.19-0.02  0.02  3.83  N  0.835 5.58  17 4 1.85XD                         
 ORC  NN VHZ   VU 80.4 211  73 EPD 2  68.11 13.98 14.09-0.09 -0.02  0.77  N  0.035 0.35  18 4 3.12XD                         
 MCD  NC VHZ   VM 81.9 196  73 EP  3  68.82 14.69 14.35 0.13  0.21  0.36  N  0.011                                           
 CAS  NN VHZ   VU 82.2 203  73 EP  3  68.45 14.32 14.40-0.01 -0.07  0.38  N  0.013                                           
 MLH  NC VHZ   VM 84.6 221  73 EP  3  69.00 14.87 14.79 0.35 -0.27  0.02  N  0.000                                           
 MLM  NC VHZ   VM 88.8 229  72 EP  3  70.14 16.01 15.49 0.28  0.24  0.16  N  0.042                                           
 MDR  NC VHZ   VM 89.2 220  72 EP  3  69.67 15.54 15.56 0.09 -0.11  0.38  N  0.051                                           
 MCV  NC VHZ   VM 93.1 218  72 EP  3  69.95 15.82 16.19-0.07 -0.30  0.00  N  0.000                                           
 MCM  NC VHZ   VM 93.8 221  72 EP  3  70.38 16.25 16.32-0.14  0.07  0.38  N  0.087                                           
 MFB  NC VHZ   VM 94.4 193  72 EP  3  70.80 16.67 16.41 0.09  0.17  0.38  N  0.123                                           
 MLC  NC VHZ   VM 96.0 222  72 EP  3  70.75 16.62 16.67-0.13  0.08  0.38  N  0.102                                           
 MDC  NC VHZ   VM 96.5 232  72 EP  3  70.64 16.51 16.76-0.18 -0.07  0.38  N  0.365                                           
                               ES  3  83.26 29.13 29.83-0.32 -0.38  0.00S N  0.000                                           
 RCC  NN VHZ   VU 97.5 209  72 EPD 2  70.95 16.82 16.93-0.12  0.01  0.77  N  0.400                                           
 MMS  NC VHZ   VM101.6 227  72 EP  3  71.73 17.60 17.61 0.03 -0.04  0.38  N  0.175                                           
 MRD  NC VHZ   VM105.8 227  72 EP  3  72.21 18.08 18.30-0.10 -0.12  0.38  N  0.176                                           
    2 UNWEIGHTED STATIONS NOT PRINTED.
 ####################################################################################
