 HYPOINVERSE 2000 (3/2002 VERSION) RUN ON Wed Mar  6 08:59:25 2002      RUN LABEL= 

 STATIONS:                                    NCG                                                                  LEW
      NAME NT COM LC CR  --LAT---  ---LON--- PDLY1 A  FCOR FWT FMC.EXPIRE  XCOR XWT PSWT  CAL  CAL.EXPIRE PER TYP PDLY2
    1 HPC  NC VLZ    ZH  37  3.60  121 16.55 -0.20 A  0.00 1.0          0  0.00 1.0 0.00  0.09          0 0.2  1  -0.27
    2 ARC  BK SHE    M   40 52.62  124  4.50  0.00    0.00 1.0          0  0.00 1.0 1.00  1.00          0 0.2  0   0.00
    3 ARC  BK SHN    L   40 52.62  124  4.50  0.00    0.00 1.0          0  0.00 1.0 1.00  1.00          0 0.2  0   0.00
    4 MHC  BK SHE    M   37 20.52  121 38.52  0.09 A  0.00 1.0          0  0.00 1.0 1.00  1.00          0 0.2  0  -0.02
    5 MHC  BK SHN    L   37 20.52  121 38.52  0.09 A  0.00 1.0          0  0.00 1.0 1.00  1.00          0 0.2  0  -0.02
    6 MIN  BK SHE    M   40 20.70  121 36.30 -0.16    0.00 1.0          0  0.00 1.0 1.00  1.00          0 0.2  0   0.00
    7 MIN  BK SHN    L   40 20.70  121 36.30 -0.16    0.00 1.0          0  0.00 1.0 1.00  1.00          0 0.2  0   0.00
    8 AAR  NC VHZ    VA  39 16.56  121  1.62  0.26   -0.06 1.0          0 -0.18 1.0 1.00  1.40          0 0.2  1   0.00
    9 AAS  NC VHZ    VA  38 25.81  121  6.58 -0.29    0.14 1.0          0  0.28 1.0 1.00  2.80          0 0.2  1   0.00
   10 ABA  NC VHZ    VA  38 52.76  121  4.05  0.00    0.00 1.0          0  0.00 1.0 1.00  2.80          0 0.2  1   0.00
   11 ABJ  NC VHZ    VA  39  9.95  121 11.58 -0.10    0.28 1.0          0  0.13 1.0 1.00  2.80          0 0.2  1   0.00
   12 ABR  NC VHZ    VA  39  8.29  121 29.29 -0.27   -0.18 1.0          0 -0.10 1.0 1.00  0.70 1978011820 0.2  1   0.00
   13 ADW  NC VHZ    VA  38 26.34  120 50.96 -0.05    0.19 1.0          0  0.18 1.0 1.00  2.80 1977122018 0.2  1   0.00
   14 AFD  NC VHZ    VA  38 56.76  120 58.14  0.20    0.37 1.0          0  0.30 1.0 1.00  5.58 1984042321 0.2  1   0.00
   15 AFD  NC VLE    EA  38 56.76  120 58.14  0.20    0.00 1.0          0  0.00 1.0 1.00  5.58 1979062720 0.2  1   0.00
   16 AFD  NC VLN    NA  38 56.76  120 58.14  0.20    0.00 1.0          0  0.00 1.0 1.00  5.58 1979062720 0.2  1   0.00
   17 AFD  NC VLZ    ZA  38 56.76  120 58.14  0.20    0.00 1.0          0  0.00 1.0 1.00  0.18          0 0.2  1   0.00
   18 AFH  NC VHZ    VA  39  2.40  120 47.70  0.14   -0.09 1.0          0 -0.17 1.0 1.00  1.40          0 0.2  1   0.00
   19 AFO  NC VHZ    VA  38 56.69  120 58.10  0.23    0.00 1.0          0  0.00 1.0 1.00  2.80 1984042321 0.2  1   0.00
   20 AFR  NC VHZ    VA  38 47.53  121 20.96 -0.04   -0.26 1.0          0 -0.15 1.0 1.00  1.40 1988051921 0.2  1   0.00
   21 AGI  NC VHZ    VA  38 50.68  120 58.88  0.19    0.00 1.0          0  0.00 1.0 1.00  5.58 1982112322 0.2  1   0.00
   22 AHD  NC VHZ    VA  39  2.90  121  4.59  0.18    0.00 1.0          0  0.00 1.0 1.00  2.80          0 0.2  1   0.00
   23 AHR  NC VHZ    VA  38 51.29  121  4.32  0.16    0.29 1.0          0  0.29 1.0 1.00  2.80 1981040821 0.2  1   0.00
   24 ALA  NC VHZ    VA  38 34.03  120 57.42 -0.01    0.36 1.0          0  0.27 1.0 1.00 11.65 1978102420 0.2  1   0.00
   25 ALN  NC VHZ    VA  38 55.75  121 17.22  0.17   -0.02 1.0          0 -0.04 1.0 1.00  1.40          0 0.2  1   0.00
   26 AOD  NC VHZ    VA  38 36.88  120 43.81 -0.04    0.24 1.0          0  0.19 1.0 1.00  5.58          0 0.2  1   0.00
   27 AOH  NC VHZ    VA  39 22.58  121 15.46 -0.06    0.17 1.0          0  0.01 1.0 1.00  5.58 1984022220 0.2  1   0.00
   28 APG  NC VHZ    VA  38 47.56  121 21.52 -0.04    0.00 1.0          0  0.00 1.0 1.00  1.40          0 0.2  1   0.00
   29 APR  NC VHZ    VA  38 52.62  121 13.09  0.09    0.29 1.0          0  0.40 1.0 1.00  5.58 1985040319 0.2  1   0.00
   30 ARJ  NC VHZ    VA  38 41.18  120 57.46  0.20    0.28 1.0          0  0.23 1.0 1.00  2.80 1977032520 0.2  1   0.00
   31 ARR  NC VHZ    VA  38 45.90  121 10.35  0.09    0.52 1.0          0  0.45 1.0 1.00  5.58 1977080418 0.2  1   0.00
   32 ARW  NC VHZ    VA  38 57.38  121  9.73  0.07    0.00 1.0          0  0.00 1.0 1.00  5.58 1977112923 0.2  1   0.00
   33 ASM  NC VHZ    VA  38 49.43  120 41.10  0.82    0.10 1.0          0 -0.05 1.0 1.00  1.40 1985010822 0.2  1   0.00
   34 ASR  NC VHZ    VA  38 29.86  121 12.29  0.00    0.00 1.0          0  0.00 1.0 1.00  0.70          0 0.2  1   0.00
   35 AVR  NC VHZ    VA  39  1.46  121 16.31 -0.10    0.39 1.0          0  0.34 1.0 1.00 11.65 1979011619 0.2  1   0.00
   36 BAP  NC VHZ    VB  36 10.83  121 38.66 -0.11    0.00 1.0          0 -0.17 1.0 1.00  2.80          0 0.2  1   0.00
   37 BAV  NC VLE    EB  36 38.76  121  1.81 -0.25 A  0.30 1.0          0  0.17 1.0 1.00  0.18 1981042323 0.2  1  -0.59
   38 BAV  NC VLN    NB  36 38.76  121  1.81 -0.25 A  0.27 1.0          0  0.11 1.0 1.00  0.18 1981042323 0.2  1  -0.59
   39 BAV  NC VHZ    VB  36 38.76  121  1.81 -0.25 A  0.22 1.0          0  0.27 1.0 1.00 11.65 1977042019 0.2  1  -0.59
   40 BAV  NC VLZ    ZB  36 38.76  121  1.81 -0.25 A  0.16 1.0          0  0.16 1.0 1.00  0.18 1990032321 0.2  1  -0.59
   41 BBG  NC VHZ    VB  36 34.68  121  2.35  0.12 A -0.39 1.0          0 -0.21 1.0 1.00  5.58 1988022623 0.2  1   0.00
   42 BBM  NC VHZ    VB  36 35.48  121  1.52  0.00 A  0.00 1.0          0  0.00 1.0 1.00  0.18 1977070619 0.2  1   0.00
   43 BBN  NC VHZ 01 VB  36 30.60  121  4.53  0.27 A -0.30 1.0          0 -0.04 1.0 1.00  0.35 1977021621 0.2  1   0.00
   44 BBN  NC VHZ 02 VB  36 30.57  121  4.63  0.27 A -0.30 1.0          0 -0.04 1.0 1.00  0.35 1977021621 0.2  1   0.00
   45 BCG  NC VHZ    VB  36 42.58  121 20.57  0.27    0.01 1.0          0  0.07 1.0 1.00  0.18 1977011720 0.2  1   0.12
   46 BCW  NC VHZ    VB  36 18.39  121 34.01 -0.29    0.17 1.0          0 -0.05 1.0 1.00  2.80          0 0.2  1   0.00
   47 BEH  NC VHZ    VB  36 39.89  121 10.52 -0.06 A -0.19 1.0          0 -0.14 1.0 1.00  0.18 1977111821 0.2  1  -0.31
   48 BEM  NC VHZ    VB  36 39.66  121  5.81 -0.23 A  0.01 1.0          0 -0.05 1.0 1.00 11.65 1977032218 0.2  1  -0.27
   49 BHR  NC VHZ    VB  36 43.65  121 15.99 -0.07 A -0.30 1.0          0 -0.13 1.0 1.00  2.80 1982011122 0.2  1  -0.02
   50 BHS  NC VHZ    VB  36 21.35  121 32.39 -0.25    0.00 1.0          0  0.00 1.0 1.00  5.58 1978032922 0.2  1   0.00
   51 BJC  NC VLN    NB  36 32.82  121 23.53 -0.40    0.00 1.0          0  0.00 1.0 1.00  0.00          0 0.2  1   0.00
   52 BJC  NC VHZ 01 VB  36 32.82  121 23.53 -0.40    0.28 1.0          0  0.20 1.0 1.00 11.65 1979022819 0.2  1   0.00
   53 BJC  NC VHZ 02 VB  36 32.83  121 23.63 -0.40    0.28 1.0          0  0.20 1.0 1.00 11.65 1979022819 0.2  1   0.00
   54 BJO  NC VLN    NB  36 36.66  121 18.85 -0.08    0.00 1.0          0  0.00 1.0 1.00  0.00          0 0.2  1  -0.49
   55 BJO  NC VHZ    VB  36 36.66  121 18.85 -0.08    0.21 1.0          0  0.14 1.0 1.00  5.58 1988061601 0.2  1  -0.49
   56 BLR  NC VHZ    VB  36 39.99  121 16.40  0.51   -0.33 1.0          0 -0.07 1.0 1.00  5.58 1987113019 0.2  1   0.14
   57 BMC  NC VHZ    VB  36 39.40  121 21.92 -0.03    0.00 1.0          0  0.00 1.0 1.00 11.65 1982020223 0.2  1  -0.16
   58 BMH  NC VLE    EB  36 41.18  121 24.80 -0.12    0.00 1.0          0  0.00 1.0 1.00  2.80          0 0.2  1  -0.10
   59 BMH  NC VLN    NB  36 41.18  121 24.80 -0.12    0.00 1.0          0  0.00 1.0 1.00  2.80          0 0.2  1  -0.10
   60 BMH  NC VHZ    VB  36 41.18  121 24.80 -0.12    0.00 1.0          0  0.00 1.0 1.00 11.65          0 0.2  1  -0.10
   61 BMS  NC VHZ    VB  36 39.78  120 47.58  0.13 A  0.00 1.0          0 -0.05 1.0 1.00  5.58 1977040722 0.2  1   0.00
   62 BPC  NC VLN    NB  36 34.40  121 37.61 -0.14   -0.17 1.0          0 -0.15 1.0 1.00  0.18          0 0.2  1  -0.25
   63 BPC  NC VHZ    VB  36 34.40  121 37.61 -0.14   -0.20 1.0          0 -0.16 1.0 1.00  5.58          0 0.2  1  -0.25
   64 BPF  NC VLN    NB  36 13.82  121 46.32 -0.29   -0.07 1.0          0 -0.12 1.0 1.00  0.18 1983061219 0.2  1   0.00
   65 BPF  NC VHZ    VB  36 13.82  121 46.32 -0.29    0.10 1.0          0  0.03 1.0 1.00  1.40 1977020420 0.2  1   0.00
   66 BPI  NC VHZ    VB  36 29.40  121 10.17 -0.15    0.30 1.0          0  0.22 1.0 1.00 11.65          0 0.2  1  -0.35
   67 BPN  NC VHZ    VB  36 33.73  121 38.18 -0.33    0.00 1.0          0  0.00 1.0 1.00  0.00          0 0.2  1  -0.42
   68 BPO  NC VHZ    VB  36 13.70  121 46.06 -0.05    0.00 1.0          0  0.00 1.0 1.00  5.58          0 0.2  1   0.00
   69 BPO  NC VLN    NB  36 13.70  121 46.06 -0.05    0.00 1.0          0  0.00 1.0 1.00  0.18          0 0.2  1   0.00
   70 BPO  NC VLE    EB  36 13.70  121 46.06 -0.05    0.00 1.0          0  0.00 1.0 1.00  0.00          0 0.2  1   0.00
   71 BPO  NC VLZ    ZB  36 13.70  121 46.06 -0.05    0.00 1.0          0  0.00 1.0 1.00  0.00          0 0.2  1   0.00
   72 BPP  NC VHZ    VB  36 10.12  121 22.68 -0.26    0.00 1.0          0  0.00 1.0 1.00  5.58          0 0.2  1   0.00
   73 BPR  NC VHZ    VB  36 24.43  121 43.83 -0.33    0.03 1.0          0 -0.13 1.0 1.00  2.80 1994051100 0.2  1   0.00
   74 BPY  NC VHZ    VB  36 33.90  121 38.15 -0.26    0.00 1.0          0  0.00 1.0 1.00  2.80 1977052320 0.2  1  -0.39
   75 BR1  NC VLN    NB  36 40.11  121 31.15 -0.30    0.00 1.0          0  0.00 1.0 1.00  0.00          0 0.2  1  -0.46
   76 BR1  NC VHZ    VB  36 40.11  121 31.15 -0.30    0.00 1.0          0  0.00 1.0 1.00  0.00          0 0.2  1  -0.46
   77 BRM  NC VHZ    VB  36 50.70  120 49.48  0.52 A -0.26 1.0          0 -0.21 1.0 1.00  2.80          0 0.2  1   0.41
   78 BRV  NC VHZ    VB  36 25.48  121  1.15  0.19   -0.15 1.0          0  0.02 1.0 1.00  0.35 1977052100 0.2  1   0.00
   79 BS2  NC VHZ    VB  36 38.02  121 14.01  0.39    0.00 1.0          0  0.00 1.0 1.00  0.00          0 0.2  1  -0.12
   80 BS3  NC VHZ    VB  36 38.10  121 14.38  0.40    0.00 1.0          0  0.00 1.0 1.00  0.00          0 0.2  1  -0.12
   81 BS4  NC VHZ    VB  36 37.98  121 14.05  0.43    0.00 1.0          0  0.00 1.0 1.00  0.00          0 0.2  1   0.00
   82 BSB  NC VHZ    VB  36 44.27  121 17.21  0.08 A  0.00 1.0          0  0.00 1.0 1.00  2.80          0 0.2  1   0.03
   83 BSC  NC VLE    EB  36 38.50  121 15.59  0.41    0.06 1.0          0  0.23 1.0 1.00  0.18 1981042421 0.2  1  -0.16
   84 BSC  NC VLN    NB  36 38.50  121 15.59  0.41    0.11 1.0          0  0.27 1.0 1.00  0.18 1981042421 0.2  1  -0.16
   85 BSC  NC VHZ    VB  36 38.50  121 15.59  0.41    0.18 1.0          0  0.17 1.0 1.00  5.58 1977072619 0.2  1  -0.16
   86 BSC  NC VLZ    ZB  36 38.50  121 15.59  0.41   -0.07 1.0          0  0.18 1.0 1.00  0.18 1988012220 0.2  1  -0.16
   87 BSG  NC VLE    EB  36 24.83  121 15.31 -0.42    0.14 1.0          0  0.09 1.0 1.00  0.18 1981042319 0.2  1   0.00
   88 BSG  NC VLN    NB  36 24.83  121 15.31 -0.42    0.14 1.0          0  0.09 1.0 1.00  0.18 1981042319 0.2  1   0.00
   89 BSG  NC VHZ    VB  36 24.83  121 15.31 -0.42    0.14 1.0          0  0.06 1.0 1.00  0.18 1977021020 0.2  1   0.00
   90 BSG  NC VLZ    ZB  36 24.83  121 15.31 -0.42    0.02 1.0          0  0.07 1.0 1.00  0.18 1990031923 0.2  1   0.00
   91 BSL  NC VHZ    VB  36 46.59  121 21.01  0.07 A -0.57 1.0          0 -0.38 1.0 1.00  2.80 1977111700 0.2  1   0.26
   92 BSM  NC VHZ 01 VB  36 23.03  121 25.63 -0.23    0.04 1.0          0 -0.10 1.0 1.00  2.80 1993042723 0.2  1   0.00
   93 BSM  NC VHZ 02 VB  36 23.02  121 25.75 -0.23    0.04 1.0          0 -0.10 1.0 1.00  2.80 1993042723 0.2  1   0.00
   94 BSR  NC VLE    EB  36 40.05  121 31.22 -0.31   -0.08 1.0          0 -0.10 1.0 1.00  5.58 1977032322 0.2  1  -0.48
   95 BSR  NC VLN    NB  36 40.05  121 31.22 -0.31   -0.04 1.0          0  0.02 1.0 1.00  5.58 1977032322 0.2  1  -0.48
   96 BSR  NC VHZ    VB  36 40.05  121 31.22 -0.31    0.09 1.0          0  0.04 1.0 1.00  0.35 1977030423 0.2  1  -0.48
   97 BSR  NC VLZ    ZB  36 40.05  121 31.22 -0.31   -0.14 1.0          0 -0.07 1.0 1.00  0.18 1990031321 0.2  1  -0.48
   98 BVL  NC VLE    EB  36 34.49  121 11.41  0.30    0.00 1.0          0  0.00 1.0 1.00  0.09          0 0.2  1   0.00
   99 BVL  NC VLN    NB  36 34.49  121 11.41  0.30    0.00 1.0          0  0.00 1.0 1.00  0.09          0 0.2  1   0.00
  100 BVL  NC VHZ    VB  36 34.49  121 11.41  0.30   -0.06 1.0          0  0.08 1.0 1.00  0.70 1977032422 0.2  1   0.00
  101 BVY  NC VHZ    VB  36 44.77  121 24.95  0.20    0.20 1.0          0  0.38 1.0 1.00  5.58 1977041817 0.2  1   0.33
  102 CAC  NC VLN    NC  37 58.57  121 45.62  0.59 A  0.00 1.0          0  0.00 1.0 1.00  0.00          0 0.2  1   1.25
  103 CAC  NC VHZ    VC  37 58.57  121 45.62  0.59 A -0.47 1.0          0 -0.32 1.0 1.00  1.40 1982033020 0.2  1   1.25
  104 CAD  NC VHZ 01 VC  37  9.77  121 37.45 -0.03 A  0.11 1.0          0  0.00 1.0 1.00 11.65 1977033019 0.2  1   0.26
  105 CAD  NC VHZ 02 VC  37  9.83  121 37.66 -0.03 A  0.11 1.0          0  0.00 1.0 1.00 11.65 1977033019 0.2  1   0.26
  106 CADB NC EHZ    VC  37  9.81  121 37.59  0.00    0.00 1.0          0  0.00 1.0 1.00  4.64          0 0.2  3   0.00
  107 CADB NC HNZ    IC  37  9.81  121 37.59  0.00    0.00 1.0          0  0.00 1.0 1.00  0.00          0 0.2  0   0.00
  108 CADB NC HNN    JC  37  9.81  121 37.59  0.00    0.00 1.0          0  0.00 1.0 1.00  0.00          0 0.2  0   0.00
  109 CADB NC HNE    KC  37  9.81  121 37.59  0.00    0.00 1.0          0  0.00 1.0 1.00  0.00          0 0.2  0   0.00
  110 CAI  NC VHZ    VC  37 51.68  122 25.80 -0.25    0.11 1.0          0 -0.05 1.0 1.00  2.80          0 0.2  1  -0.43
  111 CAL  NC VLE    EC  37 27.02  121 48.02 -0.13 A  0.25 1.0          0  0.24 1.0 1.00  0.18 1979081316 0.2  1  -0.15
  112 CAL  NC VLN    NC  37 27.02  121 48.02 -0.13 A  0.25 1.0          0  0.21 1.0 1.00  0.18 1979081316 0.2  1  -0.15
  113 CAL  NC VHZ    VC  37 27.02  121 48.02 -0.13 A  0.25 1.0          0  0.33 1.0 1.00 11.65 1986101619 0.2  1  -0.15
  114 CAL  NC VLZ    ZC  37 27.02  121 48.02 -0.13 A  0.18 1.0          0  0.22 1.0 1.00  0.18 1988022420 0.2  1  -0.15
  115 CAL  NC EHZ    VC  37 27.02  121 48.02 -0.13 A  0.00 1.0          0  0.33 1.0 1.00  4.64          0 0.2  3  -0.15
  116 CAL  NC HNZ    IC  37 27.02  121 48.02 -0.13 A  0.00 1.0          0  0.00 1.0 1.00  0.00          0 0.2  0  -0.15
  117 CAL  NC HNN    JC  37 27.02  121 48.02 -0.13 A  0.00 1.0          0  0.00 1.0 1.00  0.00          0 0.2  0  -0.15
  118 CAL  NC HNE    KC  37 27.02  121 48.02 -0.13 A  0.00 1.0          0  0.00 1.0 1.00  0.00          0 0.2  0  -0.15
  119 CAO  NC VLE    EC  37 20.91  121 32.08 -0.07 A  0.34 1.0          0  0.20 1.0 1.00  0.18 1979081422 0.2  1  -0.13
  120 CAO  NC VLN    NC  37 20.91  121 32.08 -0.07 A  0.29 1.0          0  0.19 1.0 1.00  0.18 1979081422 0.2  1  -0.13
  121 CAO  NC VHZ    VC  37 20.91  121 32.08 -0.07 A  0.19 1.0          0  0.27 1.0 1.00  0.35 1977031123 0.2  1  -0.13
  122 CAO  NC VLZ    ZC  37 20.91  121 32.08 -0.07 A  0.18 1.0          0  0.21 1.0 1.00  0.18 1990030622 0.2  1  -0.13
  123 CBH  NC VHZ    VC  37 47.81  121 38.77  0.19 A  0.00 1.0          0  0.00 1.0 1.00  2.80          0 0.2  1   0.73
  124 CBK  NC VHZ    VC  37 52.56  122 14.88  0.00    0.00 1.0          0  0.00 1.0 1.00  1.40          0 0.2  1  -0.17
  125 CBR  NC VLN    NC  37 48.99  122  3.78  0.18 A  0.23 1.0          0  0.15 1.0 1.00  0.18          0 0.2  1   0.49
  126 CBR  NC VHZ    VC  37 48.99  122  3.78  0.18 A  0.09 1.0          0  0.07 1.0 1.00  2.80          0 0.2  1   0.49
  127 CBR  NC VDZ    UC  37 48.99  122  3.78  0.18 A  0.00 1.0          0  0.07 1.0 1.00  0.20          0 0.2  3   0.49
  128 CBR  NC ADN    JC  37 48.99  122  3.78  0.18 A  0.00 1.0          0  0.00 1.0 1.00  0.00          0 0.2  0   0.49
  129 CBR  NC ADE    KC  37 48.99  122  3.78  0.18 A  0.00 1.0          0  0.00 1.0 1.00  0.00          0 0.2  0   0.49
  130 CBS  NC VHZ    VC  37 49.07  121 38.48  0.15 A -0.35 1.0          0 -0.17 1.0 1.00  2.80          0 0.2  1   0.74
  131 CBW  NC VHZ    VC  37 55.45  122  6.46  0.00 A -0.17 1.0          0 -0.07 1.0 1.00  2.80 1979052919 0.2  1   0.54
  132 CBZ  NC VHZ    VC  37 41.47  121 43.03  0.22    0.00 1.0          0  0.00 1.0 1.00  1.40          0 0.2  1   0.00
  133 CBZ  NC VLE    EC  37 41.47  121 43.03  0.22    0.00 1.0          0  0.00 1.0 1.00  0.00          0 0.2  1   0.00
  134 CBZ  NC VLN    NC  37 41.47  121 43.03  0.22    0.00 1.0          0  0.00 1.0 1.00  0.00          0 0.2  1   0.00
  135 CCH1 NC DDI    PC  37 44.60  122  5.81 -0.45 A  0.00 1.0          0  0.00 1.0 1.00  0.00          0 0.2  1   0.03
  136 CCH1 NC VDN    WC  37 44.60  122  5.81 -0.45 A  0.00 1.0          0  0.00 1.0 1.00  1.33          0 0.2  4   0.03
  137 CCH1 NC VDE    XC  37 44.60  122  5.81 -0.45 A  0.00 1.0          0  0.00 1.0 1.00  1.33          0 0.2  4   0.03
  138 CCH1 NC ASZ    IC  37 44.60  122  5.81 -0.45 A  0.00 1.0          0  0.00 1.0 1.00  0.00          0 0.2  0   0.03
  139 CCH1 NC ASN    JC  37 44.60  122  5.81 -0.45 A  0.00 1.0          0  0.00 1.0 1.00  0.00          0 0.2  0   0.03
  140 CCH1 NC ASE    KC  37 44.60  122  5.81 -0.45 A  0.00 1.0          0  0.00 1.0 1.00  0.00          0 0.2  0   0.03
  141 CCH1 NC ADZ    IC  37 44.60  122  5.81 -0.45 A  0.00 1.0          0  0.00 1.0 1.00  0.00          0 0.2  0   0.03
  142 CCH1 NC ADN    JC  37 44.60  122  5.81 -0.45 A  0.00 1.0          0  0.00 1.0 1.00  0.00          0 0.2  0   0.03
  143 CCH1 NC ADE    KC  37 44.60  122  5.81 -0.45 A  0.00 1.0          0  0.00 1.0 1.00  0.00          0 0.2  0   0.03
  144 CCH1 NC HV1    PC  37 44.60  122  5.81 -0.45 A  0.00 1.0          0  0.00 1.0 1.00  0.00          0 0.2  1   0.03
  145 CCH1 NC EP2    WC  37 44.60  122  5.81 -0.45 A  0.00 1.0          0  0.00 1.0 1.00  1.33          0 0.2  4   0.03
  146 CCH1 NC EP3    XC  37 44.60  122  5.81 -0.45 A  0.00 1.0          0  0.00 1.0 1.00  1.33          0 0.2  4   0.03
  147 CCH1 NC HN1    IC  37 44.60  122  5.81 -0.45 A  0.00 1.0          0  0.00 1.0 1.00  0.00          0 0.2  0   0.03
  148 CCH1 NC HN2    JC  37 44.60  122  5.81 -0.45 A  0.00 1.0          0  0.00 1.0 1.00  0.00          0 0.2  0   0.03
  149 CCH1 NC HN3    KC  37 44.60  122  5.81 -0.45 A  0.00 1.0          0  0.00 1.0 1.00  0.00          0 0.2  0   0.03
  150 CCN  NC VHZ    VC  37 47.49  121 56.89  0.38 A  0.00 1.0          0  0.00 1.0 1.00  0.70          0 0.2  1   0.43
  151 CCO  NC VHZ    VC  37 15.49  121 40.47  0.06 A  0.05 1.0          0  0.08 1.0 1.00  0.18 1977042520 0.2  1   0.19
  152 CCO  NC VDZ    UC  37 15.49  121 40.47  0.06 A  0.00 1.0          0  0.08 1.0 1.00  0.20          0 0.2  3   0.19
  153 CCO  NC ADN    JC  37 15.49  121 40.47  0.06 A  0.00 1.0          0  0.00 1.0 1.00  0.00          0 0.2  0   0.19
  154 CCO  NC ADE    KC  37 15.49  121 40.47  0.06 A  0.00 1.0          0  0.00 1.0 1.00  0.00          0 0.2  0   0.19
  155 CCR  NC VHZ    VC  37 47.30  121 57.00  0.41    0.00 1.0          0  0.00 1.0 1.00  0.00          0 0.2  1   0.38
  156 CCY  NC VHZ    VC  37 33.09  122  5.46 -0.38 A  0.32 1.0          0  0.24 1.0 1.00  2.80 1987072317 0.2  1  -0.33
  157 CDA  NC VLE    EC  37 43.83  121 43.82 -0.03 A  0.00 1.0          0  0.00 1.0 1.00  0.70 1980111220 0.2  1   0.64
  158 CDA  NC VLN    NC  37 43.83  121 43.82 -0.03 A  0.00 1.0          0  0.00 1.0 1.00  0.00          0 0.2  1   0.64
  159 CDA  NC VHZ    VC  37 43.83  121 43.82 -0.03 A -0.17 1.0          0 -0.08 1.0 1.00  2.80          0 0.2  1   0.64
  160 CDB  NC VHZ    VC  37 52.90  121 54.85  0.00    0.00 1.0          0  0.00 1.0 1.00  0.00          0 0.2  1   0.23
  161 CDO  NC VHZ    VC  37 43.80  121 50.18  0.34 A -0.38 1.0          0 -0.31 1.0 1.00  2.80 1981100217 0.2  1   0.81
  162 CDOB NC EHZ    VC  37 43.76  121 50.01  0.00    0.00 1.0          0  0.00 1.0 1.00  4.64          0 0.2  1   0.00
  163 CDOB NC HNZ    IC  37 43.76  121 50.01  0.00    0.00 1.0          0  0.00 1.0 1.00  0.00          0 0.2  0   0.00
