   2 JAN 2000,  0:10  SEQUENCE NO.   23, ID NO.  21075181
                                                        ADJUSTMENTS (KM)
  I ORIGIN   LAT N     LON W     Z   NWR  RMS    DT    DLAT   DLON    DZ    RR NF MOD
  1 29.68  37  7.20  121 31.32  5.00   8 1.19  1.126  1.906  2.300  0.000 2.987 3 COY
 FREE DEPTH
  2 30.81  37  8.23  121 32.88  5.00   8 0.11  0.098  0.229  0.136 -0.766 0.811 4 COY
  3 30.90  37  8.35  121 32.97  4.23   8 0.07  0.004 -0.006 -0.007 -0.070 0.071 4 COY
 BEGIN DISTANCE WEIGHTING
 BEGIN RESIDUAL WEIGHTING
  4 30.91  37  8.35  121 32.96  4.16   8 0.07  0.001  0.036  0.003 -0.033 0.049 4 COY
  5 30.91  37  8.37  121 32.97  4.13   8 0.07  0.000 -0.023 -0.020  0.024 0.039 4 COY
  6 30.91  37  8.36  121 32.95  4.15   8 0.07  0.001 -0.005  0.025 -0.029 0.038 4 COY
 ERROR ELLIPSE: <SERR AZ DIP>-<   0.96 185 67>-<   0.45  40 18>-<   0.28 305 11>
 ------------------------------------------------------------------------------------
 YEAR MO DA  --ORIGIN--  --LAT N-  --LON W--  DEPTH   RMS   ERH   ERZ  XMAG  FMAG  PMAG
 2000-01-02  0010 30.91  37  8.36  121 32.95   4.15  0.07  0.43  0.89  1.47  0.94  0.94D
                                                                                          SOURCE
 NSTA NPHS  DMIN MODEL GAP ITR NFM NWR NWS NVR REMRKS-AVH  N.XMG-XMMAD-T   N.FMG-FMMAD-T  L F X
   14   14   3.9  COY  114   6   7   8   0   8 CYN          1.00  0.00 X    3.75  0.21 D  N N N

 XMAG2-N.XMG2-XMMAD-T-S  FMAG2-N.FMG2-FMMAD-T-S  PREF.MAG-N.PMAG-PRMAD-T
                                                     0.94   3.75  0.21 D
 REGION= Coyote North               MODELS USED:  COY=1.00

 STA NET COM L CR DIST AZM  AN P/S WT   SEC (TOBS -TCAL -DLY  =RES)  WT   SR  INFO  CAL DUR-W-FMAG-T -AMP-U-PER-W-XMAG-T
 HSP  NC VHZ   VH  3.9 133 131 IPU    31.68  0.77  1.10-0.28 -0.05  1.43  N  0.696 5.58   7   0.71 D                         
 CAD  NC VHZ   VC  7.2 292 111 EP  4  32.23  1.32  1.58-0.16 -0.10X       N        2.80   7 1 1.17 D                         
                                PU    32.38  1.47  1.58-0.16  0.05  1.43  W  0.753 2.80   5 6 0.85XD                         
 HGS  NC VHZ   VH 10.2 117 100  PU 5  32.63  1.72  2.08-0.43  0.07X       W        5.58   5 2 0.70 D                         
                               IPU    32.63  1.72  2.08-0.43  0.07  1.43  N  0.656                                           
 HLP  NC VHZ   VH 13.1 215  93  PD 1  33.35  2.44  2.58 0.00 -0.14  0.71  W  0.434 1.40   5 2 1.07 D                         
 HCA  NC VHZ   VH 13.9 155  92 EP  4  33.27  2.36  2.72-0.32 -0.04X       NM       5.58   8   0.97 D    36M .38   1.47 X     
 JLA  NC VHZ   VJ 16.5 276  86 IPU 1  33.86  2.95  3.16-0.09 -0.12  0.71  N  0.211                                           
 CAO  NC VHZ   VC 23.3   3  77 IPD    34.94  4.03  4.31-0.24 -0.04  1.43  N  0.893                                           
 JHL  NC VHZ   VJ 25.6 263  74 EP  3  35.43  4.52  4.70-0.26  0.08  0.14  N  0.016                                           
 JAL  NC VHZ   VJ 26.6 275  73 IPU 1  35.65  4.74  4.88-0.26  0.12  0.71  N  0.337                                           
    3 UNWEIGHTED STATIONS NOT PRINTED.
 ####################################################################################
   2 JAN 2000,  0:34  SEQUENCE NO.   24, ID NO.  21075185
                                                        ADJUSTMENTS (KM)
  I ORIGIN   LAT N     LON W     Z   NWR  RMS    DT    DLAT   DLON    DZ    RR NF MOD
  1 56.93  37 21.84  121 45.75  5.00   7 0.52  0.572  0.504 -4.304  0.000 4.333 3 MOR
 FREE DEPTH
  2 57.50  37 22.11  121 42.83  5.00   7 0.10 -0.197 -1.024  0.898  1.202 1.817 4 MOR
  3 57.31  37 21.56  121 43.44  6.20   7 0.03 -0.053 -0.236  0.232  0.103 0.346 4 MOR
 BEGIN DISTANCE WEIGHTING
 BEGIN RESIDUAL WEIGHTING
  4 57.25  37 21.43  121 43.60  6.31   7 0.02 -0.008 -0.032  0.007 -0.030 0.044 4 MOR
  5 57.24  37 21.41  121 43.60  6.27   7 0.02 -0.008 -0.070  0.037  0.043 0.090 4 MOR
  6 57.24  37 21.38  121 43.62  6.32   7 0.02  0.010  0.080 -0.026 -0.028 0.089 4 MOR
 ERROR ELLIPSE: <SERR AZ DIP>-<   2.51 222 53>-<   0.58  28 35>-<   0.26 122  6>
 ------------------------------------------------------------------------------------
 YEAR MO DA  --ORIGIN--  --LAT N-  --LON W--  DEPTH   RMS   ERH   ERZ  XMAG  FMAG  PMAG
 2000-01-02  0034 57.24  37 21.38  121 43.62   6.32  0.02  1.49  2.02                   
                                                                                          SOURCE
 NSTA NPHS  DMIN MODEL GAP ITR NFM NWR NWS NVR REMRKS-AVH  N.XMG-XMMAD-T   N.FMG-FMMAD-T  L F X
    8    9   2.7  MOR  185   6   5   7   1   7 ALU          0.00  0.00 X    0.00  0.00 D  N    
 REGION= Alum Rock                  MODELS USED:  MOR=1.00

 STA NET COM L CR DIST AZM  AN P/S WT   SEC (TOBS -TCAL -DLY  =RES)  WT   SR  INFO  CAL DUR-W-FMAG-T -AMP-U-PER-W-XMAG-T
 CMH  NC VHZ   VC  2.7 277 154 EPU 2  58.93  1.69  1.35 0.29  0.05  0.67  N  0.637                                           
 CAL  NC VHZ   VC 12.3 329 107 IPD 1  59.91  2.67  2.68 0.01 -0.02  1.67  N  0.855                                           
 CAL  NC VLN   NC 12.3 329 107 ES  3  62.05  4.81  4.77 0.02  0.02  0.33S N  0.219                                           
 CAO  NC VHZ   VC 17.1  92  98 IPU 1  60.64  3.40  3.50-0.09 -0.01  1.67  N  0.849                                           
 CMM  NC VHZ   VC 23.4  61  90 EP  3  61.77  4.53  4.62-0.02 -0.07  0.33  N  0.050                                           
 CDV  NC VHZ   VC 23.7  10  89 IPD 1  61.94  4.70  4.67 0.03  0.00  1.67  N  0.834                                           
 CMP  NC VHZ   VC 36.2  89  79 EPU 2  63.96  6.72  6.85-0.19  0.06  0.67  N  0.552                                           
    2 UNWEIGHTED STATIONS NOT PRINTED.
 ####################################################################################
   2 JAN 2000,  1:08  SEQUENCE NO.   25, ID NO.  21075191
                                                        ADJUSTMENTS (KM)
  I ORIGIN   LAT N     LON W     Z   NWR  RMS    DT    DLAT   DLON    DZ    RR NF MOD
  1 40.29  40 25.35  124  7.54  5.00  22 3.87 -1.947  3.182-11.580  0.00012.009 3 MEN
  2 38.34  40 27.07  123 59.33  5.00  22 1.49 -0.549  0.180 -1.870  0.000 1.879 3 MEN
 FREE DEPTH
  3 37.79  40 27.16  123 58.00  5.00  22 1.29  1.208 -3.453  1.478 26.27926.546 4 MEN
 BEGIN DISTANCE WEIGHTING
 BEGIN RESIDUAL WEIGHTING
 RMS INCREASE - MOVE HYPO 0.60 BACK
  4 39.00  40 25.30  123 59.05 31.28  14 1.72 -0.725  2.072 -0.887-15.76815.928 4 MEN
  5 38.28  40 26.42  123 58.42 15.51  14 0.85 -0.694 -2.740  1.948 11.48211.964 4 MEN
  6 37.58  40 24.94  123 59.80 26.99  14 0.19 -0.207 -1.437  1.580  1.907 2.864 4 MEN
  7 37.38  40 24.16  124  0.92 28.90  14 0.06 -0.050 -0.244  0.283  0.337 0.503 4 MEN
  8 37.33  40 24.03  124  1.12 29.24  13 0.05 -0.004 -0.016  0.023  0.023 0.036 4 MEN
  9 37.32  40 24.02  124  1.14 29.26  13 0.05  0.000 -0.013  0.014  0.020 0.027 4 MEN
 ERROR ELLIPSE: <SERR AZ DIP>-<   0.75 252 70>-<   0.35 126 11>-<   0.27  32 15>
 ------------------------------------------------------------------------------------
 YEAR MO DA  --ORIGIN--  --LAT N-  --LON W--  DEPTH   RMS   ERH   ERZ  XMAG  FMAG  PMAG
 2000-01-02  0108 37.32  40 24.02  124  1.14  29.26  0.05  0.35  0.70  1.62  1.86  1.86D
                                                                                          SOURCE
 NSTA NPHS  DMIN MODEL GAP ITR NFM NWR NWS NVR REMRKS-AVH  N.XMG-XMMAD-T   N.FMG-FMMAD-T  L F X
   26   28   8.8  MEN   80   9  15  13   1  22 MEN         11.00  0.22 X    5.00  0.17 D  N N N

 XMAG2-N.XMG2-XMMAD-T-S  FMAG2-N.FMG2-FMMAD-T-S  PREF.MAG-N.PMAG-PRMAD-T
                                                     1.86   5.00  0.17 D
 REGION= Mendocino Escarpment       MODELS USED:  MEN=1.00

 STA NET COM L CR DIST AZM  AN P/S WT   SEC (TOBS -TCAL -DLY  =RES)  WT   SR  INFO  CAL DUR-W-FMAG-T -AMP-U-PER-W-XMAG-T
 KMP  NC VHZ   VK  8.8 283 158 IPU    42.29  4.97  5.14-0.13 -0.04  1.95  NM 0.578 2.80   9 1 1.66 D    32M .19 5 1.76XX     
 KMP  NC VLE   EK  8.8 283 158 EP  4  42.29  4.97  5.14-0.13 -0.04X       NM       0.18              4.250M .14   1.29 X     
                               ES  3  46.29  8.97  9.15-0.23  0.05  0.19S N  0.029                                           
 KCR  NC VHZ   VK 17.1  80 140 IPU    43.09  5.77  5.67 0.06  0.04  1.95  NM 0.679 5.58  10 1 1.70 D    67M .10   1.73 X     
 KBB  NC VHZ   VK 26.7 147 124 EPD 2  44.05  6.73  6.57 0.17 -0.01  0.39  NM 0.021 5.58  15   1.90 D    52M .25   1.84 X     
 KSM  NC VHZ   VK 27.2 210 123 IPD    43.80  6.48  6.62-0.20  0.06  1.95  NM 0.705 5.58  13   1.81 D   138M .14   2.18 X     
 KCT  NC VHZ   VK 28.3 288 122 IPU 1  44.12  6.80  6.74 0.15 -0.09  0.97  NM 0.236 2.80   7 4 1.47XD    32M .22   1.82 X     
 KBR  NC VHZ   VK 36.9   8 112 EPD 2  44.64  7.32  7.71-0.26 -0.13  0.39  NM 0.018 5.58  12 1 2.09 D    13M .36   1.62 X     
 KCS  NC VHZ   VK 45.5  70 105 IPU 1  46.36  9.04  8.74 0.28  0.02  0.97  NM 0.102 5.58                 16M .21   1.29 X     
 KKP  NC VHZ   VK 54.6 120 101 IPU    47.68 10.36  9.86 0.55 -0.05  1.94  NM 0.709 5.58                 16M .27   1.74 X     
 KPP  NC VHZ   VK 56.0  95 100 EP  3  47.76 10.44 10.04 0.41 -0.01  0.19  N  0.005                                           
 KHM  NC VHZ   VK 58.0  24 100 IPD    47.61 10.29 10.28-0.03  0.04  1.90  NM 0.451 2.80                 11M .13   1.35 X     
 KHMB NC BHZ   4K 58.1  24 100 IPD    47.59 10.27 10.30-0.03  0.00  1.89  A  0.450                                           
 KBS  NC VHZ   VK 64.7 145  98 EPU 2  48.79 11.47 11.12 0.06  0.29  0.00  NM 0.000 5.58                 19M .11   1.45 X     
 KHB  NC VHZ   VK 73.6  66  97 EPU 2  49.56 12.24 12.24 0.00  0.00  0.25  NM 0.007 2.80              6.888M .11   1.29 X     
 KIP  NC VHZ   VK 80.1 144  95 EP  3  50.81 13.49 13.06 0.11  0.32  0.00  N  0.000                                           
 KRP  NC VHZ   VK 84.2   0  95 EP  3  50.46 13.14 13.58-0.34 -0.10  0.07  N  0.000                                           
 KOM  NC VHZ   VK108.6  25  93 IPD 1  53.80 16.48 16.65-0.13 -0.04  0.00  N  0.000                                           
 LGP  NC VHZ   VL115.6  60  93 EPD 2  55.45 18.13 17.53-0.01  0.61* 0.00  N  0.00011.65  21 1 2.40 D                         
 KRM  NC VHZ   VK124.9   4  93 EPD 2  55.62 18.30 18.71-0.35 -0.06  0.00  N  0.000                                           
 LSF  NC VHZ   VL129.9  76  93 EP  3  57.18 19.86 19.34 0.17  0.35  0.00  N  0.000                                           
 LBK  NC VHZ   VL137.1  55  93 EP  3  57.47 20.15 20.25 0.10 -0.20  0.00  N  0.000                                           
 KPK  WR VHZ   VO248.9 110  93 EP  3  72.26 34.94 34.38 0.11  0.45  0.00  N  0.000 5.58  32 4 2.93XD                         
    5 UNWEIGHTED STATIONS NOT PRINTED.
 ####################################################################################
   2 JAN 2000,  2:01  SEQUENCE NO.   26, ID NO.  21075195
                                                        ADJUSTMENTS (KM)
  I ORIGIN   LAT N     LON W     Z   NWR  RMS    DT    DLAT   DLON    DZ    RR NF MOD
  1 30.99  36  3.96  120  6.88  5.00   7 0.98  0.038  4.488 14.840  0.00015.504 3 COA
 RMS INCREASE - MOVE HYPO 0.60 BACK
  2 31.03  36  6.38  120 16.79  5.00   7 1.89 -0.023 -2.693 -8.904  0.000 9.302 3 COA
  3 31.01  36  4.93  120 10.85  5.00   7 0.65 -0.827  0.363  3.376  0.000 3.395 3 COA
 FREE DEPTH
 BEGIN DISTANCE WEIGHTING
 BEGIN RESIDUAL WEIGHTING
  4 30.18  36  5.13  120 13.10  5.00   4 0.05 -0.049  0.011  0.063  0.025 0.069 3 COA
  5 30.13  36  5.13  120 13.14  5.03   4 0.03  0.148 -0.934 -1.321  4.051 4.362 4 COA
 RMS INCREASE - MOVE HYPO 0.60 BACK
  6 30.28  36  4.63  120 12.26  9.08   7 0.18 -0.089  0.561  0.793 -2.431 2.617 4 COA
 RMS INCREASE - MOVE HYPO 0.60 BACK
  7 30.19  36  4.93  120 12.79  6.65   5 0.05 -0.036  0.224  0.317 -0.972 1.047 4 COA
  8 30.15  36  5.05  120 13.00  5.67   5 0.04  0.093 -0.893 -1.274  3.432 3.768 4 COA
 RMS INCREASE - MOVE HYPO 0.60 BACK
  9 30.25  36  4.57  120 12.15  9.11   7 0.13 -0.056  0.536  0.764 -2.059 2.261 4 COA
 10 30.19  36  4.86  120 12.66  7.05   5 0.05  0.011 -0.722 -1.015  2.108 2.448 4 COA
 RMS INCREASE - MOVE HYPO 0.60 BACK
 11 30.20  36  4.47  120 11.98  9.15   7 0.06 -0.007  0.433  0.609 -1.265 1.469 4 COA
 12 30.20  36  4.70  120 12.39  7.89   7 0.05 -0.018 -0.392 -0.539  0.936 1.149 4 COA
 13 30.18  36  4.49  120 12.03  8.83   7 0.01 -0.004 -0.026 -0.052  0.081 0.100 4 COA
 14 30.17  36  4.48  120 12.00  8.91   7 0.01 -0.002 -0.016 -0.038  0.056 0.070 4 COA
 15 30.17  36  4.47  120 11.97  8.96   7 0.01  0.000 -0.021 -0.009  0.011 0.026 4 COA
 16 30.17  36  4.46  120 11.96  8.97   7 0.01  0.000 -0.002 -0.021  0.021 0.030 4 COA
 ERROR ELLIPSE: <SERR AZ DIP>-<   1.50 118 51>-<   0.41 339 30>-<   0.25 236 20>
 ------------------------------------------------------------------------------------
 YEAR MO DA  --ORIGIN--  --LAT N-  --LON W--  DEPTH   RMS   ERH   ERZ  XMAG  FMAG  PMAG
 2000-01-02  0201 30.17  36  4.46  120 11.96   8.97  0.01  0.94  1.18  1.03  1.22  1.22D
                                                                                          SOURCE
 NSTA NPHS  DMIN MODEL GAP ITR NFM NWR NWS NVR REMRKS-AVH  N.XMG-XMMAD-T   N.FMG-FMMAD-T  L F X
    9    9   8.2  COA  152  16   3   7   0   7 COA          3.00  0.07 X    2.25  0.15 D  N N N

 XMAG2-N.XMG2-XMMAD-T-S  FMAG2-N.FMG2-FMMAD-T-S  PREF.MAG-N.PMAG-PRMAD-T
                                                     1.22   2.25  0.15 D
 REGION= Coalinga                   MODELS USED:  COA=1.00

 STA NET COM L CR DIST AZM  AN P/S WT   SEC (TOBS -TCAL -DLY  =RES)  WT   SR  INFO  CAL DUR-W-FMAG-T -AMP-U-PER-W-XMAG-T
 PKE  NC VHZ   VP  8.2 100 127 IPU 1  32.99  2.82  2.83-0.01  0.00  2.86  N  0.997 1.40   7 1 1.07 D                         
 PCA  NC VHZ   VP 20.2 219  92 EPD 2  34.87  4.70  4.91-0.23  0.02  1.14  NM 0.840 1.40              7.034M .18   1.03 X     
 PHB  NC VHZ   VP 21.9  28  87 EPD 2  35.97  5.80  5.24 0.56  0.00  1.14  N  0.975 1.40  10 1 1.22 D                         
 PSR  NC VHZ   VP 25.3 197  84 EP  3  35.81  5.64  5.85-0.20 -0.01  0.57  NM 0.230 1.40              6.399M .11   0.96 X     
 PHF  NC VHZ   VP 28.1 221  80 EP  3  36.38  6.21  6.36-0.10 -0.05  0.57  N  0.167                                           
 PAG  NC VHZ   VP 38.2 187  68 EP  3  37.81  7.64  8.15-0.53  0.02  0.57  NM 0.740 1.40  12 1 2.02 D    19M .26   1.82 X     
 MHD  NC VHZ   VM118.9  13  42 EP  3  49.18 19.01 20.39-1.35 -0.03  0.13  N  0.048                                           
    2 UNWEIGHTED STATIONS NOT PRINTED.
 ####################################################################################
   2 JAN 2000,  2:05  SEQUENCE NO.   27, ID NO.  51093462
                                                        ADJUSTMENTS (KM)
  I ORIGIN   LAT N     LON W     Z   NWR  RMS    DT    DLAT   DLON    DZ    RR NF MOD
  1 13.72  38 48.77  122 47.98  5.00   7 1.29  1.123  2.936  1.446  0.000 3.273 3 GEY
 FREE DEPTH
  2 14.84  38 50.35  122 48.98  5.00   7 0.16  0.432 -0.346 -0.166 -4.179 4.196 4 GEY
 RMS INCREASE - MOVE HYPO 0.60 BACK
  3 15.27  38 50.17  122 48.87  0.82   7 0.25 -0.259  0.207  0.100  2.507 2.518 4 GEY
 BEGIN DISTANCE WEIGHTING
 BEGIN RESIDUAL WEIGHTING
  4 15.02  38 50.28  122 48.94  3.33   6 0.10  0.119 -0.130  0.083 -2.350 2.355 4 GEY
  5 15.13  38 50.21  122 48.99  0.98   7 0.11 -0.090 -0.008 -0.053  0.073 0.091 4 GEY
  6 15.04  38 50.21  122 48.96  1.05   7 0.02 -0.014 -0.003 -0.009 -0.036 0.038 4 GEY
  7 15.03  38 50.20  122 48.95  1.02   7 0.02 -0.001  0.027  0.005  0.044 0.051 4 GEY
 ERROR ELLIPSE: <SERR AZ DIP>-<   0.85 221 88>-<   0.37  55  1>-<   0.19 326  0>
 ------------------------------------------------------------------------------------
 YEAR MO DA  --ORIGIN--  --LAT N-  --LON W--  DEPTH   RMS   ERH   ERZ  XMAG  FMAG  PMAG
 2000-01-02  0205 15.03  38 50.20  122 48.95   1.02  0.02  0.37  0.85        0.96  0.96D
                                                                                          SOURCE
 NSTA NPHS  DMIN MODEL GAP ITR NFM NWR NWS NVR REMRKS-AVH  N.XMG-XMMAD-T   N.FMG-FMMAD-T  L F X
    7    7   3.7  GEY  117   7   7   7   0   7 GEY     1    0.00  0.00 X    5.00  0.10 D  W W  

 XMAG2-N.XMG2-XMMAD-T-S  FMAG2-N.FMG2-FMMAD-T-S  PREF.MAG-N.PMAG-PRMAD-T
                                                     0.96   5.00  0.10 D
 REGION= Geysers                    MODELS USED:  GEY=1.00

 STA NET COM L CR DIST AZM  AN P/S WT   SEC (TOBS -TCAL -DLY  =RES)  WT   SR  INFO  CAL DUR-W-FMAG-T -AMP-U-PER-W-XMAG-T
 GDX  NC VHZ   VG  3.7 150  96  PU    15.72  0.69  0.87-0.19  0.01  1.59  W  0.985 5.58   7   1.29 D                         
 GAC  NC VHZ   VG  5.7 315  82  PU    16.24  1.21  1.32-0.10 -0.01  1.59  W  0.976 5.58   5 2 0.85 D                         
 GGP  NC VHZ   VG  8.4 198  72  PD    16.79  1.76  1.89-0.13  0.00  1.59  W  0.973 2.80   5 2 0.96 D                         
 GSG  NC VHZ   VG  9.9  70  68  PU 2  17.34  2.31  2.19 0.23 -0.11  0.32  W  0.101 5.58   9   0.95 D                         
 GCR  NC VHZ   VG 11.1 128  64  PD 1  17.20  2.17  2.44-0.27  0.00  0.80  W  0.335 5.58   5 2 0.92 D                         
 GBG  NC VHZ   VG 11.8 102  62  PU 1  17.65  2.62  2.59 0.04 -0.01  0.80  W  0.517 2.80   5 2 0.85 D                         
 GMK  NC VHZ   VG 14.9   9  56  PD 2  18.61  3.58  3.17 0.28  0.13  0.32  W  0.109 5.58   9   1.06 D                         
 ####################################################################################
