   1 JAN 2000,  0:01  SEQUENCE NO.    1, ID NO.  21075020
                                                        ADJUSTMENTS (KM)
  I ORIGIN   LAT N     LON W     Z   NWR  RMS    DT    DLAT   DLON    DZ    RR NF MOD
  1 56.91  36 39.96  121  6.11  5.00   7 0.45  0.349 -6.488  1.883  0.000 6.756 3 GAB
 FREE DEPTH
 RMS INCREASE - MOVE HYPO 0.60 BACK
  2 57.26  36 36.46  121  7.38  5.00   7 0.52 -0.209  3.893 -1.130  0.000 4.054 3 GAB
  3 57.05  36 38.56  121  6.62  5.00   7 0.32 -0.385 -0.894  0.104  3.427 3.543 4 GAB
 BEGIN DISTANCE WEIGHTING
 BEGIN RESIDUAL WEIGHTING
  4 56.66  36 38.08  121  6.69  8.43   7 0.15 -0.067 -1.001  0.133 -0.135 1.019 4 GAB
  5 56.60  36 37.54  121  6.78  8.29   6 0.10  0.295 -1.319  0.792 -2.988 3.361 4 GAB
 RMS INCREASE - MOVE HYPO 0.60 BACK
  6 56.89  36 36.83  121  7.31  5.30   6 0.13 -0.177  0.791 -0.475  1.793 2.017 4 GAB
  7 56.72  36 37.25  121  6.99  7.10   6 0.09  0.138 -0.725  0.387 -1.903 2.073 4 GAB
  8 56.85  36 36.86  121  7.25  5.19   6 0.10 -0.075  0.285 -0.155  0.920 0.976 4 GAB
  9 56.78  36 37.01  121  7.14  6.11   6 0.09  0.062 -0.250  0.162 -1.044 1.086 4 GAB
 10 56.84  36 36.88  121  7.25  5.07   6 0.09 -0.057  0.270 -0.138  0.959 1.006 4 GAB
 ERROR ELLIPSE: <SERR AZ DIP>-<   4.82  29 74>-<   0.62 215 15>-<   0.37 125  1>
 ------------------------------------------------------------------------------------
 YEAR MO DA  --ORIGIN--  --LAT N-  --LON W--  DEPTH   RMS   ERH   ERZ  XMAG  FMAG  PMAG
 2000-01-01  0001 56.84  36 36.88  121  7.25   5.07  0.09  1.33  4.63                   
                                                                                          SOURCE
 NSTA NPHS  DMIN MODEL GAP ITR NFM NWR NWS NVR REMRKS-AVH  N.XMG-XMMAD-T   N.FMG-FMMAD-T  L F X
    7    7   5.6  GAB* 134  10   5   6   0   7 BVL          0.00  0.00 X    0.00  0.00 D  N    
 REGION= Bear Valley                MODELS USED:  GAB=1.00

 STA NET COM L CR DIST AZM  AN P/S WT   SEC (TOBS -TCAL -DLY  =RES)  WT   SR  INFO  CAL DUR-W-FMAG-T -AMP-U-PER-W-XMAG-T
 BEM  NC*VHZ   VB  5.6  22 121 IPU 1  58.91  2.07  1.66 0.35  0.06  1.43  N  0.759                                           
 BEH  NC*VHZ   VB  7.4 319 111 IPD 1  59.16  2.32  1.95 0.48 -0.11  1.43  N  0.656                                           
 BBG  NC*VHZ   VB  8.4 119 105 IPU 1  59.51  2.67  2.11 0.60 -0.04  1.43  N  0.957                                           
 BAV  NC*VHZ   VB  8.8  66 104 EPD 2  59.20  2.36  2.19 0.29 -0.12  0.57  N  0.986                                           
 BJO  NC VHZ   VB 17.3 269  94 EPU 2  60.23  3.39  3.33-0.10  0.16  0.57  N  0.290                                           
 BJC  NC VHZ 01VB 25.4 253  90 EP  2  61.35  4.51  4.66-0.28  0.13  0.57  N  0.349                                           
 BRM  NC*VHZ   VB 36.8  45  74 EP  3  64.00  7.16  7.06 1.01 -0.91* 0.00  N  0.000                                           
 ####################################################################################
   1 JAN 2000,  0:03  SEQUENCE NO.    2, ID NO.  21075021
                                                        ADJUSTMENTS (KM)
  I ORIGIN   LAT N     LON W     Z   NWR  RMS    DT    DLAT   DLON    DZ    RR NF MOD
  1 53.01  37 27.32  121 48.32  5.00  21 1.03  0.749 -3.579 -2.842  0.000 4.570 3 LEW
 FREE DEPTH
  2 53.76  37 25.39  121 46.39  5.00  21 0.14 -0.093 -0.585 -0.492  0.800 1.106 4 LEW
  3 53.67  37 25.07  121 46.05  5.80  21 0.04 -0.017 -0.094 -0.066  0.054 0.127 4 LEW
 BEGIN DISTANCE WEIGHTING
 BEGIN RESIDUAL WEIGHTING
  4 53.65  37 25.02  121 46.01  5.85  21 0.03  0.000 -0.005 -0.007  0.000 0.008 4 LEW
  5 53.65  37 25.02  121 46.00  5.85  21 0.03  0.000 -0.004 -0.006 -0.002 0.007 4 LEW
 ERROR ELLIPSE: <SERR AZ DIP>-<   0.37 294 72>-<   0.20  76 13>-<   0.16 168 10>
 ------------------------------------------------------------------------------------
 YEAR MO DA  --ORIGIN--  --LAT N-  --LON W--  DEPTH   RMS   ERH   ERZ  XMAG  FMAG  PMAG
 2000-01-01  0003 53.65  37 25.02  121 46.00   5.85  0.03  0.19  0.36        1.14  1.14D
                                                                                          SOURCE
 NSTA NPHS  DMIN MODEL GAP ITR NFM NWR NWS NVR REMRKS-AVH  N.XMG-XMMAD-T   N.FMG-FMMAD-T  L F X
   21   22   4.7  LEW   78   5  18  21   1  21 ALU          0.00  0.00 X    5.75  0.14 D  N N  

 XMAG2-N.XMG2-XMMAD-T-S  FMAG2-N.FMG2-FMMAD-T-S  PREF.MAG-N.PMAG-PRMAD-T
                                                     1.14   5.75  0.14 D
 REGION= Alum Rock                  MODELS USED:  LEW=1.00

 STA NET COM L CR DIST AZM  AN P/S WT   SEC (TOBS -TCAL -DLY  =RES)  WT   SR  INFO  CAL DUR-W-FMAG-T -AMP-U-PER-W-XMAG-T
 CAL  NC VHZ   VC  4.7 322 135 IPU    55.01  1.36  1.51-0.15  0.00  2.59  N  0.721 5.58   7   1.00 D                         
 CAL  NC VLE   EC  4.7 322 135 ES  2  56.26  2.61  2.69-0.27  0.19  0.52S N  0.095                                           
 CMH  NC VHZ   VC  6.5 172 124 IPU 1  55.33  1.68  1.74-0.01 -0.05  1.30  N  0.374 2.80   7 1 1.14 D                         
 CML  NC VHZ   VC 12.1  56 103 IPD 1  56.37  2.72  2.63 0.12 -0.03  1.30  N  0.218 2.80  57   3.44 D                         
 CMJ  NC VHZ   VC 14.8 321  97 IPU    56.71  3.06  3.09-0.03  0.00  2.59  N  0.617 5.58   8 1 1.09 D                         
 CMW1 NC ADZ   IC 17.4 323  91 EPU 2  57.04  3.39  3.52-0.09 -0.04  0.52  A  0.028                                           
 CDV  NC VHZ   VC 18.3  24  90 IPD    57.42  3.77  3.68 0.09  0.00  2.59  N  0.594 5.58   8 1 1.36 D                         
 CAO  NC VHZ   VC 21.9 110  85 EPU 2  57.80  4.15  4.30-0.13 -0.02  0.52  N  0.043 5.58   9 1 1.28 D                         
 JST  NC VHZ   VJ 23.6 187  83 EPD 2  58.21  4.56  4.60 0.03 -0.07  0.52  N  0.043 5.58   9 1 1.12 D                         
 CMM  NC VHZ   VC 24.5  79  82 EPU 2  58.41  4.76  4.75 0.06 -0.05  0.52  N  0.040                                           
 CNI  NC VHZ   VC 27.5 321  80 EPU 2  58.88  5.23  5.25 0.01 -0.03  0.52  N  0.044                                           
 JLA  NC VHZ   VJ 29.3 174  81 EPU 2  59.45  5.80  5.56 0.08  0.16  0.52  N  0.043                                           
 JAL  NC VHZ   VJ 29.7 195  81 IPD 1  59.22  5.57  5.62-0.04 -0.01  1.30  N  0.287                                           
 CAD  NC VHZ 01VC 30.9 155  81 EP  2  59.76  6.11  5.83 0.26  0.02  0.52  N  0.042                                           
 JSS  NC VHZ   VJ 31.1 209  81 IPD 1  59.45  5.80  5.87-0.08  0.01  1.30  N  0.305                                           
 CCY  NC VHZ   VC 32.3 298  81 EPU 2  59.29  5.64  6.07-0.33 -0.10  0.52  N  0.051                                           
 JHL  NC VHZ   VJ 34.7 190  81 EPD 2  60.04  6.39  6.47-0.06 -0.02  0.52  N  0.044                                           
 COS  NC VHZ   VC 36.1  73  81 EP  2  60.56  6.91  6.71 0.19  0.01  0.52  N  0.039                                           
 JBC  NC VHZ   VJ 36.4 220  81 EPD 2  60.50  6.85  6.77 0.07  0.01  0.52  N  0.051                                           
 HSP  NC VHZ   VH 40.2 146  80 EPD 2  61.20  7.55  7.41-0.03  0.17  0.52  N  0.042                                           
 CMP  NC VHZ   VC 40.3  99  80 IPU 1  60.98  7.33  7.42-0.11  0.02  1.30  N  0.269                                           
    1 UNWEIGHTED STATIONS NOT PRINTED.
 ####################################################################################
   1 JAN 2000,  0:09  SEQUENCE NO.    3, ID NO.  21075023
                                                        ADJUSTMENTS (KM)
  I ORIGIN   LAT N     LON W     Z   NWR  RMS    DT    DLAT   DLON    DZ    RR NF MOD
  1 19.95  37 38.25  119  5.08  5.00  10 0.87  1.088 -0.298 -3.440  0.000 3.453 3 MAM
 FREE DEPTH
  2 21.04  37 38.09  119  2.74  5.00  10 0.12  0.190  0.523  0.380 -2.057 2.156 4 MAM
  3 21.23  37 38.37  119  2.99  2.94  10 0.09 -0.099 -0.393  0.215  0.798 0.915 4 MAM
 BEGIN DISTANCE WEIGHTING
 BEGIN RESIDUAL WEIGHTING
  4 21.13  37 38.16  119  3.14  3.74  10 0.07  0.049  0.300 -0.266 -0.860 0.949 4 MAM
  5 21.18  37 38.32  119  2.96  2.88   9 0.04 -0.002  0.137 -0.211 -0.717 0.760 4 MAM
  6 21.18  37 38.39  119  2.82  2.16   9 0.04  0.011 -0.299  0.280  0.830 0.925 4 MAM
 RMS INCREASE - MOVE HYPO 0.60 BACK
  7 21.19  37 38.23  119  3.01  2.99  10 0.06 -0.007  0.179 -0.168 -0.498 0.555 4 MAM
  8 21.18  37 38.33  119  2.89  2.50   9 0.04 -0.023 -0.040  0.036  0.141 0.151 4 MAM
  9 21.16  37 38.31  119  2.92  2.64   9 0.03 -0.002  0.069 -0.039 -0.237 0.250 4 MAM
 10 21.16  37 38.35  119  2.89  2.40   9 0.03  0.003 -0.097  0.080  0.313 0.337 4 MAM
 ERROR ELLIPSE: <SERR AZ DIP>-<   2.06 223 65>-<   0.34  80 19>-<   0.13 346 13>
 ------------------------------------------------------------------------------------
 YEAR MO DA  --ORIGIN--  --LAT N-  --LON W--  DEPTH   RMS   ERH   ERZ  XMAG  FMAG  PMAG
 2000-01-01  0009 21.16  37 38.35  119  2.89   2.40  0.03  0.84  1.88        1.03  1.03D
                                                                                          SOURCE
 NSTA NPHS  DMIN MODEL GAP ITR NFM NWR NWS NVR REMRKS-AVH  N.XMG-XMMAD-T   N.FMG-FMMAD-T  L F X
   10   12   2.9  MAM  108  10   5   9   2  10 MAM          0.00  0.00 X    1.75  0.13 D  N N  

 XMAG2-N.XMG2-XMMAD-T-S  FMAG2-N.FMG2-FMMAD-T-S  PREF.MAG-N.PMAG-PRMAD-T
                                                     1.03   1.75  0.13 D
 REGION= Mammoth Mtn. (LVC)         MODELS USED:  MAM=1.00

 STA NET COM L CR DIST AZM  AN P/S WT   SEC (TOBS -TCAL -DLY  =RES)  WT   SR  INFO  CAL DUR-W-FMAG-T -AMP-U-PER-W-XMAG-T
 MMS  NC VHZ   VM  1.7 123 137 EPU 2  22.29  1.13  0.75 0.03  0.35  0.00  N  0.000 1.40   6 1 1.18 D                         
 MDP  NC VHZ   VM  2.9 256 115 EP  2  21.95  0.79  0.95-0.20  0.04  0.58  N  0.261                                           
 MDP  NC VLN   NM  2.9 256 115 ES  2  22.45  1.29  1.69-0.36 -0.05  0.58S N  0.606                                           
 MMP  NC VHZ   VM  3.7 152 100 IPU 1  22.11  0.95  1.10-0.20  0.05  1.45  N  0.348 2.80   6   0.92 D                         
                               ES  1  22.72  1.56  1.96-0.36 -0.04  1.45S N  0.643                                           
 MRD  NC VHZ   VM  4.6 191  77 EP  2  22.30  1.14  1.29-0.10 -0.05  0.58  N  0.876                                           
 MLK  NC VHZ   VM  6.9  66  65 EPD 2  22.93  1.77  1.72 0.12 -0.07  0.58  N  0.117                                           
 MDC  NC VHZ   VM  7.9   4  65 IPU    22.86  1.70  1.89-0.18 -0.01  2.90  N  0.945                                           
 MSL  NC VHZ   VM  8.5 107  65 EPU 2  23.08  1.92  2.00-0.12  0.04  0.58  N  0.175                                           
 MEM  NC VHZ   VM 10.0  72  65 EP  3  23.47  2.31  2.28 0.04 -0.01  0.29  N  0.024                                           
    2 UNWEIGHTED STATIONS NOT PRINTED.
 ####################################################################################
   1 JAN 2000,  2:30  SEQUENCE NO.    4, ID NO.  51093448
                                                        ADJUSTMENTS (KM)
  I ORIGIN   LAT N     LON W     Z   NWR  RMS    DT    DLAT   DLON    DZ    RR NF MOD
  1 43.15  37 35.70  118 50.05  5.00  14 1.23  0.910 -2.520 -0.645  0.000 2.601 3 MAM
 FREE DEPTH
  2 44.06  37 34.34  118 49.61  5.00  14 0.09  0.022 -0.607 -0.071 -0.304 0.682 4 MAM
  3 44.08  37 34.01  118 49.56  4.70  14 0.02  0.000 -0.089  0.005 -0.132 0.159 4 MAM
 BEGIN DISTANCE WEIGHTING
 BEGIN RESIDUAL WEIGHTING
  4 44.08  37 33.96  118 49.57  4.56  14 0.02  0.002  0.009 -0.017 -0.021 0.028 4 MAM
  5 44.08  37 33.97  118 49.56  4.54  14 0.02  0.000  0.009 -0.016 -0.024 0.030 4 MAM
 ERROR ELLIPSE: <SERR AZ DIP>-<   0.60 185 86>-<   0.54  10  3>-<   0.24 281  0>
 ------------------------------------------------------------------------------------
 YEAR MO DA  --ORIGIN--  --LAT N-  --LON W--  DEPTH   RMS   ERH   ERZ  XMAG  FMAG  PMAG
 2000-01-01  0230 44.08  37 33.97  118 49.56   4.54  0.02  0.54  0.60        1.51  1.51D
                                                                                          SOURCE
 NSTA NPHS  DMIN MODEL GAP ITR NFM NWR NWS NVR REMRKS-AVH  N.XMG-XMMAD-T   N.FMG-FMMAD-T  L F X
   14   14   2.7  MAM  163   5  14  14   0  14 MOR     1    0.00  0.00 X   12.50  0.38 D  W W  

 XMAG2-N.XMG2-XMMAD-T-S  FMAG2-N.FMG2-FMMAD-T-S  PREF.MAG-N.PMAG-PRMAD-T
                                                     1.51  12.50  0.38 D
 REGION= Mt. Morrison (RSM)         MODELS USED:  MAM=1.00

 STA NET COM L CR DIST AZM  AN P/S WT   SEC (TOBS -TCAL -DLY  =RES)  WT   SR  INFO  CAL DUR-W-FMAG-T -AMP-U-PER-W-XMAG-T
 MCV  NC VHZ   VM  2.7 354 143  PD    45.15  1.07  1.15-0.07 -0.01  1.43  W  0.779 2.80   7   1.03 D                         
 HTC  NN VHZ   VU  6.3 129 114  PU 1  45.71  1.63  1.66-0.02 -0.01  0.71  W  0.576 5.58  15   1.49 D                         
 MCM  NC VHZ   VM  6.4 319 113  PD    45.63  1.55  1.67-0.14  0.02  1.43  W  0.189 2.80  15   1.54 D                         
 MDR  NC VHZ   VM  8.0 354 106  PD    46.12  2.04  1.94 0.09  0.01  1.43  W  0.372 2.80  11   1.50 D                         
 MLC  NC VHZ   VM  9.4 303 102  PD    46.15  2.07  2.17-0.13  0.03  1.43  W  0.246 1.40   9   1.53 D                         
 MGP  NC VHZ   VM  9.5 315 101  PD    46.25  2.17  2.19 0.00 -0.02  1.43  W  0.169 2.80  11   0.93 D                         
 MCS  NC VHZ   VM 12.1 325  90  PD    46.77  2.69  2.64 0.04  0.01  1.43  W  0.228 2.80   9 1 1.08 D                         
 MLH  NC VHZ   VM 12.5   4  90  PU 2  46.94  2.86  2.71 0.35 -0.20  0.28  W  0.021 1.40  13   1.99 D                         
 RCC  NN VHZ   VU 12.7 133  90  PD 2  46.69  2.61  2.74-0.12 -0.01  0.29  W  0.109 5.58   5 2 0.47 D                         
 MSL  NC VHZ   VM 12.8 296  90  PD    46.72  2.64  2.76-0.12  0.00  1.43  W  0.402 1.40   5 2 1.13 D                         
 MEM  NC VHZ   VM 15.0 318  92  PD 1  47.22  3.14  3.14 0.04 -0.04  0.71  W  0.065 2.80   7 1 0.78 D                         
 ORC  NN VHZ   VU 16.9  62  86  PU    47.47  3.39  3.47-0.09  0.01  1.43  W  0.785 0.35  17   2.87 D                         
 MLK  NC VHZ   VM 17.2 310  85  PD 2  47.71  3.63  3.52 0.12 -0.01  0.29  W  0.013 1.40  11   1.86 D                         
 MGN  NN VHZ   VU 29.7  22  78  PU 2  49.79  5.71  5.69 0.09 -0.07  0.29  W  0.039 5.58  15   1.63 D                         
 ####################################################################################
   1 JAN 2000,  3:10  SEQUENCE NO.    5, ID NO.  21075046
                                                        ADJUSTMENTS (KM)
  I ORIGIN   LAT N     LON W     Z   NWR  RMS    DT    DLAT   DLON    DZ    RR NF MOD
  1 18.84  35 36.28  117 29.86  5.00  11 4.29 -0.083 18.839 25.576  0.00031.765 3 WAL
  2 18.76  35 46.45  117 46.87  5.00  11 2.60 -1.905 -5.113 -7.755  0.000 9.288 3 WAL
  3 16.85  35 43.69  117 41.72  5.00  11 0.38 -0.293  0.411 -1.069  0.000 1.145 3 WAL
 FREE DEPTH
 BEGIN DISTANCE WEIGHTING
 BEGIN RESIDUAL WEIGHTING
  4 16.56  35 43.91  117 41.01  5.00  10 0.08 -0.045  0.419 -1.127  5.811 5.934 4 WAL
 RMS INCREASE - MOVE HYPO 0.60 BACK
  5 16.51  35 44.13  117 40.26 10.81  10 0.12  0.027 -0.252  0.676 -3.487 3.560 4 WAL
  6 16.54  35 44.00  117 40.71  7.32  10 0.07 -0.106  0.326 -0.930  4.021 4.140 4 WAL
  7 16.43  35 44.17  117 40.09 11.35  10 0.06 -0.071  0.110 -0.332  0.594 0.689 4 WAL
  8 16.36  35 44.23  117 39.87 11.94  10 0.03 -0.005  0.006 -0.017  0.018 0.026 4 WAL
  9 16.36  35 44.24  117 39.86 11.96  10 0.03 -0.007  0.014 -0.045  0.155 0.162 4 WAL
 ERROR ELLIPSE: <SERR AZ DIP>-<   2.32  70 72>-<   0.29 235 16>-<   0.21 326  4>
 ------------------------------------------------------------------------------------
 YEAR MO DA  --ORIGIN--  --LAT N-  --LON W--  DEPTH   RMS   ERH   ERZ  XMAG  FMAG  PMAG
 2000-01-01  0310 16.36  35 44.24  117 39.86  11.96  0.03  0.68  2.22                   
                                                                                          SOURCE
 NSTA NPHS  DMIN MODEL GAP ITR NFM NWR NWS NVR REMRKS-AVH  N.XMG-XMMAD-T   N.FMG-FMMAD-T  L F X
   13   14  21.8  WAL  131   9   6  10   0  11 IWV          0.00  0.00 X    0.00  0.00 D  N    
 REGION= Indian Wells Val. (BRC)    MODELS USED:  WAL=1.00

 STA NET COM L CR DIST AZM  AN P/S WT   SEC (TOBS -TCAL -DLY  =RES)  WT   SR  INFO  CAL DUR-W-FMAG-T -AMP-U-PER-W-XMAG-T
 WSH  CI VHZ   VW 21.8 134 114 IPU    20.84  4.48  4.32 0.17 -0.01  2.30  N  0.97511.65  19 4 1.65XD                         
 WRC  CI VHZ   VW 23.5   3 112 IPD    21.05  4.69  4.58 0.10  0.01  2.30  N  0.85711.65  22 4 1.66XD                         
                               ES  3  24.21  7.85  8.15 0.18 -0.48  0.00S N  0.000                                           
 WVP  CI VHZ   VW 27.3 330 107 IPD 1  21.47  5.11  5.16-0.02 -0.03  1.15  N  0.27611.65  10 4 1.41XD                         
 WCH  CI VHZ   VW 40.2 294  97 IPU 1  23.52  7.16  7.21 0.00 -0.05  1.15  N  0.364 5.58  12 4 1.77XD                         
 WBS  CI VHZ   VW 48.5 243  93 IPU 1  24.97  8.61  8.55 0.00  0.06  1.15  N  0.546 5.58   9 4 1.36XD                         
 WLH  CI VHZ   VW 74.5 309  83 EP  3  29.14 12.78 12.76-0.01  0.03  0.23  N  0.042                                           
 WAS  CI VHZ   VW 80.8 271  81 EP  3  30.31 13.95 13.78 0.09  0.08  0.23  N  0.024                                           
 WJP  CI VHZ   VW 82.5 245  81 EP  3  30.25 13.89 14.05-0.11 -0.05  0.23  N  0.025                                           
 WOF  CI VHZ   VW 97.6 258  77 IPU 1  32.79 16.43 16.47-0.01 -0.03  1.06  N  0.852                                           
 WMP  NC VDZ   UW102.1 265  76 EP  3  33.67 17.31 17.17 0.02  0.12  0.20  A  0.035                                           
    3 UNWEIGHTED STATIONS NOT PRINTED.
 ####################################################################################
