   1 JAN 2000, 13:05  SEQUENCE NO.   10, ID NO.  51093451
                                                        ADJUSTMENTS (KM)
  I ORIGIN   LAT N     LON W     Z   NWR  RMS    DT    DLAT   DLON    DZ    RR NF MOD
  1 45.26  37 38.58  118 50.45  5.00  19 0.48  0.314 -0.405 -1.008  0.000 1.086 3 MAM
 FREE DEPTH
  2 45.57  37 38.36  118 49.76  5.00  19 0.23 -0.099  0.198 -0.008  3.505 3.511 4 MAM
  3 45.47  37 38.47  118 49.76  8.51  19 0.10 -0.122  0.041  0.084  0.819 0.824 4 MAM
 BEGIN DISTANCE WEIGHTING
 BEGIN RESIDUAL WEIGHTING
  4 45.35  37 38.49  118 49.81  9.32  19 0.06 -0.027 -0.005  0.023  0.175 0.177 4 MAM
  5 45.33  37 38.49  118 49.83  9.50  19 0.05  0.001 -0.029  0.001 -0.009 0.030 4 MAM
  6 45.33  37 38.47  118 49.83  9.49  19 0.06 -0.001 -0.009 -0.002  0.020 0.022 4 MAM
 ERROR ELLIPSE: <SERR AZ DIP>-<   0.59 345 71>-<   0.44 181 17>-<   0.21  90  4>
 ------------------------------------------------------------------------------------
 YEAR MO DA  --ORIGIN--  --LAT N-  --LON W--  DEPTH   RMS   ERH   ERZ  XMAG  FMAG  PMAG
 2000-01-01  1305 45.33  37 38.47  118 49.83   9.49  0.06  0.42  0.56        1.47  1.47D
                                                                                          SOURCE
 NSTA NPHS  DMIN MODEL GAP ITR NFM NWR NWS NVR REMRKS-AVH  N.XMG-XMMAD-T   N.FMG-FMMAD-T  L F X
   19   19   0.6  MAM   92   6  19  19   0  19 HCF     1    0.00  0.00 X   15.50  0.36 D  W W  

 XMAG2-N.XMG2-XMMAD-T-S  FMAG2-N.FMG2-FMMAD-T-S  PREF.MAG-N.PMAG-PRMAD-T
                                                     1.47  15.50  0.36 D
 REGION= Hilton Crk. Flt. (LVC)     MODELS USED:  MAM=1.00

 STA NET COM L CR DIST AZM  AN P/S WT   SEC (TOBS -TCAL -DLY  =RES)  WT   SR  INFO  CAL DUR-W-FMAG-T -AMP-U-PER-W-XMAG-T
 MDR  NC VHZ   VM  0.6 233 176  PD    47.26  1.93  1.83 0.09  0.01  1.24  W  0.325 2.80  13   1.62 D                         
 MLH  NC VHZ   VM  4.4  18 152  PU    47.54  2.21  2.00 0.35 -0.14  1.24  W  0.365 1.40  17   2.20 D                         
 MCM  NC VHZ   VM  5.2 228 147  PD    47.32  1.99  2.07-0.14  0.06  1.24  W  0.259 2.80  15   1.53 D                         
 MCV  NC VHZ   VM  5.7 178 145  PU 3  47.28  1.95  2.12-0.07 -0.10  0.12  W  0.004 2.80   7   1.05 D                         
 MGP  NC VHZ   VM  6.6 256 140  PU 1  47.55  2.22  2.21 0.00  0.01  0.62  W  0.038 2.80  15   1.21 D                         
 MCS  NC VHZ   VM  6.8 283 139  PU    47.63  2.30  2.23 0.04  0.03  1.24  W  0.156 2.80  13   1.40 D                         
 MLC  NC VHZ   VM  8.2 247 134  PU    47.63  2.30  2.38-0.13  0.05  1.24  W  0.157 1.40  13   1.87 D                         
 MEM  NC VHZ   VM 10.0 286 127  PU    48.01  2.68  2.62 0.04  0.02  1.24  W  0.165 2.80   9   0.99 D                         
 MLK  NC VHZ   VM 13.1 282 117  PU    48.51  3.18  3.05 0.12  0.01  1.24  W  0.189 1.40  15   2.13 D                         
 HTC  NN VHZ   VU 13.4 156 116  PU 1  48.32  2.99  3.10-0.02 -0.09  0.62  W  0.128 5.58  17   1.65 D                         
 ORC  NN VHZ   VU 15.4  92 114  PU    48.67  3.34  3.39-0.09  0.04  1.24  W  0.267 0.35  23   3.16 D                         
 MMP  NC VHZ   VM 17.8 259 111  PU    48.88  3.55  3.76-0.20 -0.01  1.24  W  0.200 2.80   9   1.40 D                         
 RCC  NN VHZ   VU 19.6 150 109  PD    49.18  3.85  4.03-0.12 -0.06  1.24  W  0.535 5.58   7 1 0.84 D                         
 MRD  NC VHZ   VM 20.7 257 107  PU    49.35  4.02  4.20-0.10 -0.08  1.24  W  0.241 2.80   5 2 0.82 D                         
 MDP  NC VHZ   VM 22.0 268 105  PU    49.54  4.21  4.41-0.20  0.00  1.24  W  0.267 1.40   5 2 1.10 D                         
 BEN  NN VHZ   VU 24.1  69 103  PD    49.92  4.59  4.76-0.19  0.02  1.24  W  0.45311.65  13   1.14 D                         
 MRC  NC VHZ   VM 28.8  82 100  PU 2  50.80  5.47  5.50-0.09  0.06  0.25  W  0.016 1.40   9 1 1.70 D                         
 BCK  NN VHZ   VU 40.9  81  95  PU 1  52.88  7.55  7.50 0.00  0.05  0.62  W  0.119 5.58   3 4 0.14XD                         
 MLN  NN VHZ   VU 43.4  96  94  PU 1  53.26  7.93  7.90-0.02  0.05  0.62  W  0.109 5.58   3 4 0.15XD                         
 ####################################################################################
   1 JAN 2000, 13:44  SEQUENCE NO.   11, ID NO.  51093452
                                                        ADJUSTMENTS (KM)
  I ORIGIN   LAT N     LON W     Z   NWR  RMS    DT    DLAT   DLON    DZ    RR NF MOD
  1  5.54  37 37.30  118 57.69  5.00   9 0.80  0.761  1.658  0.744  0.000 1.817 3 MAM
 FREE DEPTH
  2  6.30  37 38.19  118 58.20  5.00   9 0.08 -0.168  0.434 -0.022  1.906 1.955 4 MAM
  3  6.13  37 38.43  118 58.18  6.91   9 0.04 -0.122  0.286  0.001  0.796 0.846 4 MAM
 BEGIN DISTANCE WEIGHTING
 BEGIN RESIDUAL WEIGHTING
  4  6.01  37 38.58  118 58.18  7.70   9 0.02 -0.032  0.048  0.009  0.207 0.213 4 MAM
  5  5.98  37 38.61  118 58.19  7.91   9 0.02 -0.015  0.053 -0.003  0.104 0.117 4 MAM
  6  5.96  37 38.64  118 58.19  8.01   9 0.02  0.001 -0.038 -0.014 -0.002 0.040 4 MAM
 ERROR ELLIPSE: <SERR AZ DIP>-<   2.17   7 75>-<   0.61 170 13>-<   0.41 261  4>
 ------------------------------------------------------------------------------------
 YEAR MO DA  --ORIGIN--  --LAT N-  --LON W--  DEPTH   RMS   ERH   ERZ  XMAG  FMAG  PMAG
 2000-01-01  1344  5.96  37 38.64  118 58.19   8.01  0.02  0.59  2.10        0.86  0.86D
                                                                                          SOURCE
 NSTA NPHS  DMIN MODEL GAP ITR NFM NWR NWS NVR REMRKS-AVH  N.XMG-XMMAD-T   N.FMG-FMMAD-T  L F X
    9    9   2.3  MAM   91   6   9   9   0   9 SMO     1    0.00  0.00 X    7.75  0.39 D  W W  

 XMAG2-N.XMG2-XMMAD-T-S  FMAG2-N.FMG2-FMMAD-T-S  PREF.MAG-N.PMAG-PRMAD-T
                                                     0.86   7.75  0.39 D
 REGION= South Moat (LVC)           MODELS USED:  MAM=1.00

 STA NET COM L CR DIST AZM  AN P/S WT   SEC (TOBS -TCAL -DLY  =RES)  WT   SR  INFO  CAL DUR-W-FMAG-T -AMP-U-PER-W-XMAG-T
 MLK  NC VHZ   VM  2.3 346 161  PU     7.73  1.77  1.64 0.12  0.01  1.25  W  0.522 1.40  13   1.93 D                         
 MSL  NC VHZ   VM  3.2 158 154  PD     7.54  1.58  1.70-0.12  0.00  1.25  W  0.771 1.40   7   1.40 D                         
 MEM  NC VHZ   VM  3.6  47 152  PU     7.72  1.76  1.73 0.04 -0.01  1.25  W  0.563 2.80   7   0.71 D                         
 MMS  NC VHZ   VM  5.7 255 139  PD     7.95  1.99  1.92 0.03  0.04  1.25  W  0.413 1.40   5 2 1.03 D                         
 MLC  NC VHZ   VM  6.0 126 137  PD     7.79  1.83  1.96-0.13  0.00  1.25  W  0.531 1.40   7   1.26 D                         
 MGP  NC VHZ   VM  6.2 108 136  PU 2   8.01  2.05  1.99 0.00  0.06  0.25  W  0.026 2.80   7   0.47 D                         
 MMP  NC VHZ   VM  6.4 234 135  PD     7.76  1.80  2.01-0.20 -0.01  1.25  W  0.434 2.80   5 1 0.76 D                         
 MRD  NC VHZ   VM  9.3 237 122  PD 1   8.18  2.22  2.38-0.10 -0.06  0.62  W  0.278 2.80   3 2 0.26 D                         
 MCM  NC VHZ   VM  9.3 114 122  PD 1   8.24  2.28  2.38-0.14  0.04  0.62  W  0.458 2.80   7   0.82 D                         
 ####################################################################################
   1 JAN 2000, 15:41  SEQUENCE NO.   12, ID NO.  21075113
                                                        ADJUSTMENTS (KM)
  I ORIGIN   LAT N     LON W     Z   NWR  RMS    DT    DLAT   DLON    DZ    RR NF MOD
  1  3.68  40  9.10  121 31.65  5.00  16 0.63 -0.203  3.308 -4.649  0.000 5.706 3 LAS
 FREE DEPTH
  2  3.48  40 10.89  121 28.37  5.00  16 0.18  0.079  0.423 -0.847  4.815 4.907 4 LAS
  3  3.56  40 11.11  121 27.77  9.81  16 0.12 -0.105  0.158 -0.303  0.394 0.522 4 LAS
 BEGIN DISTANCE WEIGHTING
 BEGIN RESIDUAL WEIGHTING
  4  3.45  40 11.20  121 27.55 10.21  13 0.08 -0.028 -0.035 -0.221  1.171 1.192 4 LAS
  5  3.42  40 11.18  121 27.40 11.38  13 0.07 -0.012 -0.027 -0.019  0.445 0.446 4 LAS
  6  3.41  40 11.17  121 27.38 11.83  13 0.07  0.000 -0.017  0.045  0.135 0.143 4 LAS
  7  3.41  40 11.16  121 27.42 11.96  13 0.07 -0.001  0.014 -0.046 -0.016 0.051 4 LAS
 ERROR ELLIPSE: <SERR AZ DIP>-<   1.42 232 87>-<   0.59  83  2>-<   0.22 354  1>
 ------------------------------------------------------------------------------------
 YEAR MO DA  --ORIGIN--  --LAT N-  --LON W--  DEPTH   RMS   ERH   ERZ  XMAG  FMAG  PMAG
 2000-01-01  1541  3.41  40 11.16  121 27.42  11.96  0.07  0.59  1.42  0.92  1.48  1.48D
                                                                                          SOURCE
 NSTA NPHS  DMIN MODEL GAP ITR NFM NWR NWS NVR REMRKS-AVH  N.XMG-XMMAD-T   N.FMG-FMMAD-T  L F X
   18   20   7.1  LAS  162   7  10  13   1  16 ALM          1.00  0.00 X    6.50  0.09 D  N N N

 XMAG2-N.XMG2-XMMAD-T-S  FMAG2-N.FMG2-FMMAD-T-S  PREF.MAG-N.PMAG-PRMAD-T
                                                     1.48   6.50  0.09 D
 REGION= Lake Almanor               MODELS USED:  LAS=1.00

 STA NET COM L CR DIST AZM  AN P/S WT   SEC (TOBS -TCAL -DLY  =RES)  WT   SR  INFO  CAL DUR-W-FMAG-T -AMP-U-PER-W-XMAG-T
 LCM  NC VHZ   VL  7.1 233 146 EP  2   5.68  2.27  2.45 0.00 -0.18  0.62  N  0.699 2.80  12   1.41 D                         
 LSI  NC VHZ   VL 23.6   6 110 EPD 2   8.14  4.73  4.57 0.00  0.16  0.62  NM 0.269 0.00  13   1.63 D    43M .14              
 LRD  NC VHZ   VL 31.0 359 103 EPD 2   9.41  6.00  5.70 0.12  0.18  0.62  NM 0.178 5.58  16   1.45 D    40M .12   0.92 X     
 LRR  NC VHZ   VL 34.2 336 101 EPD 2   9.44  6.03  6.19-0.01 -0.15  0.62  N  0.093 2.80  11 1 1.48 D                         
 LRR  NC VLN   NL 34.2 336 101 ES  3  13.92 10.51 11.02-0.02 -0.49  0.00S N  0.000                                           
 LDB  NC VHZ   VL 39.0 315  99 EP  3   9.87  6.46  6.95-0.12 -0.37  0.00  N  0.000 2.80  12 1 1.64 D                         
 MGL  WR VHZ   VO 42.4 192  97 EPU 2  10.78  7.37  7.47-0.22  0.12  0.62  N  0.03925.20  21   1.39 D                         
                               ES  2  16.43 13.02 13.30-0.39  0.12  0.62S N  0.091                                           
 OCR  NC VHZ   VO 43.4 216  97 IPD    11.08  7.67  7.62 0.03  0.02  3.10  N  0.836                                           
 LTC  NC VHZ   VL 57.0 273  93 EPD 2  13.06  9.65  9.77 0.03 -0.15  0.62  N  0.086                                           
 OBH  NC VHZ   VO 59.3 181  93 EP  3  13.14  9.73 10.14-0.21 -0.20  0.31  N  0.016                                           
 LWH  NC VHZ   VL 65.6 321  91 IPU 1  14.11 10.70 11.13-0.50  0.07  1.55  N  0.392                                           
 KPK  WR VHZ   VO 68.1 168  90 IPD 1  14.88 11.47 11.53-0.03 -0.03  1.55  N  0.736 5.58  16   1.82 D                         
 LSH  NC VHZ   VL 83.6 324  89 IPU 1  16.89 13.48 13.98-0.43 -0.07  1.55  N  0.441                                           
 AOH  NC VHZ   VA 91.5 169  87 EPD 2  18.28 14.87 15.23-0.23 -0.13  0.60  N  0.119                                           
 AFD  NC VHZ   VA143.9 162  51 EP  2  26.45 23.04 22.76-0.12  0.40  0.00  N  0.00011.65  24 4 2.34XD                         
    4 UNWEIGHTED STATIONS NOT PRINTED.
 ####################################################################################
   1 JAN 2000, 18:47  SEQUENCE NO.   13, ID NO.  21075123
                                                        ADJUSTMENTS (KM)
  I ORIGIN   LAT N     LON W     Z   NWR  RMS    DT    DLAT   DLON    DZ    RR NF MOD
  1 56.62  37 29.56  118 43.60  5.00  25 1.43 -0.303  0.223 -8.775  0.000 8.777 3 MAM
  2 56.32  37 29.68  118 37.63  5.00  25 0.33 -0.235 -0.292 -0.683  0.000 0.742 3 MAM
 FREE DEPTH
  3 56.08  37 29.52  118 37.17  5.00  25 0.18  0.088  0.329  0.035  6.051 6.061 4 MAM
 BEGIN DISTANCE WEIGHTING
 BEGIN RESIDUAL WEIGHTING
 RMS INCREASE - MOVE HYPO 0.60 BACK
  4 56.17  37 29.70  118 37.19 11.05  25 0.25 -0.053 -0.197 -0.021 -3.631 3.636 4 MAM
  5 56.12  37 29.59  118 37.18  7.42  25 0.12 -0.111  0.062  0.002  3.614 3.615 4 MAM
  6 56.01  37 29.63  118 37.18 11.03  24 0.10 -0.103  0.108 -0.020  0.642 0.652 4 MAM
  7 55.90  37 29.69  118 37.16 11.68  25 0.05 -0.015  0.022  0.002  0.096 0.099 4 MAM
  8 55.89  37 29.70  118 37.17 11.77  25 0.05 -0.001  0.018  0.013  0.002 0.022 4 MAM
 ERROR ELLIPSE: <SERR AZ DIP>-<   0.68 335 85>-<   0.20 231  1>-<   0.17 141  4>
 ------------------------------------------------------------------------------------
 YEAR MO DA  --ORIGIN--  --LAT N-  --LON W--  DEPTH   RMS   ERH   ERZ  XMAG  FMAG  PMAG
 2000-01-01  1847 55.89  37 29.70  118 37.17  11.77  0.05  0.20  0.68  1.30  1.25  1.25D
                                                                                          SOURCE
 NSTA NPHS  DMIN MODEL GAP ITR NFM NWR NWS NVR REMRKS-AVH  N.XMG-XMMAD-T   N.FMG-FMMAD-T  L F X
   34   34   9.1  MAM  103   8  18  25   0  25 RVL          4.00  0.10 X    9.50  0.42 D  N N N

 XMAG2-N.XMG2-XMMAD-T-S  FMAG2-N.FMG2-FMMAD-T-S  PREF.MAG-N.PMAG-PRMAD-T
                                                     1.25   9.50  0.42 D
 REGION= Round Valley (VOT)         MODELS USED:  MAM=1.00

 STA NET COM L CR DIST AZM  AN P/S WT   SEC (TOBS -TCAL -DLY  =RES)  WT   SR  INFO  CAL DUR-W-FMAG-T -AMP-U-PER-W-XMAG-T
 RCC  NN VHZ   VU  9.1 265 138 IPD 1  58.62  2.73  2.76-0.12  0.09  1.08  N  0.286 5.58   8 2 0.93 D                         
 CAS  NN VHZ   VU 10.7  34 133 IPD    58.82  2.93  2.95-0.01 -0.01  2.16  N  0.626 5.58   8 2 0.94 D                         
 HTC  NN VHZ   VU 13.9 287 124  P  2  59.35  3.46  3.37-0.02  0.11  0.43  W  0.024 5.58  15   1.56 D                         
 ORC  NN VHZ   VU 15.9 349 121 EPU 2  59.52  3.63  3.64-0.09  0.08  0.43  N  0.010 0.35  18   2.95 D                         
 MTU  NC VHZ   VM 16.5 162 120 IPD 1  59.46  3.57  3.72-0.17  0.02  1.08  NM 0.199 2.80                 45M .14   1.32 X     
 MCD  NC VHZ   VM 16.6  69 120 IPU 1  59.71  3.82  3.74 0.13 -0.05  1.08  N  0.096 2.80   8   0.44 D                         
 MFB  NC VHZ   VM 18.4 113 118 EPD 2  60.05  4.16  3.99 0.09  0.08  0.43  N  0.020 1.40   9   0.81 D                         
 MCV  NC VHZ   VM 21.3 300 113 IPD    60.21  4.32  4.43-0.07 -0.04  2.16  N  0.442                                           
                                PD 5  60.22  4.33  4.43-0.07 -0.03X       W        2.80   5 2 0.85 D                         
 MRC  NC VHZ   VM 22.2  26 112 IPU    60.29  4.40  4.56-0.09 -0.07  2.16  NM 0.243 1.40   9 1 1.69 D    19M .13   1.13 X     
 BHP  NN VHZ   VU 24.6 151 109 IPU 1  60.74  4.85  4.94-0.09  0.00  1.08  NM 0.154 5.58  10 2 1.24 D    33M .18   1.27 X     
 BEN  NN VHZ   VU 24.8   9 109 IPD    60.69  4.80  4.97-0.19  0.02  2.16  N  0.26711.65  10 2 0.92 D                         
 MDR  NC VHZ   VM 24.9 310 109 IPD 1  60.96  5.07  4.97 0.09  0.01  1.08  N  0.108                                           
 MCM  NC VHZ   VM 25.8 300 108 IPD 1  60.89  5.00  5.12-0.14  0.02  1.08  N  0.125 2.80  10 1 1.29 D                         
 MLH  NC VHZ   VM 26.7 320 107 EPU 2  61.30  5.41  5.26 0.35 -0.20  0.43  N  0.016                                           
 MLN  NN VHZ   VU 26.8  65 107 IPU 1  61.08  5.19  5.28-0.02 -0.07  1.08  NM 0.084 5.58  10 2 1.25 D    41M .22   1.47 X     
 MGP  NC VHZ   VM 29.0 301 105 EP  3  61.45  5.56  5.62 0.00 -0.06  0.22  N  0.005                                           
 MLC  NC VHZ   VM 29.2 297 105 IPD 1  61.41  5.52  5.66-0.13 -0.01  1.08  N  0.145                                           
 MCS  NC VHZ   VM 30.9 306 104 EP  3  61.90  6.01  5.93 0.04  0.04  0.22  N  0.005                                           
 BCK  NN VHZ   VU 31.4  44 104 IPU    61.96  6.07  6.00 0.00  0.07  2.16  N  0.373                                           
 MSL  NC VHZ   VM 32.7 295 103 EP  3  61.94  6.05  6.22-0.12 -0.05  0.22  N  0.006                                           
 POC  NN VHZ   VU 33.5 115 102 EP  3  61.99  6.10  6.35-0.29  0.04  0.22  N  0.005                                           
 MEM  NC VHZ   VM 34.1 304 102 EP  3  62.40  6.51  6.44 0.04  0.03  0.22  N  0.006                                           
 MGN  NN VHZ   VU 36.0 350 101 EP  3  62.79  6.90  6.74 0.09  0.07  0.22  N  0.004 5.58  17   1.82 D                         
 MLM  NC VHZ   VM 38.8 312 100 EPD 2  63.43  7.54  7.20 0.28  0.06  0.43  N  0.027                                           
 MWB  NC VHZ   VM 44.0 145  98 IPD    63.82  7.93  8.04-0.10 -0.01  2.16  N  0.710                                           
    8 UNWEIGHTED STATIONS NOT PRINTED.
 ####################################################################################
