  25 JAN 2007, 15:15  SEQUENCE NO.    3, ID NO.  40192959
  FIX HYPOCENTER AND ORIGIN TIME FOR THIS EVENT
                                                        ADJUSTMENTS (KM)
  I ORIGIN   LAT N     LON W     Z   NWR  RMS    DT    DLAT   DLON    DZ    RR NF MOD
 BEGIN FIRST DISTANCE WEIGHTING
 BEGIN MAIN DISTANCE WEIGHTING
 BEGIN RESIDUAL WEIGHTING
  1 31.50  38 49.00  122 52.00  2.20  38 0.27  0.140  1.104  0.222  0.000 1.126 3 GEY
 ERROR ELLIPSE: <SERR AZ DIP>-<  31.61   0 90>-<   0.34 213  0>-<   0.28 122  0>
 ------------------------------------------------------------------------------------
 YEAR MO DA  --ORIGIN--  --LAT N-  --LON W--  DEPTH   RMS   ERH   ERZ  XMAG  FMAG  PMAG
 2007-01-25  1515 31.50  38 49.00  122 52.00   2.20  0.27  0.34 31.61        2.72  2.72D
                                                                                          SOURCE
 NSTA NPHS  DMIN MODEL GAP ITR NFM NWR NWS NVR REMRKS-AVH  N.XMG-XMMAD-T   N.FMG-FMMAD-T  L F X
   46   46   6.3  GEY   45   1  45  38   0  46 GEY  O B1A      0  0.00 X      37  0.14 D  W W  

 XMAG2-N.XMG2-XMMAD-T-S  FMAG2-N.FMG2-FMMAD-T-S  PREF.MAG-N.PMAG-PRMAD-T
                                                     2.72     37  0.14 D
 REGION= Geysers                    MODELS USED:  GEY=1.00

 STA NET COM L CR DIST AZM  AN P/S WT   SEC (TOBS -TCAL -DLY  =RES)  WT   SR  INFO  CAL DUR-W-FMAG-T -AMP-U-PER-W-XMAG-T DEV
 GDXB NC HHZ -- G  6.3  98  94  PU    33.05  1.55  1.43-0.18  0.30  1.55  W  0.136 0.00  29   2.28 D                         
 GPM  NC EHZ 02 G  7.6 295  84  PU    33.16  1.66  1.68-0.06  0.04  1.55  W  0.143 2.82  32   2.82 D                         
 GCR  NC EHZ 02 G 13.9 110  69  PU    34.37  2.87  2.86-0.25  0.26  1.55  W  0.113 5.62  32   2.82 D                         
 GCVB NC EHZ -- G 13.9 248  69  PU    34.61  3.11  2.87 0.04  0.20  1.55  W  0.126 4.64  25   2.76 D                         
 GAX  NC EHZ -- G 15.1 140  68  PU    34.65  3.15  3.09-0.30  0.36  1.55  W  0.097 5.62  35   2.77 D                         
 GBG  NC EHZ -- G 16.0  90  68  PU    34.99  3.49  3.25 0.06  0.18  1.55  W  0.134 2.82  33   2.75 D                         
 GSS  NC EHZ -- G 18.1 226  68  PD    35.40  3.90  3.63-0.02  0.29  1.55  W  0.125 5.62  33   2.77 D                         
 GRT  NC EHZ -- G 21.7  51  68  PU    35.62  4.12  4.29-0.18  0.01  1.55  W  0.178 5.62  37   2.78 D                         
 NMC  NC EHZ -- N 25.4 190  68  PD    36.71  5.21  4.96-0.11  0.36  1.55  W  0.113 5.62  33   2.85 D                         
 HOPS BK HHZ -- N 26.5 318  68  PU    36.67  5.17  5.17 0.00  0.00  1.55  I  0.146 0.00  33   2.52 D                         
 GHL  NC EHZ -- G 28.2 332  68  PD    36.76  5.26  5.47-0.16 -0.05  1.55  W  0.15811.22  39   2.88 D                         
 NHS  NC EHZ -- N 28.2 128  68  PU 3  36.80  5.30  5.48 0.00 -0.18  0.15  W  0.001 1.73  33   3.38 D                         
 GSN  NC EHZ -- G 31.4 297  68  PU    37.64  6.14  6.06 0.05  0.03  1.55  W  0.132 5.62  35   2.82 D                         
 NMW  NC EHZ -- N 32.1 157  68  PU    38.04  6.54  6.18-0.11  0.47  1.55  W  0.098 2.82  32   2.74 D                         
 GDC  NC EHZ -- G 32.8 261  67  PU    38.03  6.53  6.32 0.07  0.14  1.55  W  0.125 5.62  31   2.76 D                         
 GHG  NC EHZ -- G 34.8   6  67  PD    37.86  6.36  6.67-0.14 -0.17  1.55  W  0.184 5.62  25   2.67 D                         
 NMT  NC EHZ -- N 36.4  91  67  PU 1  38.46  6.96  6.97-0.10  0.09  0.77  W  0.03311.22  41   2.82 D                         
 GHC  NC EHZ -- G 37.1 232  67  PD    38.84  7.34  7.09-0.03  0.28  1.55  W  0.124 5.62  29   2.80 D                         
 MNRC BK HHZ --   37.4  79  67  PU 3  38.89  7.39  7.15 0.00  0.24  0.15  I  0.001 0.00  31 1 2.53 D                         
 NFV  NC EHZ -- N 38.8 184  67  PD    39.17  7.67  7.41-0.08  0.34  1.55  W  0.108 4.64  17   2.24 D                         
 GCW  NC EHZ -- G 39.4 333  67  PD    38.72  7.22  7.50-0.24 -0.04  1.55  W  0.158 2.82  22   2.81 D                         
 NSH  NC EHZ -- N 39.9 145  67  PD 1  39.11  7.61  7.60-0.26  0.27  0.77  W  0.023 5.62  69 1 3.67 D                         
 NFR  NC EHZ 02 N 41.5 219  67  PD 1  39.72  8.22  7.90 0.04  0.28  0.77  W  0.030 5.62  25   2.71 D                         
 NPV  NC EHZ 02 N 42.8 116  66  PU    39.39  7.89  8.13-0.43  0.19  1.55  W  0.106 2.82  25   2.77 D                         
 NTYB NC EHZ -- N 50.7 159  65  PU    41.47  9.97  9.53-0.13  0.57* 1.52  W  0.093 4.64  35   2.58 D                         
 NEA  NC EHZ -- N 56.7 187  64  PD    42.46 10.96 10.60 0.11  0.25  1.52  W  0.103 4.64  25   2.58 D                         
 NIMB NC EHZ -- N 59.5 118  64  PU 2  42.40 10.90 11.10-0.29  0.09  0.30  W  0.003 0.00  29   2.50 D                         
 NBP  NC EHZ -- N 60.7 105  64  PD    43.79 12.29 11.32 0.55  0.42  1.46  W  0.100 5.62  31   2.52 D                         
 CVS  BK HHZ -- C 63.3 145  63  PD 3  42.97 11.47 11.77 0.00 -0.30  0.14  I  0.000 0.00  29   2.51 D                         
 GHO  NC EHZ -- G 63.7 294  63  PU 2  43.62 12.12 11.85 0.00  0.27  0.28  W  0.004 5.62   5 4 1.01XD                         
 NTR  NC EHZ -- N 64.3 174  63  PU 1  43.95 12.45 11.94 0.00  0.51* 0.68  W  0.019 4.64   9 4 1.72XD                         
 NCP  NC EHZ 02 N 64.6  92  63  PU 1  45.20 13.70 12.00 1.51  0.19  0.68  W  0.024 2.82  25 1 2.41 D                         
 NBRB NC EHZ -- N 67.6 155  63  PD 1  44.64 13.14 12.53-0.30  0.91* 0.00  W  0.000 4.64  29 1 2.37 D                         
 NHV  NC EHZ -- N 73.6 169  62  PD 2  45.15 13.65 13.57-0.07  0.15  0.20  W  0.001 4.64  21   2.45 D                         
 MCCM BK HHZ -- N 77.9 181  62  PD    45.59 14.09 14.32 0.00 -0.23  0.81  I  0.027 0.00  23   2.30 D                         
 GNA  NC EHZ 02 G 78.6 303  62  PU 2  45.88 14.38 14.44 0.07 -0.13  0.16  W  0.001 2.82  25   2.58 D                         
 NVA  NC EHZ -- N 79.1 124  62  PD 1  46.57 15.07 14.52 0.12  0.43  0.38  W  0.005 2.82   7 4 1.42XD                         
 NGVB NC EHZ -- N 82.2 136  62  PD 3  46.20 14.70 15.07-0.63  0.26  0.06  W  0.000 4.64  27   2.51 D                         
 NOLB NC EHZ -- N 86.2 175  48  PD    47.47 15.97 15.73-0.14  0.38  0.44  W  0.006 4.64  39   2.54 D                         
 KRK  NC SHZ -- K 87.3 342  45  PD 2  47.57 16.07 15.89 0.34 -0.16  0.08  W  0.000 5.62   9 4 1.57XD                         
 NAD  NC EHZ -- N 87.5 116  44  PU 1  48.69 17.19 15.92 0.84  0.43  0.19  W  0.001 2.82  27   2.48 D                         
 GTC  NC SHZ -- G 87.9 318  44  PU 3  47.11 15.61 15.97 0.08 -0.44  0.04  W  0.000 5.62   9 4 1.60XD                         
 KFP  NC SHZ -- K103.2 333  40  PD 2  50.79 19.29 17.92 0.44  0.93* 0.00  W  0.000 5.62   1 4                                
 CTA  NC EHZ -- C114.9 139  40  P  2  52.56 21.06 19.40 0.00  1.66* 0.00  W  0.000 4.64   7 4 0.77XD                         
 KBN  NC SHZ -- K122.7 347  40  PD 3  54.09 22.59 20.38 0.00  2.21* 0.00  W  0.000 5.62   1 4                                
 SJC  NN SHZ -- U303.2  98  40  PD 2  76.15 44.65 43.24 0.00  1.41* 0.00  W  0.00011.22   3 4 0.05XD                         
 USE SUPPLIED TRIAL HYPOCENTER FOR EVENT: 2007  1 25 15 15
 ####################################################################################
  25 JAN 2007, 15:15  SEQUENCE NO.    4, ID NO.  40192959
  FIX HYPOCENTER AND ORIGIN TIME FOR THIS EVENT
                                                        ADJUSTMENTS (KM)
  I ORIGIN   LAT N     LON W     Z   NWR  RMS    DT    DLAT   DLON    DZ    RR NF MOD
 BEGIN FIRST DISTANCE WEIGHTING
 BEGIN MAIN DISTANCE WEIGHTING
 BEGIN RESIDUAL WEIGHTING
  1 31.66  38 49.72  122 52.16  2.34  34 0.07  0.002  0.000  0.006  0.000 0.006 3 GEY
 ERROR ELLIPSE: <SERR AZ DIP>-<  31.61   0 90>-<   0.16 214  0>-<   0.13 123  0>
 ------------------------------------------------------------------------------------
 YEAR MO DA  --ORIGIN--  --LAT N-  --LON W--  DEPTH   RMS   ERH   ERZ  XMAG  FMAG  PMAG
 2007-01-25  1515 31.66  38 49.72  122 52.16   2.34  0.07  0.16 31.61        2.72  2.72D
                                                                                          SOURCE
 NSTA NPHS  DMIN MODEL GAP ITR NFM NWR NWS NVR REMRKS-AVH  N.XMG-XMMAD-T   N.FMG-FMMAD-T  L F X
   46   46   6.9  GEY   48   1  45  34   0  46 GEY  O B1A      0  0.00 X      37  0.14 D  W W  

 XMAG2-N.XMG2-XMMAD-T-S  FMAG2-N.FMG2-FMMAD-T-S  PREF.MAG-N.PMAG-PRMAD-T
                                                     2.72     37  0.14 D
 REGION= Geysers                    MODELS USED:  GEY=1.00

 STA NET COM L CR DIST AZM  AN P/S WT   SEC (TOBS -TCAL -DLY  =RES)  WT   SR  INFO  CAL DUR-W-FMAG-T -AMP-U-PER-W-XMAG-T DEV
 GDXB NC HHZ -- G  6.9 109  86  PU    33.05  1.39  1.54-0.18  0.03  1.45  W  0.126 0.00  29   2.28 D                         
 GPM  NC EHZ 02 G  6.9 286  86  PU    33.16  1.50  1.55-0.06  0.01  1.45  W  0.142 2.82  32   2.82 D                         
 GCVB NC EHZ -- G 14.3 243  70  PU    34.61  2.95  2.92 0.04 -0.01  1.45  W  0.128 4.64  25   2.76 D                         
 GCR  NC EHZ 02 G 14.6 114  70  PU    34.37  2.71  2.98-0.25 -0.02  1.45  W  0.112 5.62  32   2.83 D                         
 GBG  NC EHZ -- G 16.3  95  70  PU    34.99  3.33  3.29 0.06 -0.02  1.45  W  0.135 2.82  33   2.75 D                         
 GAX  NC EHZ -- G 16.3 143  70  PU    34.65  2.99  3.30-0.30 -0.01  1.45  W  0.096 5.62  35   2.77 D                         
 GSS  NC EHZ -- G 18.9 222  70  PD    35.40  3.74  3.77-0.02 -0.01  1.45  W  0.125 5.62  33   2.77 D                         
 GRT  NC EHZ -- G 21.1  54  70  PU    35.62  3.96  4.17-0.18 -0.03  1.45  W  0.190 5.62  37   2.78 D                         
 HOPS BK HHZ -- N 25.4 317  70  PU    36.67  5.01  4.96 0.00  0.05  1.45  I  0.153 0.00  33   2.52 D                         
 NMC  NC EHZ -- N 26.7 189  70  PD    36.71  5.05  5.19-0.11 -0.03  1.45  W  0.111 5.62  33   2.86 D                         
 GHL  NC EHZ -- G 26.9 332  70  PD    36.76  5.10  5.23-0.16  0.03  1.45  W  0.16811.22  39   2.87 D                         
 NHS  NC EHZ -- N 29.3 130  70  PU 3  36.80  5.14  5.66 0.00 -0.52* 0.00  W  0.000 1.73  33   3.39 D                         
 GSN  NC EHZ -- G 30.7 294  70  PU    37.64  5.98  5.91 0.05  0.02  1.45  W  0.135 5.62  35   2.81 D                         
 GDC  NC EHZ -- G 32.9 259  69  PU    38.03  6.37  6.31 0.07 -0.01  1.45  W  0.127 5.62  31   2.76 D                         
 NMW  NC EHZ -- N 33.4 157  69  PU    38.04  6.38  6.41-0.11  0.08  1.45  W  0.096 2.82  32   2.75 D                         
 GHG  NC EHZ -- G 33.5   6  69  PD    37.86  6.20  6.43-0.14 -0.09  1.45  W  0.198 5.62  25   2.66 D                         
 NMT  NC EHZ -- N 36.7  93  69  PU 1  38.46  6.80  7.01-0.10 -0.11  0.73  W  0.03411.22  41   2.82 D                         
 MNRC BK HHZ --   37.4  81  69  PU 3  38.89  7.23  7.14 0.00  0.09  0.15  I  0.001 0.00  31 1 2.53 D                         
 GHC  NC EHZ -- G 37.8 230  69  PD    38.84  7.18  7.21-0.03  0.00  1.45  W  0.124 5.62  29   2.80 D                         
 GCW  NC EHZ -- G 38.1 332  69  PD    38.72  7.06  7.26-0.24  0.04  1.45  W  0.166 2.82  22   2.80 D                         
 NFV  NC EHZ -- N 40.1 184  68  PD    39.17  7.51  7.63-0.08 -0.04  1.45  W  0.107 4.64  17   2.25 D                         
 NSH  NC EHZ -- N 41.1 146  68  PD 1  39.11  7.45  7.81-0.26 -0.10  0.73  W  0.023 5.62  69 1 3.67 D                         
 NFR  NC EHZ 02 N 42.5 217  68  PD 1  39.72  8.06  8.05 0.04 -0.03  0.73  W  0.030 5.62  25   2.71 D                         
 NPV  NC EHZ 02 N 43.6 118  68  PU    39.39  7.73  8.26-0.43 -0.10  1.45  W  0.106 2.82  25   2.77 D                         
 NTYB NC EHZ -- N 52.0 159  67  PU    41.47  9.81  9.76-0.13  0.18  1.45  W  0.094 4.64  35   2.59 D                         
 NEA  NC EHZ -- N 57.9 187  66  PD    42.46 10.80 10.82 0.11 -0.13  1.41  W  0.100 4.64  25   2.58 D                         
 NIMB NC EHZ -- N 60.3 119  65  PU 2  42.40 10.74 11.24-0.29 -0.21  0.27  W  0.003 0.00  29   2.50 D                         
 NBP  NC EHZ -- N 61.3 106  65  PD    43.79 12.13 11.41 0.55  0.17  1.35  W  0.100 5.62  31   2.52 D                         
 GHO  NC EHZ -- G 63.0 293  65  PU 2  43.62 11.96 11.71 0.00  0.25  0.09  W  0.000 5.62   5 4 1.01XD                         
 CVS  BK HHZ -- C 64.5 146  65  PD 3  42.97 11.31 11.97 0.00 -0.66* 0.00  I  0.000 0.00  29   2.51 D                         
 NCP  NC EHZ 02 N 64.9  93  64  PU 1  45.20 13.54 12.04 1.51 -0.01  0.63  W  0.024 2.82  25 1 2.41 D                         
 NTR  NC EHZ -- N 65.6 174  64  PU 1  43.95 12.29 12.16 0.00  0.13  0.62  W  0.017 4.64   9 4 1.72XD                         
 NBRB NC EHZ -- N 68.9 156  64  PD 1  44.64 12.98 12.74-0.30  0.54* 0.00  W  0.000 4.64  29 1 2.37 D                         
 NHV  NC EHZ -- N 74.9 169  63  PD 2  45.15 13.49 13.79-0.07 -0.23  0.13  W  0.000 4.64  21   2.45 D                         
 GNA  NC EHZ 02 G 77.7 303  63  PU 2  45.88 14.22 14.27 0.07 -0.12  0.15  W  0.001 2.82  25   2.58 D                         
 MCCM BK HHZ -- N 79.2 181  63  PD    45.59 13.93 14.54 0.00 -0.61* 0.00  I  0.000 0.00  23   2.30 D                         
 NVA  NC EHZ -- N 80.0 124  63  PD 1  46.57 14.91 14.67 0.12  0.12  0.34  W  0.005 2.82   7 4 1.42XD                         
 NGVB NC EHZ -- N 83.4 136  59  PD 3  46.20 14.54 15.27-0.63 -0.10  0.05  W  0.000 4.64  27   2.51 D                         
 KRK  NC SHZ -- K 85.9 342  49  PD 2  47.57 15.91 15.68 0.34 -0.11  0.08  W  0.000 5.62   9 4 1.57XD                         
 GTC  NC SHZ -- G 86.8 318  47  PU 3  47.11 15.45 15.81 0.08 -0.44  0.00  W  0.000 5.62   9 4 1.60XD                         
 NOLB NC EHZ -- N 87.5 175  44  PD    47.47 15.81 15.90-0.14  0.05  0.36  W  0.004 4.64  39   2.54 D                         
 NAD  NC EHZ -- N 88.3 117  44  PU 1  48.69 17.03 16.00 0.84  0.19  0.17  W  0.001 2.82  27   2.48 D                         
 KFP  NC SHZ -- K101.9 333  40  PD 2  50.79 19.13 17.73 0.44  0.96* 0.00  W  0.000 5.62   1 4                                
 CTA  NC EHZ -- C116.1 139  40  P  2  52.56 20.90 19.52 0.00  1.38* 0.00  W  0.000 4.64   7 4 0.77XD                         
 KBN  NC SHZ -- K121.4 347  40  PD 3  54.09 22.43 20.19 0.00  2.24* 0.00  W  0.000 5.62   1 4                                
 SJC  NN SHZ -- U303.7  99  40  PD 2  76.15 44.49 43.27 0.00  1.22* 0.00  W  0.00011.22   3 4 0.05XD                         
 ####################################################################################
