  25 JAN 2007, 15:15  SEQUENCE NO.    5, ID NO.  40192959
                                                        ADJUSTMENTS (KM)
  I ORIGIN   LAT N     LON W     Z   NWR  RMS    DT    DLAT   DLON    DZ    RR NF MOD
 BEGIN FIRST DISTANCE WEIGHTING
  1 31.05  38 48.77  122 47.98  5.00  45 1.10  0.670  1.607  5.629  0.000 5.854 3 GEY
 FREE DEPTH
  2 31.72  38 49.64  122 51.88  5.00  45 0.21 -0.009 -0.033  0.472 -2.150 2.201 4 GEY
  3 31.71  38 49.62  122 52.21  2.85  45 0.17 -0.063 -0.048  0.019 -1.063 1.064 4 GEY
 BEGIN MAIN DISTANCE WEIGHTING
 BEGIN RESIDUAL WEIGHTING
  4 31.65  38 49.59  122 52.22  1.79  35 0.08  0.021  0.205 -0.080  0.503 0.549 4 GEY
  5 31.67  38 49.70  122 52.16  2.29  35 0.07 -0.005  0.024  0.004  0.050 0.056 4 GEY
  6 31.66  38 49.72  122 52.17  2.34  34 0.07 -0.001  0.009 -0.004 -0.004 0.011 4 GEY
 ERROR ELLIPSE: <SERR AZ DIP>-<   0.92 350 88>-<   0.16 213  1>-<   0.13 124  1>
 ------------------------------------------------------------------------------------
 YEAR MO DA  --ORIGIN--  --LAT N-  --LON W--  DEPTH   RMS   ERH   ERZ  XMAG  FMAG  PMAG
 2007-01-25  1515 31.66  38 49.72  122 52.17   2.34  0.07  0.16  0.92        2.72  2.72D
                                                                                          SOURCE
 NSTA NPHS  DMIN MODEL GAP ITR NFM NWR NWS NVR REMRKS-AVH  N.XMG-XMMAD-T   N.FMG-FMMAD-T  L F X
   46   46   6.9  GEY   48   6  45  34   0  46 GEY    B1A      0  0.00 X      37  0.14 D  W W  

 XMAG2-N.XMG2-XMMAD-T-S  FMAG2-N.FMG2-FMMAD-T-S  PREF.MAG-N.PMAG-PRMAD-T
                                                     2.72     37  0.14 D
 REGION= Geysers                    MODELS USED:  GEY=1.00

 STA NET COM L CR DIST AZM  AN P/S WT   SEC (TOBS -TCAL -DLY  =RES)  WT   SR  INFO  CAL DUR-W-FMAG-T -AMP-U-PER-W-XMAG-T DEV
 GDXB NC HHZ -- G  6.9 109  86  PU    33.05  1.39  1.54-0.18  0.03  1.45  W  0.574 0.00  29   2.28 D                         
 GPM  NC EHZ 02 G  6.9 286  86  PU    33.16  1.50  1.55-0.06  0.01  1.45  W  0.520 2.82  32   2.82 D                         
 GCVB NC EHZ -- G 14.2 243  70  PU    34.61  2.95  2.92 0.04 -0.01  1.45  W  0.128 4.64  25   2.76 D                         
 GCR  NC EHZ 02 G 14.6 114  70  PU    34.37  2.71  2.98-0.25 -0.02  1.45  W  0.112 5.62  32   2.83 D                         
 GBG  NC EHZ -- G 16.3  95  70  PU    34.99  3.33  3.30 0.06 -0.03  1.45  W  0.135 2.82  33   2.75 D                         
 GAX  NC EHZ -- G 16.3 143  70  PU    34.65  2.99  3.30-0.30 -0.01  1.45  W  0.097 5.62  35   2.77 D                         
 GSS  NC EHZ -- G 18.9 222  70  PD    35.40  3.74  3.77-0.02 -0.01  1.45  W  0.125 5.62  33   2.77 D                         
 GRT  NC EHZ -- G 21.1  54  70  PU    35.62  3.96  4.17-0.18 -0.03  1.45  W  0.192 5.62  37   2.78 D                         
 HOPS BK HHZ -- N 25.4 317  70  PU    36.67  5.01  4.96 0.00  0.05  1.45  I  0.157 0.00  33   2.52 D                         
 NMC  NC EHZ -- N 26.6 189  70  PD    36.71  5.05  5.18-0.11 -0.02  1.45  W  0.112 5.62  33   2.86 D                         
 GHL  NC EHZ -- G 26.9 332  70  PD    36.76  5.10  5.23-0.16  0.03  1.45  W  0.17411.22  39   2.87 D                         
 NHS  NC EHZ -- N 29.3 130  70  PU 3  36.80  5.14  5.66 0.00 -0.52* 0.00  W  0.000 1.73  33   3.39 D                         
 GSN  NC EHZ -- G 30.7 294  70  PU    37.64  5.98  5.91 0.05  0.02  1.45  W  0.141 5.62  35   2.81 D                         
 GDC  NC EHZ -- G 32.8 259  69  PU    38.03  6.37  6.31 0.07 -0.01  1.45  W  0.130 5.62  31   2.76 D                         
 NMW  NC EHZ -- N 33.4 157  69  PU    38.04  6.38  6.41-0.11  0.08  1.45  W  0.096 2.82  32   2.75 D                         
 GHG  NC EHZ -- G 33.5   6  69  PD    37.86  6.20  6.43-0.14 -0.09  1.45  W  0.210 5.62  25   2.66 D                         
 NMT  NC EHZ -- N 36.7  93  69  PU 1  38.46  6.80  7.01-0.10 -0.11  0.73  W  0.03511.22  41   2.82 D                         
 MNRC BK HHZ --   37.4  81  69  PU 3  38.89  7.23  7.15 0.00  0.08  0.15  I  0.001 0.00  31 1 2.53 D                         
 GHC  NC EHZ -- G 37.8 230  69  PD    38.84  7.18  7.20-0.03  0.01  1.45  W  0.127 5.62  29   2.80 D                         
 GCW  NC EHZ -- G 38.1 332  69  PD    38.72  7.06  7.26-0.24  0.04  1.45  W  0.183 2.82  22   2.80 D                         
 NFV  NC EHZ -- N 40.1 184  68  PD    39.17  7.51  7.63-0.08 -0.04  1.45  W  0.109 4.64  17   2.25 D                         
 NSH  NC EHZ -- N 41.1 146  68  PD 1  39.11  7.45  7.81-0.26 -0.10  0.73  W  0.024 5.62  69 1 3.67 D                         
 NFR  NC EHZ 02 N 42.4 217  68  PD 1  39.72  8.06  8.05 0.04 -0.03  0.73  W  0.031 5.62  25   2.71 D                         
 NPV  NC EHZ 02 N 43.6 118  68  PU    39.39  7.73  8.26-0.43 -0.10  1.45  W  0.112 2.82  25   2.77 D                         
 NTYB NC EHZ -- N 52.0 159  67  PU    41.47  9.81  9.76-0.13  0.18  1.45  W  0.106 4.64  35   2.59 D                         
 NEA  NC EHZ -- N 57.9 187  66  PD    42.46 10.80 10.82 0.11 -0.13  1.41  W  0.120 4.64  25   2.58 D                         
 NIMB NC EHZ -- N 60.3 119  65  PU 2  42.40 10.74 11.24-0.29 -0.21  0.26  W  0.004 0.00  29   2.50 D                         
 NBP  NC EHZ -- N 61.3 106  65  PD    43.79 12.13 11.41 0.55  0.17  1.35  W  0.133 5.62  31   2.52 D                         
 GHO  NC EHZ -- G 63.0 293  65  PU 2  43.62 11.96 11.70 0.00  0.26  0.06  W  0.000 5.62   5 4 1.01XD                         
 CVS  BK HHZ -- C 64.5 146  65  PD 3  42.97 11.31 11.97 0.00 -0.66* 0.00  I  0.000 0.00  29   2.51 D                         
 NCP  NC EHZ 02 N 64.9  93  64  PU 1  45.20 13.54 12.05 1.51 -0.02  0.63  W  0.034 2.82  25 1 2.41 D                         
 NTR  NC EHZ -- N 65.6 174  64  PU 1  43.95 12.29 12.16 0.00  0.13  0.62  W  0.024 4.64   9 4 1.72XD                         
 NBRB NC EHZ -- N 68.9 156  64  PD 1  44.64 12.98 12.74-0.30  0.54* 0.00  W  0.000 4.64  29 1 2.37 D                         
 NHV  NC EHZ -- N 74.9 169  63  PD 2  45.15 13.49 13.79-0.07 -0.23  0.12  W  0.000 4.64  21   2.45 D                         
 GNA  NC EHZ 02 G 77.7 303  63  PU 2  45.88 14.22 14.27 0.07 -0.12  0.15  W  0.002 2.82  25   2.58 D                         
 MCCM BK HHZ -- N 79.2 181  63  PD    45.59 13.93 14.54 0.00 -0.61* 0.00  I  0.000 0.00  23   2.30 D                         
 NVA  NC EHZ -- N 80.0 124  63  PD 1  46.57 14.91 14.67 0.12  0.12  0.34  W  0.008 2.82   7 4 1.42XD                         
 NGVB NC EHZ -- N 83.4 136  59  PD 3  46.20 14.54 15.27-0.63 -0.10  0.05  W  0.000 4.64  27   2.51 D                         
 KRK  NC SHZ -- K 85.9 342  49  PD 2  47.57 15.91 15.68 0.34 -0.11  0.08  W  0.000 5.62   9 4 1.57XD                         
 GTC  NC SHZ -- G 86.8 318  47  PU 3  47.11 15.45 15.81 0.08 -0.44  0.00  W  0.000 5.62   9 4 1.60XD                         
 NOLB NC EHZ -- N 87.5 175  44  PD    47.47 15.81 15.90-0.14  0.05  0.36  W  0.018 4.64  39   2.54 D                         
 NAD  NC EHZ -- N 88.3 117  44  PU 1  48.69 17.03 16.00 0.84  0.19  0.17  W  0.008 2.82  27   2.48 D                         
 KFP  NC SHZ -- K101.9 333  40  PD 2  50.79 19.13 17.73 0.44  0.96* 0.00  W  0.000 5.62   1 4                                
 CTA  NC EHZ -- C116.1 139  40  P  2  52.56 20.90 19.52 0.00  1.38* 0.00  W  0.000 4.64   7 4 0.77XD                         
 KBN  NC SHZ -- K121.4 347  40  PD 3  54.09 22.43 20.19 0.00  2.24* 0.00  W  0.000 5.62   1 4                                
 SJC  NN SHZ -- U303.7  99  40  PD 2  76.15 44.49 43.27 0.00  1.22* 0.00  W  0.00011.22   3 4 0.05XD                         
