 HYPOINVERSE 2000 (10/2006 VERSION) RUN ON Fri Jan 26 10:17:43 2007      RUN LABEL= 
 PROCESSING DOMAIN=NC  PROCESSING VERSION=01


 TEST PARAMETERS:
   -ITERATION AND CONVERGENCE-     -WEIGHTING AND ERRORS-     -MISCELLANEOUS-
       20=ITRLIM   0.900=DAMP    15.000=DISCUT   0.100=RMSCUT       4=MINSTA
    0.040=DQUIT    0.001=DRQT     3.500=DISW1    2.000=RMSW1        2=NET
    7.000=DXFIX    0.012=EIGTOL   7.000=DISW2    3.000=RMSW2 
   30.000=DZMAX    0.020=RBACK        4=ITRDIS       4=ITRRES   5.000=ZTR
    0.500=DZAIR    0.600=BACFAC   1.000=SWT      0.100=RDERR    1.780=POS
                                                 1.000=ERCOF

      ------DURATION MAG CONSTANTS------       -DELAYS & MISC-    -STATIONS-
   -0.810=FMA1     0.000=FMA2   -1.0300=DMA0         T=LMULT        F=ATTEN
    2.220=FMB1     0.000=FMB2    2.1000=DMA1         T=CODAWT       5=SITE-LET
    0.000=FMZ1     0.000=FMZ2    0.0000=DMA2         T=LJUNK        2=NET-LET
    0.001=FMD1     0.000=FMD2    0.0000=DMZ                         3=COMP-LET
    0.000=FMF1     0.000=FMF2    1.0000=DMGN  
    1.000=FMGN  9999.000=FMBRK   0.0027=DMLIN 
   0.0050=DCOF1   40.000=DBRK1        1=LOGA0 
   0.0006=DCOF2  350.000=DBRK2 
   0.0140=ZCOF    10.000=ZBRK  

    DUR MAG COMPONENT CORRECTIONS:  ELZ=-.06  ELE=-.30  ELN=-.30
    AMP MAG COMPONENT CORRECTIONS:  EHZ=0.33  VLZ=0.20  SHZ=0.33

    --- MAGNITUDE LABELS & COMPONENTS ---
    FMAG1: LABEL=D      COMPS= EHZ SHZ HHZ BHZ
    FMAG2: LABEL=Z      COMPS= ELZ
    XMAG1: LABEL=X       TYPE=MX   COMPS= EHZ ELZ ELE ELN EHN EHE SHZ
    XMAG2: LABEL=L       TYPE=ML   COMPS= WLN WLE HHN HHE
    FMAG1 MAGSEL=1  FMAG2 MAGSEL=3

 INPUT FILES:
 COMMANDS:    /home/calnet/klein/hypfiles/cal2000seed.hyp                 
                                                                          
 BINARY STATION SNAPSHOT FILE: /home/calnet/klein/hypfiles/allstaseed.bin                  
 DELAYS:                                                                   
 ATTENUATIONS:                                                             
 CAL FACTORS:  /home/calnet/klein/hypfiles/all2000seed.cal                 
 FMAG CORRECT: /home/calnet/klein/hypfiles/all2000seed.fmc                 
 XMAG CORRECT: /home/calnet/klein/hypfiles/all2000seed.xmc                 

 PHASES:       allfix.arc                                                  
        PHASE FORMAT CODE= 5, TERMINATOR FORMAT CODE=1
 BINARY CRUST SNAPSHOT FILE: /home/calnet/klein/hypfiles/multmodseed.bin                 

 OUTPUT FILES: (T IF APPENDED TO)
 (F) PRINTOUT:    allfix.prt                                                  
 
 ####################################################################################
  25 JAN 2007, 15:15  SEQUENCE NO.    1, ID NO.  40192959
                                                        ADJUSTMENTS (KM)
  I ORIGIN   LAT N     LON W     Z   NWR  RMS    DT    DLAT   DLON    DZ    RR NF MOD
 BEGIN FIRST DISTANCE WEIGHTING
  1 31.05  38 48.77  122 47.98  2.20  45 1.07  0.602  1.482  5.512  0.000 5.708 3 GEY
  2 31.65  38 49.57  122 51.80  2.20  45 0.19  0.001  0.077  0.555  0.000 0.561 3 GEY
  3 31.65  38 49.61  122 52.18  2.20  45 0.17 -0.002  0.002  0.058  0.000 0.058 3 GEY
 BEGIN MAIN DISTANCE WEIGHTING
 BEGIN RESIDUAL WEIGHTING
  4 31.65  38 49.61  122 52.22  2.20  35 0.08  0.002  0.162 -0.081  0.000 0.181 3 GEY
  5 31.65  38 49.70  122 52.17  2.20  35 0.07  0.000  0.024 -0.005  0.000 0.024 3 GEY
  6 31.65  38 49.71  122 52.16  2.20  35 0.07  0.001  0.009 -0.003  0.000 0.009 3 GEY
 ERROR ELLIPSE: <SERR AZ DIP>-<  31.61   0 90>-<   0.16 214  0>-<   0.13 123  0>
 ------------------------------------------------------------------------------------
 YEAR MO DA  --ORIGIN--  --LAT N-  --LON W--  DEPTH   RMS   ERH   ERZ  XMAG  FMAG  PMAG
 2007-01-25  1515 31.65  38 49.71  122 52.16   2.20  0.07  0.16 31.61        2.72  2.72D
                                                                                          SOURCE
 NSTA NPHS  DMIN MODEL GAP ITR NFM NWR NWS NVR REMRKS-AVH  N.XMG-XMMAD-T   N.FMG-FMMAD-T  L F X
   46   46   6.9  GEY   48   6  45  35   0  46 GEY  - B1A      0  0.00 X      37  0.14 D  W W  

 XMAG2-N.XMG2-XMMAD-T-S  FMAG2-N.FMG2-FMMAD-T-S  PREF.MAG-N.PMAG-PRMAD-T
                                                     2.72     37  0.14 D
 REGION= Geysers                    MODELS USED:  GEY=1.00

 STA NET COM L CR DIST AZM  AN P/S WT   SEC (TOBS -TCAL -DLY  =RES)  WT   SR  INFO  CAL DUR-W-FMAG-T -AMP-U-PER-W-XMAG-T DEV
 GDXB NC HHZ -- G  6.9 109  86  PU    33.05  1.40  1.54-0.18  0.04  1.45  W  0.128 0.00  29   2.28 D                         
 GPM  NC EHZ 02 G  6.9 286  86  PU    33.16  1.51  1.55-0.06  0.02  1.45  W  0.144 2.82  32   2.82 D                         
 GCVB NC EHZ -- G 14.2 243  68  PU    34.61  2.96  2.93 0.04 -0.01  1.45  W  0.127 4.64  25   2.76 D                         
 GCR  NC EHZ 02 G 14.6 114  68  PU    34.37  2.72  2.99-0.25 -0.02  1.45  W  0.112 5.62  32   2.83 D                         
 GBG  NC EHZ -- G 16.3  95  68  PU    34.99  3.34  3.30 0.06 -0.02  1.45  W  0.134 2.82  33   2.75 D                         
 GAX  NC EHZ -- G 16.3 143  68  PU    34.65  3.00  3.31-0.30 -0.01  1.45  W  0.096 5.62  35   2.77 D                         
 GSS  NC EHZ -- G 18.9 222  68  PD    35.40  3.75  3.77-0.02  0.00  1.45  W  0.125 5.62  33   2.77 D                         
 GRT  NC EHZ -- G 21.1  54  68  PU    35.62  3.97  4.18-0.18 -0.03  1.45  W  0.190 5.62  37   2.78 D                         
 HOPS BK HHZ -- N 25.4 317  68  PU    36.67  5.02  4.97 0.00  0.05  1.45  I  0.152 0.00  33   2.52 D                         
 NMC  NC EHZ -- N 26.6 189  68  PD    36.71  5.06  5.19-0.11 -0.02  1.45  W  0.111 5.62  33   2.86 D                         
 GHL  NC EHZ -- G 26.9 332  68  PD    36.76  5.11  5.24-0.16  0.03  1.45  W  0.16811.22  39   2.87 D                         
 NHS  NC EHZ -- N 29.3 130  68  PU 3  36.80  5.15  5.67 0.00 -0.52* 0.00  W  0.000 1.73  33   3.39 D                         
 GSN  NC EHZ -- G 30.7 294  68  PU    37.64  5.99  5.92 0.05  0.02  1.45  W  0.135 5.62  35   2.81 D                         
 GDC  NC EHZ -- G 32.9 259  67  PU    38.03  6.38  6.32 0.07 -0.01  1.45  W  0.126 5.62  31   2.76 D                         
 NMW  NC EHZ -- N 33.4 157  67  PU    38.04  6.39  6.42-0.11  0.08  1.45  W  0.096 2.82  32   2.75 D                         
 GHG  NC EHZ -- G 33.5   6  67  PD    37.86  6.21  6.44-0.14 -0.09  1.45  W  0.198 5.62  25   2.66 D                         
 NMT  NC EHZ -- N 36.7  93  67  PU 1  38.46  6.81  7.02-0.10 -0.11  0.73  W  0.03411.22  41   2.82 D                         
 MNRC BK HHZ --   37.4  81  67  PU 3  38.89  7.24  7.15 0.00  0.09  0.15  I  0.001 0.00  31 1 2.53 D                         
 GHC  NC EHZ -- G 37.8 230  67  PD    38.84  7.19  7.21-0.03  0.01  1.45  W  0.124 5.62  29   2.80 D                         
 GCW  NC EHZ -- G 38.1 332  67  PD    38.72  7.07  7.27-0.24  0.04  1.45  W  0.166 2.82  22   2.80 D                         
 NFV  NC EHZ -- N 40.1 184  67  PD    39.17  7.52  7.64-0.08 -0.04  1.45  W  0.107 4.64  17   2.25 D                         
 NSH  NC EHZ -- N 41.1 146  67  PD 1  39.11  7.46  7.82-0.26 -0.10  0.73  W  0.023 5.62  69 1 3.67 D                         
 NFR  NC EHZ 02 N 42.4 217  66  PD 1  39.72  8.07  8.06 0.04 -0.03  0.73  W  0.030 5.62  25   2.71 D                         
 NPV  NC EHZ 02 N 43.6 118  66  PU    39.39  7.74  8.27-0.43 -0.10  1.45  W  0.106 2.82  25   2.77 D                         
 NTYB NC EHZ -- N 52.0 159  65  PU    41.47  9.82  9.77-0.13  0.18  1.45  W  0.094 4.64  35   2.59 D                         
 NEA  NC EHZ -- N 57.9 187  64  PD    42.46 10.81 10.83 0.11 -0.13  1.41  W  0.100 4.64  25   2.58 D                         
 NIMB NC EHZ -- N 60.3 119  64  PU 2  42.40 10.75 11.25-0.29 -0.21  0.26  W  0.003 0.00  29   2.50 D                         
 NBP  NC EHZ -- N 61.3 106  64  PD    43.79 12.14 11.42 0.55  0.17  1.35  W  0.100 5.62  31   2.52 D                         
 GHO  NC EHZ -- G 63.0 293  63  PU 2  43.62 11.97 11.72 0.00  0.25  0.11  W  0.000 5.62   5 4 1.01XD                         
 CVS  BK HHZ -- C 64.5 146  63  PD 3  42.97 11.32 11.98 0.00 -0.66* 0.00  I  0.000 0.00  29   2.51 D                         
 NCP  NC EHZ 02 N 64.9  93  63  PU 1  45.20 13.55 12.06 1.51 -0.02  0.63  W  0.024 2.82  25 1 2.41 D                         
 NTR  NC EHZ -- N 65.6 174  63  PU 1  43.95 12.30 12.17 0.00  0.13  0.62  W  0.017 4.64   9 4 1.72XD                         
 NBRB NC EHZ -- N 68.9 156  62  PD 1  44.64 12.99 12.75-0.30  0.54* 0.00  W  0.000 4.64  29 1 2.37 D                         
 NHV  NC EHZ -- N 74.9 169  62  PD 2  45.15 13.50 13.80-0.07 -0.23  0.12  W  0.000 4.64  21   2.45 D                         
 GNA  NC EHZ 02 G 77.7 303  62  PU 2  45.88 14.23 14.28 0.07 -0.12  0.15  W  0.001 2.82  25   2.58 D                         
 MCCM BK HHZ -- N 79.2 181  62  PD    45.59 13.94 14.55 0.00 -0.61* 0.00  I  0.000 0.00  23   2.30 D                         
 NVA  NC EHZ -- N 80.0 124  62  PD 1  46.57 14.92 14.68 0.12  0.12  0.34  W  0.005 2.82   7 4 1.42XD                         
 NGVB NC EHZ -- N 83.3 136  58  PD 3  46.20 14.55 15.28-0.63 -0.10  0.05  W  0.000 4.64  27   2.51 D                         
 KRK  NC SHZ -- K 86.0 342  49  PD 2  47.57 15.92 15.70 0.34 -0.12  0.08  W  0.000 5.62   9 4 1.57XD                         
 GTC  NC SHZ -- G 86.8 318  46  PU 3  47.11 15.46 15.82 0.08 -0.44  0.00  W  0.000 5.62   9 4 1.60XD                         
 NOLB NC EHZ -- N 87.5 175  44  PD    47.47 15.82 15.92-0.14  0.04  0.36  W  0.004 4.64  39   2.54 D                         
 NAD  NC EHZ -- N 88.3 117  44  PU 1  48.69 17.04 16.01 0.84  0.19  0.17  W  0.001 2.82  27   2.48 D                         
 KFP  NC SHZ -- K102.0 333  40  PD 2  50.79 19.14 17.76 0.44  0.94* 0.00  W  0.000 5.62   1 4                                
 CTA  NC EHZ -- C116.1 139  40  P  2  52.56 20.91 19.54 0.00  1.37* 0.00  W  0.000 4.64   7 4 0.77XD                         
 KBN  NC SHZ -- K121.4 347  40  PD 3  54.09 22.44 20.22 0.00  2.22* 0.00  W  0.000 5.62   1 4                                
 SJC  NN SHZ -- U303.7  99  40  PD 2  76.15 44.50 43.29 0.00  1.21* 0.00  W  0.00011.22   3 4 0.05XD                         
 USE SUPPLIED TRIAL HYPOCENTER FOR EVENT: 2007  1 25 15 15
 ####################################################################################
  25 JAN 2007, 15:15  SEQUENCE NO.    2, ID NO.  40192959
  FIX HYPOCENTER FOR THIS EVENT
                                                        ADJUSTMENTS (KM)
  I ORIGIN   LAT N     LON W     Z   NWR  RMS    DT    DLAT   DLON    DZ    RR NF MOD
 BEGIN FIRST DISTANCE WEIGHTING
 BEGIN MAIN DISTANCE WEIGHTING
 BEGIN RESIDUAL WEIGHTING
  1 31.05  38 49.00  122 52.00  2.20  39 0.68  0.547  1.132  0.232  0.000 1.156 3 GEY
 AVERAGE RESIDUAL REMOVED; O.T. ADJUSTED
 ERROR ELLIPSE: <SERR AZ DIP>-<  31.61   0 90>-<   0.78 214  0>-<   0.64 123  0>
 ------------------------------------------------------------------------------------
 YEAR MO DA  --ORIGIN--  --LAT N-  --LON W--  DEPTH   RMS   ERH   ERZ  XMAG  FMAG  PMAG
 2007-01-25  1515 31.71  38 49.00  122 52.00   2.20  0.20  0.78 31.61        2.72  2.72D
                                                                                          SOURCE
 NSTA NPHS  DMIN MODEL GAP ITR NFM NWR NWS NVR REMRKS-AVH  N.XMG-XMMAD-T   N.FMG-FMMAD-T  L F X
   46   46   6.3  GEY   45   1  45  39   0  46 GEY  X B1A      0  0.00 X      37  0.14 D  W W  

 XMAG2-N.XMG2-XMMAD-T-S  FMAG2-N.FMG2-FMMAD-T-S  PREF.MAG-N.PMAG-PRMAD-T
                                                     2.72     37  0.14 D
 REGION= Geysers                    MODELS USED:  GEY=1.00

 STA NET COM L CR DIST AZM  AN P/S WT   SEC (TOBS -TCAL -DLY  =RES)  WT   SR  INFO  CAL DUR-W-FMAG-T -AMP-U-PER-W-XMAG-T DEV
 GDXB NC HHZ -- G  6.3  98  94  PU    33.05  1.34  1.43-0.18  0.09  1.60  W  0.136 0.00  29   2.28 D                         
 GPM  NC EHZ 02 G  7.6 295  84  PU    33.16  1.45  1.68-0.06 -0.17  1.60  W  0.143 2.82  32   2.82 D                         
 GCR  NC EHZ 02 G 13.9 110  69  PU    34.37  2.66  2.86-0.25  0.05  1.60  W  0.112 5.62  32   2.82 D                         
 GCVB NC EHZ -- G 13.9 248  69  PU    34.61  2.90  2.87 0.04 -0.01  1.60  W  0.126 4.64  25   2.76 D                         
 GAX  NC EHZ -- G 15.1 140  68  PU    34.65  2.94  3.09-0.30  0.15  1.60  W  0.096 5.62  35   2.77 D                         
 GBG  NC EHZ -- G 16.0  90  68  PU    34.99  3.28  3.25 0.06 -0.03  1.60  W  0.134 2.82  33   2.75 D                         
 GSS  NC EHZ -- G 18.1 226  68  PD    35.40  3.69  3.63-0.02  0.08  1.60  W  0.124 5.62  33   2.77 D                         
 GRT  NC EHZ -- G 21.7  51  68  PU    35.62  3.91  4.29-0.18 -0.20  1.60  W  0.178 5.62  37   2.78 D                         
 NMC  NC EHZ -- N 25.4 190  68  PD    36.71  5.00  4.96-0.11  0.15  1.60  W  0.111 5.62  33   2.85 D                         
 HOPS BK HHZ -- N 26.5 318  68  PU    36.67  4.96  5.17 0.00 -0.21  1.60  I  0.146 0.00  33   2.52 D                         
 GHL  NC EHZ -- G 28.2 332  68  PD    36.76  5.05  5.47-0.16 -0.26  1.60  W  0.15811.22  39   2.88 D                         
 NHS  NC EHZ -- N 28.2 128  68  PU 3  36.80  5.09  5.48 0.00 -0.39  0.16  W  0.000 1.73  33   3.38 D                         
 GSN  NC EHZ -- G 31.4 297  68  PU    37.64  5.93  6.06 0.05 -0.18  1.60  W  0.132 5.62  35   2.82 D                         
 NMW  NC EHZ -- N 32.1 157  68  PU    38.04  6.33  6.18-0.11  0.26  1.60  W  0.096 2.82  32   2.74 D                         
 GDC  NC EHZ -- G 32.8 261  67  PU    38.03  6.32  6.32 0.07 -0.07  1.60  W  0.125 5.62  31   2.76 D                         
 GHG  NC EHZ -- G 34.8   6  67  PD    37.86  6.15  6.67-0.14 -0.38  1.60  W  0.183 5.62  25   2.67 D                         
 NMT  NC EHZ -- N 36.4  91  67  PU 1  38.46  6.75  6.97-0.10 -0.12  0.80  W  0.03211.22  41   2.82 D                         
 GHC  NC EHZ -- G 37.1 232  67  PD    38.84  7.13  7.09-0.03  0.07  1.60  W  0.123 5.62  29   2.80 D                         
 MNRC BK HHZ --   37.4  79  67  PU 3  38.89  7.18  7.15 0.00  0.03  0.16  I  0.001 0.00  31 1 2.53 D                         
 NFV  NC EHZ -- N 38.8 184  67  PD    39.17  7.46  7.41-0.08  0.13  1.60  W  0.107 4.64  17   2.24 D                         
 GCW  NC EHZ -- G 39.4 333  67  PD    38.72  7.01  7.50-0.24 -0.25  1.60  W  0.157 2.82  22   2.81 D                         
 NSH  NC EHZ -- N 39.9 145  67  PD 1  39.11  7.40  7.60-0.26  0.06  0.80  W  0.023 5.62  69 1 3.67 D                         
 NFR  NC EHZ 02 N 41.5 219  67  PD 1  39.72  8.01  7.90 0.04  0.07  0.80  W  0.030 5.62  25   2.71 D                         
 NPV  NC EHZ 02 N 42.8 116  66  PU    39.39  7.68  8.13-0.43 -0.02  1.60  W  0.105 2.82  25   2.77 D                         
 NTYB NC EHZ -- N 50.7 159  65  PU    41.47  9.76  9.53-0.13  0.36  1.60  W  0.094 4.64  35   2.58 D                         
 NEA  NC EHZ -- N 56.7 187  64  PD    42.46 10.75 10.60 0.11  0.04  1.57  W  0.102 4.64  25   2.58 D                         
 NIMB NC EHZ -- N 59.5 118  64  PU 2  42.40 10.69 11.10-0.29 -0.12  0.31  W  0.003 0.00  29   2.50 D                         
 NBP  NC EHZ -- N 60.7 105  64  PD    43.79 12.08 11.32 0.55  0.21  1.50  W  0.099 5.62  31   2.52 D                         
 CVS  BK HHZ -- C 63.3 145  63  PD 3  42.97 11.26 11.77 0.00 -0.51* 0.14  I  0.000 0.00  29   2.51 D                         
 GHO  NC EHZ -- G 63.7 294  63  PU 2  43.62 11.91 11.85 0.00  0.06  0.29  W  0.004 5.62   5 4 1.01XD                         
 NTR  NC EHZ -- N 64.3 174  63  PU 1  43.95 12.24 11.94 0.00  0.30  0.70  W  0.019 4.64   9 4 1.72XD                         
 NCP  NC EHZ 02 N 64.6  92  63  PU 1  45.20 13.49 12.00 1.51 -0.02  0.70  W  0.023 2.82  25 1 2.41 D                         
 NBRB NC EHZ -- N 67.6 155  63  PD 1  44.64 12.93 12.53-0.30  0.70* 0.65  W  0.014 4.64  29 1 2.37 D                         
 NHV  NC EHZ -- N 73.6 169  62  PD 2  45.15 13.44 13.57-0.07 -0.06  0.21  W  0.001 4.64  21   2.45 D                         
 MCCM BK HHZ -- N 77.9 181  62  PD    45.59 13.88 14.32 0.00 -0.44  0.84  I  0.027 0.00  23   2.30 D                         
 GNA  NC EHZ 02 G 78.6 303  62  PU 2  45.88 14.17 14.44 0.07 -0.34  0.16  W  0.001 2.82  25   2.58 D                         
 NVA  NC EHZ -- N 79.1 124  62  PD 1  46.57 14.86 14.52 0.12  0.22  0.39  W  0.005 2.82   7 4 1.42XD                         
 NGVB NC EHZ -- N 82.2 136  62  PD 3  46.20 14.49 15.07-0.63  0.05  0.06  W  0.000 4.64  27   2.51 D                         
 NOLB NC EHZ -- N 86.2 175  48  PD    47.47 15.76 15.73-0.14  0.17  0.46  W  0.006 4.64  39   2.54 D                         
 KRK  NC SHZ -- K 87.3 342  45  PD 2  47.57 15.86 15.89 0.34 -0.37  0.08  W  0.000 5.62   9 4 1.57XD                         
 NAD  NC EHZ -- N 87.5 116  44  PU 1  48.69 16.98 15.92 0.84  0.22  0.20  W  0.001 2.82  27   2.48 D                         
 GTC  NC SHZ -- G 87.9 318  44  PU 3  47.11 15.40 15.97 0.08 -0.65* 0.04  W  0.000 5.62   9 4 1.60XD                         
 KFP  NC SHZ -- K103.2 333  40  PD 2  50.79 19.08 17.92 0.44  0.72* 0.00  W  0.000 5.62   1 4                                
 CTA  NC EHZ -- C114.9 139  40  P  2  52.56 20.85 19.40 0.00  1.45* 0.00  W  0.000 4.64   7 4 0.77XD                         
 KBN  NC SHZ -- K122.7 347  40  PD 3  54.09 22.38 20.38 0.00  2.00* 0.00  W  0.000 5.62   1 4                                
 SJC  NN SHZ -- U303.2  98  40  PD 2  76.15 44.44 43.24 0.00  1.20* 0.00  W  0.00011.22   3 4 0.05XD                         
 USE SUPPLIED TRIAL HYPOCENTER FOR EVENT: 2007  1 25 15 15
 ####################################################################################
