  26 JUN 1998, 20:07  SEQUENCE NO.    1, ID NO.  51057145
                                                        ADJUSTMENTS (KM)
  I ORIGIN   LAT N     LON W     Z   NWR  RMS    DT    DLAT   DLON    DZ    RR NF MOD
  1 41.10  37 35.70  118 50.05  5.00 189 1.31  0.632 -6.467  1.618  0.000 6.667 3 MAM
 FREE DEPTH
  2 41.73  37 32.21  118 51.15  5.00 189 1.14  0.095  0.378 -0.187  1.548 1.605 4 MAM
  3 41.83  37 32.41  118 51.02  6.55 189 1.14  0.006  0.161 -0.173  0.514 0.566 4 MAM
 BEGIN DISTANCE WEIGHTING
 BEGIN RESIDUAL WEIGHTING
  4 41.83  37 32.50  118 50.91  7.06  26 0.52  0.106  5.086 -3.451  1.865 6.423 4 MAM
  5 41.94  37 35.25  118 48.56  8.93  26 0.25 -0.042  0.395 -0.231 -2.549 2.589 4 MAM
  6 41.90  37 35.46  118 48.40  6.38  26 0.08 -0.044  0.160 -0.051 -0.123 0.208 4 MAM
  7 41.85  37 35.54  118 48.36  6.26  26 0.06 -0.006  0.067 -0.011 -0.038 0.077 4 MAM
  8 41.85  37 35.58  118 48.36  6.22  26 0.06 -0.003 -0.012  0.009  0.024 0.028 4 MAM
 ERROR ELLIPSE: <SERR AZ DIP>-<   0.50 336 76>-<   0.32 197 10>-<   0.15 106  8>
 ------------------------------------------------------------------------------------
 YEAR MO DA  --ORIGIN--  --LAT N-  --LON W--  DEPTH   RMS   ERH   ERZ  XMAG  FMAG  PMAG
 1998-06-26  2007 41.85  37 35.58  118 48.36   6.22  0.06  0.32  0.49        3.99  4.26L
                                                                                          SOURCE
 NSTA NPHS  DMIN MODEL GAP ITR NFM NWR NWS NVR REMRKS-AVH  N.XMG-XMMAD-T   N.FMG-FMMAD-T  L F X
  189  189   2.1  MAM   94   8 178  26   0 189 MOR     2    0.00  0.00 X  172.25  0.21 D  W W  

 XMAG2-N.XMG2-XMMAD-T-S  FMAG2-N.FMG2-FMMAD-T-S  PREF.MAG-N.PMAG-PRMAD-T
                          3.28   1.00  0.00 Z W      4.26   8.00  0.00 L

 BERKELEY MAG= 4.26  NUMBER READINGS=  8.0  TYPE=L
 REGION= Mt. Morrison (RSM)         MODELS USED:  MAM=1.00

 STA NET COM CR DIST AZM  AN P/S WT   SEC (TOBS -TCAL -DLY  =RES)  WT   SR  INFO  CAL DUR-W-FMAG-T AMP-PER-W-XMAG-T
 MCV  NC VHZ VM  2.1 261 158  PU    43.10  1.25  1.35-0.07 -0.03  1.14  W  0.492 2.80 159   4.04 D                        
 MDR  NC VHZ VM  5.6 333 130  PD    43.65  1.80  1.71 0.09  0.00  1.14  W  0.227 2.80 589   5.32 D                        
 MCM  NC VHZ VM  6.2 287 126  PD    43.55  1.70  1.79-0.14  0.05  1.14  W  0.168 2.80 185   3.96 D                        
 MGP  NC VHZ VM  9.3 294 112  PD    44.09  2.24  2.24 0.00  0.00  1.14  W  0.086 2.80 416 2 4.43 D                        
 MLH  NC VHZ VM  9.5 356 112  PD    44.33  2.48  2.28 0.35 -0.15  1.14  W  0.227 2.80 677 2 5.48 D                        
 MLC  NC VHZ VM  9.9 283 110  PU    44.10  2.25  2.33-0.13  0.05  1.14  W  0.091 2.80 127   3.78 D                        
 MCS  NC VHZ VM 11.2 308 107  PD 1  44.47  2.62  2.54 0.04  0.04  0.57  W  0.021 0.18 212   5.32 D                        
 MSL  NC VHZ VM 13.6 282  99  PU    44.67  2.82  2.93-0.12  0.01  1.14  W  0.082 2.80 162   4.19 D                        
 MEM  NC VHZ VM 14.3 305  99  PD    44.95  3.10  3.06 0.04  0.00  1.14  W  0.086 2.80 276   4.32 D                        
 MTC  NC VLZ ZM 14.8 287  99  PD    45.07  3.22  3.13 0.03  0.06  1.14  W  0.078 0.18  79   3.28 Z                        
 MLK  NC VHZ VM 17.0 298  97  PD    45.49  3.64  3.50 0.12  0.02  1.14  W  0.088 2.80 175   4.22 D                        
 MLM  NC VHZ VM 19.5 321  96  PD 2  44.41  2.56  3.92 0.28 -1.64* 0.00  W  0.000 5.58 242   3.79 D                        
 MMP  NC VHZ VM 19.8 276  95  PU    45.61  3.76  3.96-0.20  0.00  1.14  W  0.113 2.80 139   4.05 D                        
 MMS  NC VHZ VM 20.4 282  95  PU    45.90  4.05  4.07 0.03 -0.05  1.14  W  0.107 1.40 125   4.22 D                        
 CAS  NN VHZ VU 22.6  95  92  PD    46.25  4.40  4.44-0.01 -0.03  1.14  W  0.140 5.58 147   3.79 D                        
 MDC  NC VHZ VM 24.5 302  85  PD    46.42  4.57  4.77-0.18 -0.02  1.14  W  0.136 2.80 205   4.66 D                        
 MDP  NC VHZ VM 24.6 281  85  PU    46.39  4.54  4.77-0.20 -0.03  1.14  W  0.128 1.40 117   4.15 D                        
 BEN  NN VHZ VU 24.6  56  85  PD    46.39  4.54  4.78-0.19 -0.05  1.14  W  0.22611.65 217   3.86 D                        
 MRC  NC VHZ VM 27.9  71  83  PU    47.06  5.21  5.33-0.09 -0.03  1.14  W  0.184 1.40 123   4.22 D                        
 MCD  NC VHZ VM 32.4  98  81  PU    48.07  6.22  6.09 0.13  0.00  1.14  W  0.141 0.18 191 1 4.77 D                        
 MTU  NC VHZ VM 34.2 141  80  PD    48.03  6.18  6.38-0.17 -0.03  1.14  W  0.244 1.40 123   4.36 D                        
 MFB  NC VHZ VM 38.0 118  79  PD    49.00  7.15  7.01 0.09  0.05  1.14  W  0.164 1.40 210   3.94 D                        
 SLK  NN VHZ VU 39.1 314  79  PU    48.92  7.07  7.19-0.19  0.07  1.14  W  0.186 5.58 162   3.98 D                        
 MMT  NC VHZ VM 40.9 235  79  PU    49.01  7.16  7.49-0.11 -0.22  1.01  W  0.228 1.40  95   4.17 D                        
 MLN  NN VHZ VU 40.9  89  79  PU    49.40  7.55  7.50-0.02  0.07  1.14  W  0.146 5.58  15 3 1.70 D                        
 BHP  NN VHZ VU 43.1 139  79  PD 2  49.67  7.82  7.86-0.09  0.05  0.23  W  0.009 5.58  17   1.82 D                        
 MWB  NC VHZ VM 62.8 138  79  PD    52.91 11.06 11.12-0.10  0.04  1.04  W  0.191 5.58 139   3.67 D                        
 MBE  NC VHZ VM103.2 205  78  PU    59.03 17.18 17.81-0.40 -0.23  0.00  W  0.000 0.18  95   5.05 D                        
 FRI  BK VHZ VM104.2 231  78  PU    59.31 17.46 17.97-0.47 -0.04  0.00  W  0.000 0.00   7 4 1.18XD                        
 MPR  NC VHZ VM109.1 283  78  PU    60.09 18.24 18.79-0.14 -0.41  0.00  W  0.000 5.58 141   3.93 D                        
 MPR  NC VLZ ZM109.1 283  78  PU 1  60.12 18.27 18.79-0.14 -0.38  0.00  W  0.000 0.09   7 4 0.54XZ                        
 MBU  NC VHZ VM112.2 269  78  PU    60.55 18.70 19.30-0.14 -0.46  0.00  W  0.000 5.58 115   3.74 D                        
 MLR  NC VHZ VM131.7 296  78  PU 3  63.84 21.99 22.52-0.74  0.21  0.00  W  0.00011.65 121   3.76 D                        
 MBO  NC VHZ VM138.0 275  78  PU    64.75 22.90 23.55-0.66  0.01  0.00  W  0.00011.65 119   3.91 D                        
 MYL  NC VHZ VM144.7 262  78  P  2  65.96 24.11 24.66-0.43 -0.12  0.00  W  0.000 2.80  47   2.92 D                        
 MST  NC VHZ VM145.3 285  78  PU    65.55 23.70 24.76-0.98 -0.08  0.00  W  0.000 0.35 109   5.25 D                        
 MRH  NC VHZ VM147.2 190  78  PD    65.84 23.99 25.08-0.22 -0.87* 0.00  W  0.000 1.40  71   3.91 D                        
 MOY  NC VHZ VM159.1 283  77  PU    67.76 25.91 27.03-0.91 -0.21  0.00  W  0.000 0.35  93   5.04 D                        
 MCU  NC VHZ VM165.3 286  77  PU    68.68 26.83 28.05-0.95 -0.27  0.00  W  0.00011.65 115   3.78 D                        
 WLH  CI VHZ VW165.8 164  77  PD    69.34 27.49 28.13-0.54 -0.10  0.00  W  0.000 5.58 119 1 3.86 D                        
 MRF  NC VHZ VM167.1 297  77  PU 1  69.21 27.36 28.34-1.00  0.02  0.00  W  0.000 0.18  95   5.41 D                        
 MNH  NC VHZ VM187.1 290  76  PU    72.17 30.32 31.64-1.01 -0.31  0.00  W  0.000 2.80 141   4.57 D                        
 PHB  NC VHZ VP187.7 218  76  PU    73.30 31.45 31.73-0.13 -0.15  0.00  W  0.000 1.40 139   4.03 D                        
 PDR  NC VHZ VP197.2 226  75  PU    74.33 32.48 33.28-0.25 -0.55* 0.00  W  0.000 5.58 141   3.74 D                        
 BRM  NC VHZ VB197.5 246  75  PU    74.61 32.76 33.33-0.16 -0.41  0.00  W  0.000 2.80 115 1 3.87 D                        
 WCH  CI VHZ VW201.1 160  76  PD    74.94 33.09 33.93-0.81 -0.03  0.00  W  0.000 5.58 107   4.03 D                        
 PAR  NC VHZ VP202.5 224  76  PU    75.11 33.26 34.15-0.18 -0.71* 0.00  W  0.000 2.80 119   3.91 D                        
 ADW  NC VHZ VA202.5 299  76  PU 2  74.60 32.75 34.16-0.96 -0.45  0.00  W  0.000 2.80  97 1 4.16 D                        
 WVP  CI VHZ VW202.6 153  76  PU 2  75.05 33.20 34.17-0.67 -0.30  0.00  W  0.00011.65 111   3.96 D                        
 AOD  NC VHZ VA203.3 305  76  PD 1  75.10 33.25 34.29-1.00 -0.04  0.00  W  0.000 5.58 109   4.03 D                        
 BMS  NC VHZ VB204.5 241  76  PU    75.31 33.46 34.49-0.13 -0.90* 0.00  W  0.000 5.58 117   3.86 D                        
 PKE  NC VHZ VP206.0 215  74  PU    75.83 33.98 34.73-0.13 -0.62* 0.00  W  0.000 1.40 109   4.09 D                        
 WAS  CI VHZ VW207.1 173  73  PD    76.01 34.16 34.90-0.53 -0.21  0.00  W  0.000 5.58  83   3.77 D                        
 WRC  CI VHZ VW209.7 150  70  PD 1  75.28 33.43 35.32-0.40 -1.49* 0.00  W  0.00011.65 167   3.88 D                        
 WNM  CI VHZ VW210.3 157  70  PD    76.54 34.69 35.41-0.78  0.06  0.00  W  0.000 5.58 103 2 3.74 D                        
 HSL  NC VHZ VH212.0 254  67  PU    75.31 33.46 35.71-0.38 -1.87* 0.00  W  0.000 2.80 117   3.97 D                        
 WOR  CI VHZ VW216.5 166  52  PU    77.23 35.38 36.36-0.80 -0.18  0.00  W  0.000 5.58  99   4.08 D                        
 WMP  NC VHZ VW216.7 179  52  PU    77.06 35.21 36.38 0.50 -1.67* 0.00  W  0.000 1.40  71   3.99 D                        
 ALA  NC VHZ VA217.5 301  50  PU 2  76.96 35.11 36.50-0.99 -0.40  0.00  W  0.00011.65 107   3.82 D                        
 PPG  NC VHZ VP217.8 209  49  PU    77.23 35.38 36.53-0.18 -0.97* 0.00  W  0.000 1.40 121   4.02 D                        
 TOW  CI VHZ VW218.8 154  47  P  3  78.47 36.62 36.62-0.02  0.02  0.00  W  0.000 5.58 202 1 3.73 D                        
 PRC  NC VHZ VP219.4 228  47  PU 1  76.92 35.07 36.70-0.17 -1.46* 0.00  W  0.000 5.58  87   3.56 D                        
 AAS  NC VHZ VA222.7 296  47  PU    78.02 36.17 37.11-0.25 -0.69* 0.00  W  0.000 2.80 125   4.38 D                        
 CMP  NC VHZ VC223.8 265  47  PU    77.62 35.77 37.25-0.35 -1.13* 0.00  W  0.000 2.80  77   3.96 D                        
 BAV  NC VHZ VB223.9 243  47  PU    77.70 35.85 37.27-0.06 -1.36* 0.00  W  0.00011.65  99   3.62 D                        
 PHR  NC VHZ VP224.6 234  47  PU    77.55 35.70 37.36-0.10 -1.56* 0.00  W  0.000 0.35  91 1 4.58 D                        
 HPC  NC VHZ VH226.8 256  47  PU    78.07 36.22 37.63 0.00 -1.41* 0.00  W  0.000 2.80  79   3.80 D                        
 COS  NC VHZ VC227.3 269  47  PU    78.18 36.33 37.69-0.51 -0.85* 0.00  W  0.000 2.80  97   4.25 D                        
 BBG  NC VHZ VB228.3 242  47  PU    78.70 36.85 37.82 0.18 -1.15* 0.00  W  0.000 5.58 139   3.66 D                        
 BEM  NC VHZ VB228.4 244  47  PU    78.37 36.52 37.83 0.00 -1.31* 0.00  W  0.00011.65 125   3.64 D                        
 PCA  NC VHZ VP229.6 218  47  PU    78.79 36.94 37.98 0.20 -1.24* 0.00  W  0.000 0.35 103   4.92 D                        
 PSM  NC VHZ VP232.6 224  47  PU 1  78.80 36.95 38.36-0.13 -1.28* 0.00  W  0.000 2.80 103   3.80 D                        
 PSR  NC VHZ VP233.5 215  47  PU 1  78.88 37.03 38.46 0.47 -1.90* 0.00  W  0.000 5.58  93   3.73 D                        
 PMP  NC VHZ VP234.2 230  47  PD 3  79.26 37.41 38.56 0.11 -1.26* 0.00  W  0.000 0.18  97   5.11 D                        
 BEH  NC VHZ VB234.4 245  47  PU 3  79.29 37.44 38.58 0.16 -1.30* 0.00  W  0.000 0.18 123   5.25 D                        
 BBN  NC VHZ VB235.1 240  47  PU 3  79.34 37.49 38.67 0.27 -1.45* 0.00  W  0.000 0.35 229 1 5.44 D                        
 HLT  NC VHZ VH235.7 252  47  PU 3  79.14 37.29 38.74-0.14 -1.31* 0.00  W  0.000 0.35 115   5.26 D                        
 WBS  CI VHZ VW235.8 165  47  P  2  79.67 37.82 38.76 0.27 -1.21* 0.00  W  0.000 5.58  89   3.75 D                        
 BRV  NC VHZ VB235.9 238  47  PU 1  79.11 37.26 38.76 0.08 -1.58* 0.00  W  0.000 0.35 117   4.94 D                        
 PMM  NC VHZ VP236.3 221  47  PU 1  79.50 37.65 38.81 0.61 -1.77* 0.00  W  0.000 1.40  85   4.16 D                        
 PBW  NC VHZ VP236.4 234  47  PU    79.26 37.41 38.83-0.06 -1.36* 0.00  W  0.000 0.35  87 1 4.64 D                        
 AFH  NC VHZ VA236.8 314  47  PD    80.66 38.81 38.88-0.17  0.10  0.00  W  0.000 1.40  93   4.18 D                        
 PHF  NC VHZ VP237.4 218  47  PU 2  79.18 37.33 38.96 0.00 -1.63* 0.00  W  0.000 1.40  81 1 4.26 D                        
 HJS  NC VHZ VH237.5 250  47  PU    79.52 37.67 38.96-0.13 -1.16* 0.00  W  0.000 5.58 117   3.97 D                        
 PBS  NC VHZ VP237.6 211  47  PU 1  79.51 37.66 38.98 0.00 -1.32* 0.00  W  0.000 1.40  81   4.14 D                        
 CST  NC VHZ VC237.8 273  47  PU    79.65 37.80 39.00-0.07 -1.13* 0.00  W  0.000 2.80 150   4.27 D                        
 PMR  NC VHZ VP238.0 213  47  PU 1  79.36 37.51 39.03 0.00 -1.52* 0.00  W  0.000 5.58  93   3.68 D                        
 CMM  NC VHZ VC238.1 268  47  PU    79.49 37.64 39.04-0.17 -1.23* 0.00  W  0.000 2.80  99   4.36 D                        
 BHR  NC VHZ VB238.8 248  47  PU 1  79.67 37.82 39.13-0.06 -1.25* 0.00  W  0.000 2.80 121   3.93 D                        
 PST  NC VHZ VP239.4 221  47  PU 2  79.43 37.58 39.21 0.84 -2.47* 0.00  W  0.000 2.80  75 1 3.86 D                        
 PGH  NC VHZ VP239.5 216  47  PU 2  79.09 37.24 39.22-0.47 -1.51* 0.00  W  0.000 5.58  65   3.65 D                        
 HFE  NC VHZ VH240.1 255  47  PU 1  79.77 37.92 39.29-0.18 -1.19* 0.00  W  0.000 0.18  99   5.31 D                        
 BVL  NC VHZ VB240.3 243  47  PU    79.87 38.02 39.31 0.24 -1.53* 0.00  W  0.000 0.70 143   4.93 D                        
 PHP  NC VHZ VP240.6 223  47  PD 1  79.33 37.48 39.35 0.13 -2.00* 0.00  W  0.000 1.40  97   4.14 D                        
 PHP  NC VLZ ZP240.6 223  47  P  1  79.69 37.84 39.35 0.13 -1.64* 0.00  W  0.000 0.18   5 4 0.02XZ                        
 HGS  NC VHZ VH240.6 258  47  PU    80.04 38.19 39.36-0.03 -1.14* 0.00  W  0.000 5.58 107   4.06 D                        
 PHA  NC VHZ VP241.4 217  47  PU 2  79.54 37.69 39.45 0.00 -1.76* 0.00  W  0.000 5.58 105   3.51 D                        
 AFD  NC VHZ VA241.7 310  47  PU    81.36 39.51 39.49-0.33  0.35  0.00  W  0.000 5.58 136   4.41 D                        
 BLR  NC VHZ VB242.2 246  47  PD 3  81.31 39.46 39.55 0.26 -0.35  0.00  W  0.000 5.58 248 2 4.29 D                        
 AHR  NC VHZ VA242.9 306  47  PD    81.20 39.35 39.64-0.35  0.06  0.00  W  0.000 2.80 117   4.49 D                        
 CAO  NC VHZ VC243.0 265  47  PU 3  80.10 38.25 39.65-0.33 -1.07* 0.00  W  0.000 0.35 105 1 5.18 D                        
 PHO  NC VHZ VP243.0 219  47  PU 1  79.79 37.94 39.66 0.00 -1.72* 0.00  W  0.000 1.40 105 1 3.99 D                        
 BPI  NC VHZ VB243.3 241  47  PU 3  79.90 38.05 39.70-0.19 -1.46* 0.00  W  0.00011.65 137   4.03 D                        
 BSL  NC VHZ VB243.5 249  47  PU    80.54 38.69 39.71 0.03 -1.05* 0.00  W  0.000 2.80 123   3.68 D                        
 PAG  NC VHZ VP243.5 213  47  PU    79.88 38.03 39.72-0.09 -1.60* 0.00  W  0.000 5.58 135   3.99 D                        
 WJP  CI VHZ VW243.9 173  47  PD    81.24 39.39 39.76 0.09 -0.46  0.00  W  0.000 5.58 111   4.06 D                        
 HPH  NC VHZ VH244.9 252  47  PD 1  81.00 39.15 39.89 0.46 -1.20* 0.00  W  0.000 0.02  77   5.10 D                        
 HCA  NC VHZ VH245.7 256  47  PU    80.73 38.88 39.99-0.05 -1.06* 0.00  W  0.000 0.35 105   5.04 D                        
 BCG  NC VHZ VB245.8 248  47  PU 3  80.60 38.75 40.01 0.06 -1.32* 0.00  W  0.000 0.18  93   5.19 D                        
 HSP  NC VHZ VH246.0 259  47  PU    80.87 39.02 40.03 0.00 -1.01* 0.00  W  0.000 5.58 119   3.89 D                        
 BJO  NC VHZ VB248.2 245  47  PU 2  80.38 38.53 40.31-0.15 -1.63* 0.00  W  0.000 5.58  99   3.95 D                        
 PLO  NC VHZ VP249.2 234  47  PU 1  80.75 38.90 40.42-0.06 -1.46* 0.00  W  0.000 2.80 125   3.93 D                        
 PTR  NC VHZ VP249.3 211  47  PU    80.83 38.98 40.44 0.00 -1.46* 0.00  W  0.000 5.58  87   3.50 D                        
 PWK  NC VHZ VP249.4 219  47  PU 1  80.70 38.85 40.45-0.33 -1.27* 0.00  W  0.000 2.80 109   3.83 D                        
 PMC  NC VHZ VP250.1 215  47  PU 2  80.82 38.97 40.54 0.06 -1.63* 0.00  W  0.000 5.58  93   3.30 D                        
 BVY  NC VHZ VB250.2 249  47  PU    81.16 39.31 40.55-0.17 -1.07* 0.00  W  0.000 5.58 103   3.98 D                        
 WSH  CI VHZ VW250.5 151  47  PD    83.38 41.53 40.59-0.94  1.88* 0.00  W  0.00011.65  83 1 3.39 D                        
 CBS  NC VHZ VC251.3 277  47  PU 3  81.42 39.57 40.70 0.28 -1.41* 0.00  W  0.000 2.80 127   3.94 D                        
 HOR  NC VHZ VH251.8 254  47  PU    81.26 39.41 40.75-0.22 -1.12* 0.00  W  0.000 0.18 157   5.15 D                        
 CML  NC VHZ VC252.0 268  47  PU 2  81.42 39.57 40.78 0.31 -1.52* 0.00  W  0.000 5.58  73   3.78 D                        
 HSF  NC VHZ VH254.1 251  47  PU    81.92 40.07 41.04 0.25 -1.22* 0.00  W  0.000 2.80 105   3.93 D                        
 BSG  NC VHZ VB254.3 240  47  PU    81.42 39.57 41.07-0.03 -1.47* 0.00  W  0.000 0.18  73   5.10 D                        
 APR  NC VHZ VA254.8 305  47  PD 1  83.04 41.19 41.13-0.29  0.35  0.00  W  0.000 5.58 135   4.34 D                        
 CSA  NC VHZ VC255.9 273  47  PU 1  81.22 39.37 41.27-0.12 -1.78* 0.00  W  0.000 0.70  91   4.18 D                        
 HCR  NC VHZ VH256.3 255  47  PU    81.51 39.66 41.32-0.40 -1.26* 0.00  W  0.000 5.58  93 1 3.97 D                        
 HBT  NC VHZ VH257.3 253  47  PD 1  82.34 40.49 41.45 0.00 -0.96* 0.00  W  0.000 2.80  73   3.80 D                        
 BJC  NC VHZ VB257.8 245  47  PU    81.74 39.89 41.50-0.46 -1.15* 0.00  W  0.00011.65 107   3.79 D                        
 PIR  NC VHZ VP259.4 210  47  PD    82.28 40.43 41.70 0.00 -1.27* 0.00  W  0.000 1.40  87   3.96 D                        
 HAZ  NC VHZ VH259.5 254  47  PD 3  81.72 39.87 41.71-0.24 -1.60* 0.00  W  0.000 0.18  77   5.19 D                        
 HJG  NC VHZ VH261.2 252  47  P  1  81.95 40.10 41.93-0.44 -1.39* 0.00  W  0.000 5.58  57   3.53 D                        
 BSR  NC VHZ VB262.2 248  47  PU    81.96 40.11 42.06-0.56 -1.39* 0.00  W  0.000 0.35  87   4.92 D                        
 TEJ  CI VHZ VT262.3 177  47  PD 3  84.21 42.36 42.07 0.00  0.29  0.00  W  0.000 2.80  87   3.93 D                        
 CMH  NC VHZ VC262.4 266  47  PD    83.15 41.30 42.08 0.09 -0.87* 0.00  W  0.000 0.35  83   4.87 D                        
 HCB  NC VHZ VH263.7 255  47  PU    82.66 40.81 42.24-0.34 -1.09* 0.00  W  0.000 0.04 101   5.64 D                        
 CMO  NC VHZ VC265.5 277  47  PU 1  83.17 41.32 42.47 0.14 -1.29* 0.00  W  0.000 2.80 133   4.26 D                        
 PSC  NC VHZ VP265.6 214  47  PU 1  82.92 41.07 42.48 0.00 -1.41* 0.00  W  0.000 1.40 105   4.10 D                        
 HDL  NC VHZ VH265.8 253  47  PU    82.40 40.55 42.51-0.76 -1.20* 0.00  W  0.000 0.18  95   5.44 D                        
 CVL  NC VHZ VC267.7 272  47  PD 1  84.06 42.21 42.74 0.60 -1.13* 0.00  W  0.000 2.80 127   3.96 D                        
 JST  NC VHZ VJ268.4 262  47  PU 1  83.17 41.32 42.83-0.38 -1.13* 0.00  W  0.000 2.80 113   4.21 D                        
 PCC  NC VHZ VP268.5 233  47  PU    83.51 41.66 42.84 0.00 -1.18* 0.00  W  0.000 2.80 121   4.26 D                        
 AAR  NC VHZ VA269.3 315  47  PD 1  85.69 43.84 42.94-0.05  0.95* 0.00  W  0.000 1.40  81   4.11 D                        
 BSM  NC VHZ VB269.4 241  47  PU    83.45 41.60 42.95 0.33 -1.68* 0.00  W  0.000 2.80  77   3.86 D                        
 CMJ  NC VHZ VC271.2 270  47  PU 1  83.80 41.95 43.18 0.02 -1.25* 0.00  W  0.000 5.58  97   3.90 D                        
 BMT  CI VHZ VT273.2 176  47  PD 2  85.15 43.30 43.43 0.32 -0.45  0.00  W  0.00011.65 129   4.07 D                        
 ARV  CI VHZ VT273.7 181  47  PU 2  85.49 43.64 43.49 0.00  0.15  0.00  W  0.000 5.58 212 1 4.81 D                        
 JAL  NC VHZ VJ273.8 261  47  PU 1  83.90 42.05 43.51-0.45 -1.01* 0.00  W  0.000 2.80  75   3.86 D                        
