 HYPOINVERSE 2000 (8/98 VERSION) RUN ON Thu Aug  6 17:23:51 1998  RUN LABEL= 

 STATIONS:                                 NCG                                                              LEW
      NAME NT COM CR  --LAT---  ---LON--- PDLY1 A  FCOR FWT FMC.EXPIRE  XCOR XWT PSWT  CAL  CAL.EXPIRE PER TYP PDLY2
    1 HPC  NC VLZ ZH  37  3.60  121 16.55 -0.20 A  0.00 1.0          0  0.00 1.0 0.00  0.09          0 0.2  1  -0.27
    2 AAR  NC VHZ VA  39 16.56  121  1.62  0.26   -0.06 1.0          0 -0.18 1.0 1.00  1.40          0 0.2  1   0.00
    3 AAS  NC VHZ VA  38 25.81  121  6.58 -0.29    0.14 1.0          0  0.28 1.0 1.00  2.80          0 0.2  1   0.00
    4 ABA  NC VHZ VA  38 52.76  121  4.05  0.00    0.00 1.0          0  0.00 1.0 1.00  2.80          0 0.2  1   0.00
    5 ABJ  NC VHZ VA  39  9.95  121 11.58 -0.10    0.28 1.0          0  0.13 1.0 1.00  2.80          0 0.2  1   0.00
    6 ABR  NC VHZ VA  39  8.29  121 29.29 -0.27   -0.18 1.0          0 -0.10 1.0 1.00  0.70 1978011820 0.2  1   0.00
    7 ADW  NC VHZ VA  38 26.34  120 50.96 -0.05    0.19 1.0          0  0.18 1.0 1.00  2.80 1977122018 0.2  1   0.00
    8 AFD  NC VHZ VA  38 56.76  120 58.14  0.20    0.37 1.0          0  0.30 1.0 1.00  5.58 1984042321 0.2  1   0.00
    9 AFD  NC VLE EA  38 56.76  120 58.14  0.20    0.00 1.0          0  0.00 1.0 1.00  5.58 1979062720 0.2  1   0.00
   10 AFD  NC VLN NA  38 56.76  120 58.14  0.20    0.00 1.0          0  0.00 1.0 1.00  5.58 1979062720 0.2  1   0.00
   11 AFD  NC VLZ ZA  38 56.76  120 58.14  0.20    0.00 1.0          0  0.00 1.0 1.00  0.18          0 0.2  1   0.00
   12 AFH  NC VHZ VA  39  2.40  120 47.70  0.14   -0.09 1.0          0 -0.17 1.0 1.00  1.40          0 0.2  1   0.00
   13 AFO  NC VHZ VA  38 56.69  120 58.10  0.23    0.00 1.0          0  0.00 1.0 1.00  2.80 1984042321 0.2  1   0.00
   14 AFR  NC VHZ VA  38 47.53  121 20.96 -0.04   -0.26 1.0          0 -0.15 1.0 1.00  1.40 1988051921 0.2  1   0.00
   15 AGI  NC VHZ VA  38 50.68  120 58.88  0.19    0.00 1.0          0  0.00 1.0 1.00  5.58 1982112322 0.2  1   0.00
   16 AHD  NC VHZ VA  39  2.90  121  4.59  0.18    0.00 1.0          0  0.00 1.0 1.00  2.80          0 0.2  1   0.00
   17 AHR  NC VHZ VA  38 51.29  121  4.32  0.16    0.29 1.0          0  0.29 1.0 1.00  2.80 1981040821 0.2  1   0.00
   18 ALA  NC VHZ VA  38 34.03  120 57.42 -0.01    0.36 1.0          0  0.27 1.0 1.00 11.65 1978102420 0.2  1   0.00
   19 ALN  NC VHZ VA  38 55.75  121 17.22  0.17   -0.02 1.0          0 -0.04 1.0 1.00  1.40          0 0.2  1   0.00
   20 AOD  NC VHZ VA  38 36.88  120 43.81 -0.04    0.24 1.0          0  0.19 1.0 1.00  5.58          0 0.2  1   0.00
   21 AOH  NC VHZ VA  39 22.58  121 15.46 -0.06    0.17 1.0          0  0.01 1.0 1.00  5.58 1984022220 0.2  1   0.00
   22 APG  NC VHZ VA  38 47.56  121 21.52  0.00    0.00 1.0          0  0.00 1.0 1.00  1.40          0 0.2  1   0.00
   23 APR  NC VHZ VA  38 52.62  121 13.09  0.09    0.29 1.0          0  0.40 1.0 1.00  5.58 1985040319 0.2  1   0.00
   24 ARJ  NC VHZ VA  38 41.18  120 57.46  0.20    0.28 1.0          0  0.23 1.0 1.00  2.80 1977032520 0.2  1   0.00
   25 ARR  NC VHZ VA  38 45.90  121 10.35  0.09    0.52 1.0          0  0.45 1.0 1.00  5.58 1977080418 0.2  1   0.00
   26 ARW  NC VHZ VA  38 57.38  121  9.73  0.07    0.00 1.0          0  0.00 1.0 1.00  5.58 1977112923 0.2  1   0.00
   27 ASM  NC VHZ VA  38 49.43  120 41.10  0.82    0.10 1.0          0 -0.05 1.0 1.00  1.40 1985010822 0.2  1   0.00
   28 ASR  NC VHZ VA  38 29.86  121 12.29  0.00    0.00 1.0          0  0.00 1.0 1.00  0.70          0 0.2  1   0.00
   29 AVR  NC VHZ VA  39  1.46  121 16.31 -0.10    0.39 1.0          0  0.34 1.0 1.00 11.65 1979011619 0.2  1   0.00
   30 BAP  NC VHZ VB  36 10.83  121 38.66 -0.11    0.00 1.0          0 -0.17 1.0 1.00  2.80          0 0.2  1   0.00
   31 BAV  NC VLE EB  36 38.76  121  1.81 -0.25 A  0.30 1.0          0  0.17 1.0 1.00  0.18 1981042323 0.2  1  -0.59
   32 BAV  NC VLN NB  36 38.76  121  1.81 -0.25 A  0.27 1.0          0  0.11 1.0 1.00  0.18 1981042323 0.2  1  -0.59
   33 BAV  NC VHZ VB  36 38.76  121  1.81 -0.25 A  0.22 1.0          0  0.27 1.0 1.00 11.65 1977042019 0.2  1  -0.59
   34 BAV  NC VLZ ZB  36 38.76  121  1.81 -0.25 A  0.16 1.0          0  0.16 1.0 1.00  0.18 1990032321 0.2  1  -0.59
   35 BBG  NC VHZ VB  36 34.68  121  2.35  0.12 A -0.39 1.0          0 -0.21 1.0 1.00  5.58 1988022623 0.2  1   0.00
   36 BBM  NC VHZ VB  36 35.48  121  1.52  0.00 A  0.00 1.0          0  0.00 1.0 1.00  0.18 1977070619 0.2  1   0.00
   37 BBN  NC VHZ VB  36 30.57  121  4.63  0.27 A -0.30 1.0          0 -0.04 1.0 1.00  0.35 1977021621 0.2  1   0.00
   38 BBN  NC VHZ VB  36 30.60  121  4.53  0.27 A  0.00 1.0          0  0.00 1.0 1.00  0.00          0 0.2  1   0.00
   39 BCG  NC VHZ VB  36 42.58  121 20.57  0.27    0.01 1.0          0  0.07 1.0 1.00  0.18 1977011720 0.2  1   0.12
   40 BCW  NC VHZ VB  36 18.39  121 34.01 -0.29    0.17 1.0          0 -0.05 1.0 1.00  2.80          0 0.2  1   0.00
   41 BEH  NC VHZ VB  36 39.89  121 10.52 -0.06 A -0.19 1.0          0 -0.14 1.0 1.00  0.18 1977111821 0.2  1  -0.31
   42 BEM  NC VHZ VB  36 39.66  121  5.81 -0.23 A  0.01 1.0          0 -0.05 1.0 1.00 11.65 1977032218 0.2  1  -0.27
   43 BHR  NC VHZ VB  36 43.65  121 15.99 -0.07 A -0.30 1.0          0 -0.13 1.0 1.00  2.80 1982011122 0.2  1  -0.02
   44 BHS  NC VHZ VB  36 21.35  121 32.39 -0.25    0.00 1.0          0  0.00 1.0 1.00  5.58 1978032922 0.2  1   0.00
   45 BJC  NC VLN NB  36 32.82  121 23.53 -0.40    0.00 1.0          0  0.00 1.0 1.00  0.00          0 0.2  1   0.00
   46 BJC  NC VHZ VB  36 32.83  121 23.63 -0.40    0.28 1.0          0  0.20 1.0 1.00 11.65 1979022819 0.2  1   0.00
   47 BJC  NC VHZ VB  36 32.82  121 23.53 -0.40    0.00 1.0          0  0.00 1.0 1.00  0.00          0 0.2  1   0.00
   48 BJO  NC VLN NB  36 36.66  121 18.85 -0.08    0.00 1.0          0  0.00 1.0 1.00  0.00          0 0.2  1  -0.49
   49 BJO  NC VHZ VB  36 36.66  121 18.85 -0.08    0.21 1.0          0  0.14 1.0 1.00  5.58 1988061601 0.2  1  -0.49
   50 BLR  NC VHZ VB  36 39.99  121 16.40  0.51   -0.33 1.0          0 -0.07 1.0 1.00  5.58 1987113019 0.2  1   0.14
   51 BMC  NC VHZ VB  36 39.40  121 21.92 -0.03    0.00 1.0          0  0.00 1.0 1.00 11.65 1982020223 0.2  1  -0.16
   52 BMH  NC VLE EB  36 41.18  121 24.80 -0.12    0.00 1.0          0  0.00 1.0 1.00  2.80          0 0.2  1  -0.10
   53 BMH  NC VLN NB  36 41.18  121 24.80 -0.12    0.00 1.0          0  0.00 1.0 1.00  2.80          0 0.2  1  -0.10
   54 BMH  NC VHZ VB  36 41.18  121 24.80 -0.12    0.00 1.0          0  0.00 1.0 1.00 11.65          0 0.2  1  -0.10
   55 BMS  NC VHZ VB  36 39.78  120 47.58  0.13 A  0.00 1.0          0 -0.05 1.0 1.00  5.58 1977040722 0.2  1   0.00
   56 BPC  NC VLN NB  36 34.40  121 37.61 -0.14   -0.17 1.0          0 -0.15 1.0 1.00  0.18          0 0.2  1  -0.25
   57 BPC  NC VHZ VB  36 34.40  121 37.61 -0.14   -0.20 1.0          0 -0.16 1.0 1.00  5.58          0 0.2  1  -0.25
   58 BPF  NC VLN NB  36 13.82  121 46.32 -0.29   -0.07 1.0          0 -0.12 1.0 1.00  0.18 1983061219 0.2  1   0.00
   59 BPF  NC VHZ VB  36 13.82  121 46.32 -0.29    0.10 1.0          0  0.03 1.0 1.00  1.40 1977020420 0.2  1   0.00
   60 BPI  NC VHZ VB  36 29.40  121 10.17 -0.15    0.30 1.0          0  0.22 1.0 1.00 11.65          0 0.2  1  -0.35
   61 BPN  NC VHZ VB  36 33.73  121 38.18 -0.33    0.00 1.0          0  0.00 1.0 1.00  0.00          0 0.2  1  -0.42
   62 BPO  NC VLN NB  36 13.70  121 46.06 -0.05    0.00 1.0          0  0.00 1.0 1.00  0.18          0 0.2  1   0.00
   63 BPO  NC VHZ VB  36 13.70  121 46.06 -0.05    0.00 1.0          0  0.00 1.0 1.00  5.58          0 0.2  1   0.00
   64 BPP  NC VHZ VB  36 10.12  121 22.68 -0.26    0.00 1.0          0  0.00 1.0 1.00  5.58          0 0.2  1   0.00
   65 BPR  NC VHZ VB  36 24.43  121 43.83 -0.33    0.03 1.0          0 -0.13 1.0 1.00  2.80 1994051100 0.2  1   0.00
   66 BPY  NC VHZ VB  36 33.90  121 38.15 -0.26    0.00 1.0          0  0.00 1.0 1.00  2.80 1977052320 0.2  1  -0.39
   67 BR1  NC VLN NB  36 40.11  121 31.15 -0.30    0.00 1.0          0  0.00 1.0 1.00  0.00          0 0.2  1  -0.46
   68 BR1  NC VHZ VB  36 40.11  121 31.15 -0.30    0.00 1.0          0  0.00 1.0 1.00  0.00          0 0.2  1  -0.46
   69 BRM  NC VHZ VB  36 50.70  120 49.48  0.52 A -0.26 1.0          0 -0.21 1.0 1.00  2.80          0 0.2  1   0.41
   70 BRV  NC VHZ VB  36 25.48  121  1.15  0.19   -0.15 1.0          0  0.02 1.0 1.00  0.35 1977052100 0.2  1   0.00
   71 BS2  NC VHZ VB  36 38.02  121 14.01  0.39    0.00 1.0          0  0.00 1.0 1.00  0.00          0 0.2  1  -0.12
   72 BS3  NC VHZ VB  36 38.10  121 14.38  0.40    0.00 1.0          0  0.00 1.0 1.00  0.00          0 0.2  1   0.00
   73 BS4  NC VHZ VB  36 37.98  121 14.05  0.43    0.00 1.0          0  0.00 1.0 1.00  0.00          0 0.2  1   0.00
   74 BSB  NC VHZ VB  36 44.27  121 17.21  0.08 A  0.00 1.0          0  0.00 1.0 1.00  2.80          0 0.2  1   0.03
   75 BSC  NC VLE EB  36 38.50  121 15.59  0.41    0.06 1.0          0  0.23 1.0 1.00  0.18 1981042421 0.2  1  -0.16
   76 BSC  NC VLN NB  36 38.50  121 15.59  0.41    0.11 1.0          0  0.27 1.0 1.00  0.18 1981042421 0.2  1  -0.16
   77 BSC  NC VHZ VB  36 38.50  121 15.59  0.41    0.18 1.0          0  0.17 1.0 1.00  5.58 1977072619 0.2  1  -0.16
   78 BSC  NC VLZ ZB  36 38.50  121 15.59  0.41   -0.07 1.0          0  0.18 1.0 1.00  0.18 1988012220 0.2  1  -0.16
   79 BSG  NC VLE EB  36 24.83  121 15.31 -0.42    0.14 1.0          0  0.09 1.0 1.00  0.18 1981042319 0.2  1   0.00
   80 BSG  NC VLN NB  36 24.83  121 15.31 -0.42    0.14 1.0          0  0.09 1.0 1.00  0.18 1981042319 0.2  1   0.00
   81 BSG  NC VHZ VB  36 24.83  121 15.31 -0.42    0.14 1.0          0  0.06 1.0 1.00  0.18 1977021020 0.2  1   0.00
   82 BSG  NC VLZ ZB  36 24.83  121 15.31 -0.42    0.02 1.0          0  0.07 1.0 1.00  0.18 1990031923 0.2  1   0.00
   83 BSL  NC VHZ VB  36 46.59  121 21.01  0.07 A -0.57 1.0          0 -0.38 1.0 1.00  2.80 1977111700 0.2  1   0.26
   84 BSM  NC VHZ VB  36 23.02  121 25.75 -0.23    0.04 1.0          0 -0.10 1.0 1.00  2.80 1993042723 0.2  1   0.00
   85 BSM  NC VHZ VB  36 23.03  121 25.63 -0.23    0.00 1.0          0  0.00 1.0 1.00  0.00          0 0.2  1   0.00
   86 BSR  NC VLE EB  36 40.05  121 31.22 -0.31   -0.08 1.0          0 -0.10 1.0 1.00  5.58 1977032322 0.2  1  -0.48
   87 BSR  NC VLN NB  36 40.05  121 31.22 -0.31   -0.04 1.0          0  0.02 1.0 1.00  5.58 1977032322 0.2  1  -0.48
   88 BSR  NC VHZ VB  36 40.05  121 31.22 -0.31    0.09 1.0          0  0.04 1.0 1.00  0.35 1977030423 0.2  1  -0.48
   89 BSR  NC VLZ ZB  36 40.05  121 31.22 -0.31   -0.14 1.0          0 -0.07 1.0 1.00  0.18 1990031321 0.2  1  -0.48
   90 BVL  NC VLE EB  36 34.49  121 11.41  0.30    0.00 1.0          0  0.00 1.0 1.00  0.09          0 0.2  1   0.00
   91 BVL  NC VLN NB  36 34.49  121 11.41  0.30    0.00 1.0          0  0.00 1.0 1.00  0.09          0 0.2  1   0.00
   92 BVL  NC VHZ VB  36 34.49  121 11.41  0.30   -0.06 1.0          0  0.08 1.0 1.00  0.70 1977032422 0.2  1   0.00
   93 BVY  NC VHZ VB  36 44.77  121 24.95  0.20    0.20 1.0          0  0.38 1.0 1.00  5.58 1977041817 0.2  1   0.33
   94 CAC  NC VLN NC  37 58.57  121 45.62  0.59 A  0.00 1.0          0  0.00 1.0 1.00  0.00          0 0.2  1   1.25
   95 CAC  NC VHZ VC  37 58.57  121 45.62  0.59 A -0.47 1.0          0 -0.32 1.0 1.00  1.40 1982033020 0.2  1   1.25
   96 CAD  NC VHZ VC  37  9.83  121 37.66 -0.03 A  0.11 1.0          0  0.00 1.0 1.00 11.65 1977033019 0.2  1   0.26
   97 CAD  NC VHZ VC  37  9.77  121 37.45 -0.03 A  0.00 1.0          0  0.00 1.0 1.00  0.00          0 0.2  1   0.26
   98 CAI  NC VHZ VC  37 51.68  122 25.80 -0.25    0.11 1.0          0 -0.05 1.0 1.00  2.80          0 0.2  1  -0.43
   99 CAL  NC VLE EC  37 27.03  121 48.00 -0.13 A  0.25 1.0          0  0.24 1.0 1.00  0.18 1979081316 0.2  1  -0.15
  100 CAL  NC VLN NC  37 27.03  121 48.00 -0.13 A  0.25 1.0          0  0.21 1.0 1.00  0.18 1979081316 0.2  1  -0.15
  101 CAL  NC VHZ VC  37 27.03  121 48.00 -0.13 A  0.25 1.0          0  0.33 1.0 1.00 11.65 1986101619 0.2  1  -0.15
  102 CAL  NC VLZ ZC  37 27.03  121 48.00 -0.13 A  0.18 1.0          0  0.22 1.0 1.00  0.18 1988022420 0.2  1  -0.15
  103 CAO  NC VLE EC  37 20.91  121 32.08 -0.07 A  0.34 1.0          0  0.20 1.0 1.00  0.18 1979081422 0.2  1  -0.13
  104 CAO  NC VLN NC  37 20.91  121 32.08 -0.07 A  0.29 1.0          0  0.19 1.0 1.00  0.18 1979081422 0.2  1  -0.13
  105 CAO  NC VHZ VC  37 20.91  121 32.08 -0.07 A  0.19 1.0          0  0.27 1.0 1.00  0.35 1977031123 0.2  1  -0.13
  106 CAO  NC VLZ ZC  37 20.91  121 32.08 -0.07 A  0.18 1.0          0  0.21 1.0 1.00  0.18 1990030622 0.2  1  -0.13
  107 CBH  NC VHZ VC  37 47.81  121 38.77  0.19 A  0.00 1.0          0  0.00 1.0 1.00  2.80          0 0.2  1   0.73
  108 CBK  NC VHZ VC  37 52.56  122 14.88  0.00    0.00 1.0          0  0.00 1.0 1.00  1.40          0 0.2  1  -0.17
  109 CBR  NC VLN NC  37 48.99  122  3.78  0.18 A  0.23 1.0          0  0.15 1.0 1.00  0.18          0 0.2  1   0.49
  110 CBR  NC VHZ VC  37 48.99  122  3.78  0.18 A  0.09 1.0          0  0.07 1.0 1.00  2.80          0 0.2  1   0.49
  111 CBR  NC VDZ UC  37 48.99  122  3.78  0.18 A  0.00 1.0          0  0.00 1.0 1.00  0.23          0 0.2  3   0.49
  112 CBR  NC ADN JC  37 48.99  122  3.78  0.18 A  0.00 1.0          0  0.00 1.0 1.00  0.00          0 0.2  0   0.49
  113 CBR  NC ADE KC  37 48.99  122  3.78  0.18 A  0.00 1.0          0  0.00 1.0 1.00  0.00          0 0.2  0   0.49
  114 CBS  NC VHZ VC  37 49.07  121 38.48  0.15 A -0.35 1.0          0 -0.17 1.0 1.00  2.80          0 0.2  1   0.74
  115 CBW  NC VHZ VC  37 55.45  122  6.46  0.00 A -0.17 1.0          0 -0.07 1.0 1.00  2.80 1979052919 0.2  1   0.54
  116 CCH1 NC DDI PC  37 44.59  122  5.80 -0.45 A  0.00 1.0          0  0.00 1.0 1.00  0.00          0 0.2  1   0.03
  117 CCH1 NC VDN WC  37 44.59  122  5.80 -0.45 A  0.00 1.0          0  0.00 1.0 1.00  0.23          0 0.2  3   0.03
  118 CCH1 NC VDE XC  37 44.59  122  5.80 -0.45 A  0.00 1.0          0  0.00 1.0 1.00  0.23          0 0.2  3   0.03
  119 CCH1 NC ASZ IC  37 44.59  122  5.80 -0.45 A  0.00 1.0          0  0.00 1.0 1.00  0.00          0 0.2  0   0.03
  120 CCH1 NC ASN JC  37 44.59  122  5.80 -0.45 A  0.00 1.0          0  0.00 1.0 1.00  0.00          0 0.2  0   0.03
  121 CCH1 NC ASE KC  37 44.59  122  5.80 -0.45 A  0.00 1.0          0  0.00 1.0 1.00  0.00          0 0.2  0   0.03
  122 CCH1 NC ADZ IC  37 44.59  122  5.80 -0.45 A  0.00 1.0          0  0.00 1.0 1.00  0.00          0 0.2  0   0.03
  123 CCH1 NC ADN JC  37 44.59  122  5.80 -0.45 A  0.00 1.0          0  0.00 1.0 1.00  0.00          0 0.2  0   0.03
  124 CCH1 NC ADE KC  37 44.59  122  5.80 -0.45 A  0.00 1.0          0  0.00 1.0 1.00  0.00          0 0.2  0   0.03
  125 CCN  NC VHZ VC  37 47.49  121 56.89  0.38 A  0.00 1.0          0  0.00 1.0 1.00  0.70          0 0.2  1   0.43
  126 CCO  NC VHZ VC  37 15.49  121 40.47  0.06 A  0.05 1.0          0  0.08 1.0 1.00  0.18 1977042520 0.2  1   0.19
  127 CCO  NC VDZ UC  37 15.49  121 40.47  0.06 A  0.00 1.0          0  0.00 1.0 1.00  0.00          0 0.2  3   0.19
  128 CCO  NC ADN JC  37 15.49  121 40.47  0.06 A  0.00 1.0          0  0.00 1.0 1.00  0.00          0 0.2  0   0.19
  129 CCO  NC ADE KC  37 15.49  121 40.47  0.06 A  0.00 1.0          0  0.00 1.0 1.00  0.00          0 0.2  0   0.19
  130 CCR  NC VHZ VC  37 47.30  121 57.00  0.41    0.00 1.0          0  0.00 1.0 1.00  0.00          0 0.2  1   0.38
  131 CCY  NC VHZ VC  37 33.09  122  5.46 -0.38 A  0.32 1.0          0  0.24 1.0 1.00  2.80 1987072317 0.2  1  -0.33
  132 CDB  NC VHZ VC  37 52.90  121 54.85  0.00    0.00 1.0          0  0.00 1.0 1.00  0.00          0 0.2  1   0.23
  133 CDO  NC VHZ VC  37 43.80  121 50.18  0.34 A -0.38 1.0          0 -0.31 1.0 1.00  2.80 1981100217 0.2  1   0.81
  134 CDS  NC VHZ VC  37 57.98  122 15.17 -0.31 A  0.00 1.0          0  0.00 1.0 1.00  2.80          0 0.2  1   0.07
  135 CDU  NC VLN NC  38  1.79  122  0.10  0.44 A -0.35 1.0          0 -0.27 1.0 1.00  0.18 1986051505 0.2  1   0.56
  136 CDU  NC VHZ VC  38  1.79  122  0.10  0.44 A -0.72 1.0          0 -0.47 1.0 1.00  0.04 1977071322 0.2  1   0.56
  137 CGP  NC VHZ VC  37 38.72  122  0.69  0.06 A  0.00 1.0          0  0.00 1.0 1.00  2.80          0 0.2  1   0.04
  138 CGP1 NC DDI PC  37 38.72  122  0.69  0.00 A  0.00 1.0          0  0.00 1.0 1.00  0.00          0 0.2  1   0.00
  139 CGP1 NC VDN WC  37 38.72  122  0.69  0.00 A  0.00 1.0          0  0.00 1.0 1.00  0.23          0 0.2  3   0.00
  140 CGP1 NC VDE XC  37 38.72  122  0.69  0.00 A  0.00 1.0          0  0.00 1.0 1.00  0.23          0 0.2  3   0.00
  141 CGP1 NC ASZ IC  37 38.72  122  0.69  0.00 A  0.00 1.0          0  0.00 1.0 1.00  0.00          0 0.2  0   0.00
  142 CGP1 NC ASN JC  37 38.72  122  0.69  0.00 A  0.00 1.0          0  0.00 1.0 1.00  0.00          0 0.2  0   0.00
  143 CGP1 NC ASE KC  37 38.72  122  0.69  0.00 A  0.00 1.0          0  0.00 1.0 1.00  0.00          0 0.2  0   0.00
  144 CGP1 NC ADZ IC  37 38.72  122  0.69  0.00 A  0.00 1.0          0  0.00 1.0 1.00  0.00          0 0.2  0   0.00
  145 CGP1 NC ADN JC  37 38.72  122  0.69  0.00 A  0.00 1.0          0  0.00 1.0 1.00  0.00          0 0.2  0   0.00
  146 CGP1 NC ADE KC  37 38.72  122  0.69  0.00 A  0.00 1.0          0  0.00 1.0 1.00  0.00          0 0.2  0   0.00
  147 CLC  NC VHZ VC  37 44.28  122  3.90  0.19 A -0.13 1.0          0 -0.20 1.0 1.00  5.58 1977012621 0.2  1   0.25
  148 CMC  NC VHZ VC  37 46.87  122 10.61 -0.23 A -0.22 1.0          0 -0.15 1.0 1.00  1.40 1984060520 0.2  1  -0.03
  149 CMD  NC VHZ VC  37 52.04  121 55.69 -0.39    0.00 1.0          0  0.00 1.0 1.00  0.00          0 0.2  1   0.34
  150 CMH  NC VHZ VC  37 21.54  121 45.45  0.01 A  0.08 1.0          0  0.08 1.0 1.00  0.35 1977012618 0.2  1  -0.01
  151 CMJ  NC VHZ VC  37 31.21  121 52.40  0.00 A  0.15 1.0          0  0.12 1.0 1.00  5.58 1981041621 0.2  1  -0.03
  152 CMK  NC ASZ IC  37 29.09  121 51.99  0.00    0.00 1.0          0  0.00 1.0 1.00  0.00          0 0.2  0   0.00
  153 CMK  NC ASN JC  37 29.09  121 51.99  0.00    0.00 1.0          0  0.00 1.0 1.00  0.00          0 0.2  0   0.00
  154 CMK  NC ASE KC  37 29.09  121 51.99  0.00    0.00 1.0          0  0.00 1.0 1.00  0.00          0 0.2  0   0.00
  155 CML  NC VHZ VC  37 28.65  121 39.18  0.01 A  0.33 1.0          0  0.24 1.0 1.00  5.58 1982042918 0.2  1   0.12
  156 CMM  NC VHZ VC  37 27.34  121 29.62  0.01 A  0.33 1.0          0  0.29 1.0 1.00  2.80 1980030722 0.2  1   0.06
  157 CMO  NC VHZ VC  37 48.66  121 48.22  0.11 A -0.09 1.0          0 -0.02 1.0 1.00  2.80 1991100121 0.2  1   0.84
  158 CMP  NC VHZ VC  37 21.46  121 19.10  0.01 A  0.19 1.0          0  0.11 1.0 1.00  2.80 1980022800 0.2  1  -0.11
  159 CMR  NC VHZ VC  37 35.70  121 38.28 -0.06 A  0.15 1.0          0  0.13 1.0 1.00 11.65 1977063019 0.2  1   0.06
  160 CMW1 NC DDI PC  37 32.42  121 53.26 -0.32 A  0.00 1.0          0  0.00 1.0 1.00  0.00          0 0.2  1  -0.09
  161 CMW1 NC VDN WC  37 32.42  121 53.26 -0.32 A  0.00 1.0          0  0.00 1.0 1.00  0.23          0 0.2  3  -0.09
  162 CMW1 NC VDE XC  37 32.42  121 53.26 -0.32 A  0.00 1.0          0  0.00 1.0 1.00  0.23          0 0.2  3  -0.09
  163 CMW1 NC ASZ IC  37 32.42  121 53.26 -0.32 A  0.00 1.0          0  0.00 1.0 1.00  0.00          0 0.2  0  -0.09
  164 CMW1 NC ASN JC  37 32.42  121 53.26 -0.32 A  0.00 1.0          0  0.00 1.0 1.00  0.00          0 0.2  0  -0.09
  165 CMW1 NC ASE KC  37 32.42  121 53.26 -0.32 A  0.00 1.0          0  0.00 1.0 1.00  0.00          0 0.2  0  -0.09
  166 CMW1 NC ADZ IC  37 32.42  121 53.26 -0.32 A  0.00 1.0          0  0.00 1.0 1.00  0.00          0 0.2  0  -0.09
  167 CMW1 NC ADN JC  37 32.42  121 53.26 -0.32 A  0.00 1.0          0  0.00 1.0 1.00  0.00          0 0.2  0  -0.09
  168 CMW1 NC ADE KC  37 32.42  121 53.26 -0.32 A  0.00 1.0          0  0.00 1.0 1.00  0.00          0 0.2  0  -0.09
