 HYPOINVERSE 2000 (11/99 VERSION) RUN ON Thu May 18 11:09:42 2000      RUN LABEL= 


 TEST PARAMETERS:
   -ITERATION AND CONVERGENCE-     -WEIGHTING AND ERRORS-     -MISCELLANEOUS-
       20=ITRLIM   0.900=DAMP    15.000=DISCUT   0.100=RMSCUT       4=MINSTA
    0.040=DQUIT    0.001=DRQT     3.500=DISW1    2.000=RMSW1        2=NET
    7.000=DXFIX    0.012=EIGTOL   7.000=DISW2    3.000=RMSW2 
   30.000=DZMAX    0.020=RBACK        4=ITRDIS       4=ITRRES   5.000=ZTR
    0.500=DZAIR    0.600=BACFAC   1.000=SWT      0.100=RDERR    1.780=POS
                                                 1.000=ERCOF

      ------DURATION MAG CONSTANTS------       -DELAYS & MISC-    -STATIONS-
   -0.810=FMA1     0.000=FMA2   -1.0300=DMA0         T=LMULT        F=ATTEN
    2.220=FMB1     0.000=FMB2    2.1000=DMA1         T=CODAWT       5=SITE-LET
    0.000=FMZ1     0.000=FMZ2    0.0000=DMA2         T=LJUNK        2=NET-LET
    0.001=FMD1     0.000=FMD2    0.0000=DMZ                         3=COMP-LET
    0.000=FMF1     0.000=FMF2    1.0000=DMGN  
    1.000=FMGN  9999.000=FMBRK   0.0027=DMLIN 
   0.0050=DCOF1   40.000=DBRK1        1=LOGA0 
   0.0006=DCOF2  350.000=DBRK2 
   0.0140=ZCOF    10.000=ZBRK  

    DUR MAG COMPONENT CORRECTIONS:  VLZ=-.06  VLE=-.30  VLN=-.30
    AMP MAG COMPONENT CORRECTIONS:  VHZ=0.33  VLZ=0.20

    --- MAGNITUDE LABELS & COMPONENTS ---
    FMAG1: LABEL=D      COMPS= VHZ VHE VHN VLZ
    FMAG2: LABEL=Z      COMPS= VLZ
    XMAG1: LABEL=X      COMPS= VHZ VLZ VLE VLN VDZ VDN VDE
    XMAG2: LABEL=L      COMPS= WLN WLE HHN HHE BHN BHE
    FMAG1 MAGSEL=1  FMAG2 MAGSEL=3

 INPUT FILES:
 COMMANDS:    /home/calnet/klein/hypfiles/cal2000.hyp                     
                                                                          
 BINARY STATION SNAPSHOT FILE: /home/calnet/klein/hypfiles/allsta2.bin                     
 DELAYS:                                                                   
 ATTENUATIONS: /home/calnet/klein/hypfiles/all2000.atn                     
 CAL FACTORS:  /home/calnet/klein/hypfiles/all2000.cal                     
 FMAG CORRECT: /home/calnet/klein/hypfiles/all2000.fmc                     
 XMAG CORRECT: /home/calnet/klein/hypfiles/all2000.xmc                     

 PHASES:       test2000.arcin                                              
        PHASE FORMAT CODE= 5, TERMINATOR FORMAT CODE=1
 BINARY CRUST SNAPSHOT FILE: /home/calnet/klein/hypfiles/multmod2.bin                    

 OUTPUT FILES: (T IF APPENDED TO)
 (F) PRINTOUT:    test2000.prt                                                
 (F) SUMMARY:     test2000.sum                                                FORMAT CODE=1
 (F) ARCHIVE:     test2000.arcout                                             ARCHIVE FORMAT CODE= 3
 
 ####################################################################################
  26 JUN 1998, 20:07  SEQUENCE NO.    1, ID NO.  51057145
                                                        ADJUSTMENTS (KM)
  I ORIGIN   LAT N     LON W     Z   NWR  RMS    DT    DLAT   DLON    DZ    RR NF MOD
  1 41.10  37 35.70  118 50.05  5.00 189 1.31  0.629 -6.433  1.606  0.000 6.631 3 MAM
 FREE DEPTH
  2 41.73  37 32.23  118 51.14  5.00 189 1.14  0.095  0.343 -0.175  1.531 1.579 4 MAM
  3 41.82  37 32.41  118 51.02  6.53 189 1.14  0.007  0.163 -0.170  0.529 0.579 4 MAM
 BEGIN DISTANCE WEIGHTING
 BEGIN RESIDUAL WEIGHTING
  4 41.83  37 32.50  118 50.91  7.06  26 0.52  0.102  4.984 -3.403  1.802 6.298 4 MAM
  5 41.93  37 35.19  118 48.59  8.86  26 0.24 -0.045  0.474 -0.256 -2.372 2.432 4 MAM
  6 41.89  37 35.45  118 48.42  6.49  26 0.08 -0.042  0.077 -0.025 -0.185 0.202 4 MAM
  7 41.85  37 35.49  118 48.40  6.31  26 0.07 -0.008  0.076 -0.013 -0.037 0.085 4 MAM
  8 41.84  37 35.53  118 48.39  6.27  26 0.07 -0.001  0.003 -0.007  0.022 0.023 4 MAM
  9 41.84  37 35.53  118 48.39  6.29  26 0.07  0.001 -0.005  0.007 -0.035 0.036 4 MAM
 ERROR ELLIPSE: <SERR AZ DIP>-<   0.51 339 75>-<   0.32 197 11>-<   0.15 106  8>
 ------------------------------------------------------------------------------------
 YEAR MO DA  --ORIGIN--  --LAT N-  --LON W--  DEPTH   RMS   ERH   ERZ  XMAG  FMAG  PMAG
 1998-06-26  2007 41.84  37 35.53  118 48.39   6.29  0.07  0.32  0.49        3.99  4.26L
                                                                                          SOURCE
 NSTA NPHS  DMIN MODEL GAP ITR NFM NWR NWS NVR REMRKS-AVH  N.XMG-XMMAD-T   N.FMG-FMMAD-T  L F X
  189  189   2.0  MAM   95   9 178  26   0 189 MOR     2    0.00  0.00 X  172.25  0.11 D  W W  

 XMAG2-N.XMG2-XMMAD-T-S  FMAG2-N.FMG2-FMMAD-T-S  PREF.MAG-N.PMAG-PRMAD-T
                          4.63   1.00  0.00 Z W      4.26   8.00  0.00 L

 BERKELEY MAG= 4.26  NUMBER READINGS=  8.0  TYPE=L
 REGION= Mt. Morrison (RSM)         MODELS USED:  MAM=1.00

 STA NET COM CR DIST AZM  AN P/S WT   SEC (TOBS -TCAL -DLY  =RES)  WT   SR  INFO  CAL DUR-W-FMAG-T -AMP-U-PER-W-XMAG-T
 MCV  NC VHZ VM  2.0 264 159  PU    43.10  1.26  1.36-0.07 -0.03  1.14  W  0.492 2.80 159   4.04 D                         
 MDR  NC VHZ VM  5.7 333 130  PD    43.65  1.81  1.73 0.09 -0.01  1.14  W  0.219 2.80 589   5.32 D                         
 MCM  NC VHZ VM  6.2 288 127  PD    43.55  1.71  1.80-0.14  0.05  1.14  W  0.168 2.80 185   3.96 D                         
 MGP  NC VHZ VM  9.3 295 113  PD    44.09  2.25  2.25 0.00  0.00  1.14  W  0.086 2.80 416 2 4.43 D                         
 MLH  NC VHZ VM  9.6 356 112  PD    44.33  2.49  2.29 0.35 -0.15  1.14  W  0.219 1.40 677 2 5.78 D                         
 MLC  NC VHZ VM  9.9 284 111  PU    44.10  2.26  2.34-0.13  0.05  1.14  W  0.089 1.40 127   4.08 D                         
 MCS  NC VHZ VM 11.2 309 107  PD 1  44.47  2.63  2.55 0.04  0.04  0.57  W  0.021 2.80 212   4.12 D                         
 MSL  NC VHZ VM 13.5 282 100  PU    44.67  2.83  2.93-0.12  0.02  1.14  W  0.080 1.40 162   4.49 D                         
 MEM  NC VHZ VM 14.3 305  99  PD    44.95  3.11  3.06 0.04  0.01  1.14  W  0.085 2.80 276   4.32 D                         
 MTC  NC VLZ ZM 14.7 288  99  PD    45.07  3.23  3.13 0.03  0.07  1.14  W  0.076 0.18  79   4.63 Z                         
 MLK  NC VHZ VM 17.0 299  98  PD    45.49  3.65  3.50 0.12  0.03  1.14  W  0.088 1.40 175   4.52 D                         
 MLM  NC VHZ VM 19.5 321  96  PD 2  44.41  2.57  3.93 0.28 -1.64* 0.00  W  0.000 2.80 242   4.09 D                         
 MMP  NC VHZ VM 19.7 276  95  PU    45.61  3.77  3.96-0.20  0.01  1.14  W  0.109 2.80 139   4.05 D                         
 MMS  NC VHZ VM 20.3 283  95  PU    45.90  4.06  4.06 0.03 -0.03  1.14  W  0.103 1.40 125   4.22 D                         
 CAS  NN VHZ VU 22.6  94  91  PD    46.25  4.41  4.44-0.01 -0.02  1.14  W  0.140 5.58 147   3.79 D                         
 MDC  NC VHZ VM 24.5 303  93  PD    46.42  4.58  4.77-0.18 -0.01  1.14  W  0.136 5.58 205   4.36 D                         
 MDP  NC VHZ VM 24.5 281  94  PU    46.39  4.55  4.77-0.20 -0.02  1.14  W  0.125 1.40 117   4.15 D                         
 BEN  NN VHZ VU 24.7  56  94  PD    46.39  4.55  4.80-0.19 -0.06  1.14  W  0.22311.65 217   3.86 D                         
 MRC  NC VHZ VM 27.9  71  83  PU    47.06  5.22  5.34-0.09 -0.03  1.14  W  0.182 1.40 123   4.22 D                         
 MCD  NC VHZ VM 32.4  98  81  PU    48.07  6.23  6.09 0.13  0.01  1.14  W  0.141 2.80 191 1 3.57 D                         
 MTU  NC VHZ VM 34.1 140  81  PD    48.03  6.19  6.38-0.17 -0.02  1.14  W  0.235 2.80 123   4.06 D                         
 MFB  NC VHZ VM 38.0 118  80  PD    49.00  7.16  7.00 0.09  0.07  1.14  W  0.163 1.40 210   3.94 D                         
 SLK  NN VHZ VU 39.1 314  80  PU    48.92  7.08  7.19-0.19  0.08  1.14  W  0.186 5.58 162   3.98 D                         
 MMT  NC VHZ VM 40.8 235  80  PU    49.01  7.17  7.48-0.11 -0.20  1.14  W  0.278 1.40  95   4.17 D                         
 MLN  NN VHZ VU 41.0  89  80  PU    49.40  7.56  7.50-0.02  0.08  1.14  W  0.146 5.58  15 3 1.70 D                         
 BHP  NN VHZ VU 43.0 138  80  PD 2  49.67  7.83  7.85-0.09  0.07  0.23  W  0.009 5.58  17   1.82 D                         
 MWB  NC VHZ VM 62.7 138  80  PD    52.91 11.07 11.11-0.10  0.06  1.03  W  0.187 5.58 139   3.67 D                         
 MBE  NC VHZ VM103.1 205  79  PU    59.03 17.19 17.79-0.40 -0.20  0.00  W  0.000 1.40  95   4.14 D                         
 FRI  BK VHZ VM104.1 231  79  PU    59.31 17.47 17.95-0.47 -0.01  0.00  W  0.000 0.00   7 4 1.18XD                         
 MPR  NC VHZ VM109.1 283  79  PU    60.09 18.25 18.78-0.14 -0.39  0.00  W  0.000 5.58 141   3.93 D                         
 MPR  NC VLZ ZM109.1 283  79  PU 1  60.12 18.28 18.78-0.14 -0.36  0.00  W  0.000 0.09   7 4 2.19XZ                         
 MBU  NC VHZ VM112.2 269  79  PU    60.55 18.71 19.29-0.14 -0.44  0.00  W  0.000 5.58 115   3.74 D                         
 MLR  NC VHZ VM131.7 296  79  PU 3  63.84 22.00 22.52-0.74  0.22  0.00  W  0.00011.65 121   3.76 D                         
 MBO  NC VHZ VM137.9 275  78  PU    64.75 22.91 23.55-0.66  0.02  0.00  W  0.000 5.58 119   4.23 D                         
 MYL  NC VHZ VM144.6 262  78  P  2  65.96 24.12 24.65-0.43 -0.10  0.00  W  0.000 2.80  47   2.92 D                         
 MST  NC VHZ VM145.3 285  78  PU    65.55 23.71 24.76-0.98 -0.07  0.00  W  0.000 5.58 109   4.05 D                         
 MRH  NC VHZ VM147.1 190  78  PD    65.84 24.00 25.06-0.22 -0.84* 0.00  W  0.000 1.40  71   3.91 D                         
 MOY  NC VHZ VM159.1 283  77  PU    67.76 25.92 27.03-0.91 -0.20  0.00  W  0.000 2.80  93   4.14 D                         
 MCU  NC VHZ VM165.2 286  77  PU    68.68 26.84 28.04-0.95 -0.25  0.00  W  0.00011.65 115   3.78 D                         
 WLH  CI VHZ VW165.7 164  77  PD    69.34 27.50 28.12-0.54 -0.08  0.00  W  0.000 5.58 119 1 3.86 D                         
 MRF  NC VHZ VM167.1 297  77  PU 1  69.21 27.37 28.34-1.00  0.03  0.00  W  0.000 2.80  95   4.20 D                         
 MNH  NC VHZ VM187.1 290  77  PU    72.17 30.33 31.63-1.01 -0.29  0.00  W  0.00011.65 141   3.95 D                         
 PHB  NC VHZ VP187.6 218  77  PU    73.30 31.46 31.71-0.13 -0.12  0.00  W  0.000 1.40 139   4.03 D                         
 PDR  NC VHZ VP197.1 226  76  PU    74.33 32.49 33.26-0.25 -0.52* 0.00  W  0.000 2.80 141   4.04 D                         
 BRM  NC VHZ VB197.4 246  76  PU    74.61 32.77 33.32-0.16 -0.39  0.00  W  0.000 2.80 115 1 3.87 D                         
 WCH  CI VHZ VW201.1 160  76  PD    74.94 33.10 33.92-0.81 -0.01  0.00  W  0.000 5.58 107   4.03 D                         
 PAR  NC VHZ VP202.4 224  76  PU    75.11 33.27 34.13-0.18 -0.68* 0.00  W  0.000 2.80 119   3.91 D                         
 ADW  NC VHZ VA202.5 299  76  PU 2  74.60 32.76 34.16-0.96 -0.44  0.00  W  0.000 5.58  97 1 3.86 D                         
 WVP  CI VHZ VW202.6 153  76  PU 2  75.05 33.21 34.16-0.67 -0.28  0.00  W  0.00011.65 111   3.96 D                         
 AOD  NC VHZ VA203.4 305  76  PD 1  75.10 33.26 34.29-1.00 -0.03  0.00  W  0.000 5.58 109   4.03 D                         
 BMS  NC VHZ VB204.5 241  76  PU    75.31 33.47 34.47-0.13 -0.87* 0.00  W  0.000 5.58 117   3.86 D                         
 PKE  NC VHZ VP205.9 215  74  PU    75.83 33.99 34.71-0.13 -0.59* 0.00  W  0.000 1.40 109   4.09 D                         
 WAS  CI VHZ VW207.0 173  73  PD    76.01 34.17 34.89-0.53 -0.19  0.00  W  0.000 5.58  83   3.77 D                         
 WRC  CI VHZ VW209.6 150  70  PD 1  75.28 33.44 35.31-0.40 -1.47* 0.00  W  0.00011.65 167   3.88 D                         
 WNM  CI VHZ VW210.2 157  69  PD    76.54 34.70 35.40-0.78  0.08  0.00  W  0.000 5.58 103 2 3.74 D                         
 HSL  NC VHZ VH211.9 254  66  PU    75.31 33.47 35.69-0.38 -1.84* 0.00  W  0.000 2.80 117   3.97 D                         
 WOR  CI VHZ VW216.4 166  53  PU    77.23 35.39 36.34-0.80 -0.15  0.00  W  0.000 5.58  99   4.08 D                         
 WMP  NC VHZ VW216.6 179  52  PU    77.06 35.22 36.36 0.50 -1.64* 0.00  W  0.000 1.40  71   3.99 D                         
 ALA  NC VHZ VA217.5 301  50  PU 2  76.96 35.12 36.49-0.99 -0.38  0.00  W  0.000 5.58 107   4.14 D                         
 PPG  NC VHZ VP217.7 209  49  PU    77.23 35.39 36.51-0.18 -0.94* 0.00  W  0.000 1.40 121   4.02 D                         
 TOW  CI VHZ VW218.7 154  48  P  3  78.47 36.63 36.61-0.02  0.04  0.00  W  0.000 5.58 202 1 3.73 D                         
 PRC  NC VHZ VP219.3 228  48  PU 1  76.92 35.08 36.68-0.17 -1.43* 0.00  W  0.000 1.40  87   4.16 D                         
 AAS  NC VHZ VA222.7 296  48  PU    78.02 36.18 37.10-0.25 -0.67* 0.00  W  0.000 2.80 125   4.38 D                         
 CMP  NC VHZ VC223.8 265  48  PU    77.62 35.78 37.24-0.35 -1.11* 0.00  W  0.000 2.80  77   3.96 D                         
 BAV  NC VHZ VB223.8 243  48  PU    77.70 35.86 37.25-0.06 -1.33* 0.00  W  0.000 5.58  99   3.94 D                         
 PHR  NC VHZ VP224.6 234  48  PU    77.55 35.71 37.34-0.10 -1.53* 0.00  W  0.000 5.58  91 1 3.38 D                         
 HPC  NC VHZ VH226.7 256  48  PU    78.07 36.23 37.61 0.00 -1.38* 0.00  W  0.000 2.80  79   3.80 D                         
 COS  NC VHZ VC227.2 269  48  PU    78.18 36.34 37.67-0.51 -0.82* 0.00  W  0.000 2.80  97   4.25 D                         
 BBG  NC VHZ VB228.2 242  48  PU    78.70 36.86 37.80 0.18 -1.12* 0.00  W  0.000 2.80 139   3.96 D                         
 BEM  NC VHZ VB228.3 244  48  PU    78.37 36.53 37.81 0.00 -1.28* 0.00  W  0.000 5.58 125   3.96 D                         
 PCA  NC VHZ VP229.5 218  48  PU    78.79 36.95 37.96 0.20 -1.21* 0.00  W  0.000 1.40 103   4.32 D                         
 PSM  NC VHZ VP232.5 224  48  PU 1  78.80 36.96 38.34-0.13 -1.25* 0.00  W  0.000 1.40 103   4.10 D                         
 PSR  NC VHZ VP233.4 215  48  PU 1  78.88 37.04 38.44 0.47 -1.87* 0.00  W  0.000 1.40  93   4.33 D                         
 PMP  NC VHZ VP234.2 230  48  PD 3  79.26 37.42 38.54 0.11 -1.23* 0.00  W  0.000 1.40  97   4.21 D                         
 BEH  NC VHZ VB234.4 245  48  PU 3  79.29 37.45 38.57 0.16 -1.28* 0.00  W  0.000 2.80 123   4.05 D                         
 BBN  NC VHZ VB235.1 240  48  PU 3  79.34 37.50 38.65 0.27 -1.42* 0.00  W  0.00011.65 229 1 3.92 D                         
 HLT  NC VHZ VH235.6 252  48  PU 3  79.14 37.30 38.72-0.14 -1.28* 0.00  W  0.000 5.58 115   4.06 D                         
 WBS  CI VHZ VW235.8 165  48  P  2  79.67 37.83 38.74 0.27 -1.18* 0.00  W  0.000 5.58  89   3.75 D                         
 BRV  NC VHZ VB235.8 238  48  PU 1  79.11 37.27 38.74 0.08 -1.55* 0.00  W  0.000 2.80 117   4.04 D                         
 PMM  NC VHZ VP236.2 221  48  PU 1  79.50 37.66 38.79 0.61 -1.74* 0.00  W  0.000 1.40  85   4.16 D                         
 PBW  NC VHZ VP236.3 234  48  PU    79.26 37.42 38.81-0.06 -1.33* 0.00  W  0.000 1.40  87 1 4.04 D                         
 AFH  NC VHZ VA236.8 314  48  PD    80.66 38.82 38.87-0.17  0.12  0.00  W  0.000 1.40  93   4.18 D                         
 PHF  NC VHZ VP237.3 218  48  PU 2  79.18 37.34 38.94 0.00 -1.60* 0.00  W  0.000 1.40  81 1 4.26 D                         
 HJS  NC VHZ VH237.4 250  48  PU    79.52 37.68 38.95-0.13 -1.14* 0.00  W  0.000 5.58 117   3.97 D                         
 PBS  NC VHZ VP237.5 211  48  PU 1  79.51 37.67 38.96 0.00 -1.29* 0.00  W  0.000 1.40  81   4.14 D                         
 CST  NC VHZ VC237.7 273  48  PU    79.65 37.81 38.99-0.07 -1.11* 0.00  W  0.000 5.58 150   3.97 D                         
 PMR  NC VHZ VP237.9 213  48  PU 1  79.36 37.52 39.01 0.00 -1.49* 0.00  W  0.000 1.40  93   4.28 D                         
 CMM  NC VHZ VC238.1 268  48  PU    79.49 37.65 39.03-0.17 -1.21* 0.00  W  0.000 5.58  99   4.06 D                         
 BHR  NC VHZ VB238.7 248  48  PU 1  79.67 37.83 39.11-0.06 -1.22* 0.00  W  0.000 2.80 121   3.93 D                         
 PST  NC VHZ VP239.3 221  48  PU 2  79.43 37.59 39.19 0.84 -2.44* 0.00  W  0.000 1.40  75 1 4.16 D                         
 PGH  NC VHZ VP239.4 216  48  PU 2  79.09 37.25 39.20-0.47 -1.48* 0.00  W  0.000 1.40  65   4.25 D                         
 HFE  NC VHZ VH240.0 255  48  PU 1  79.77 37.93 39.28-0.18 -1.17* 0.00  W  0.000 2.80  99   4.10 D                         
 BVL  NC VHZ VB240.2 243  48  PU    79.87 38.03 39.29 0.24 -1.50* 0.00  W  0.00011.65 143   3.71 D                         
 PHP  NC VHZ VP240.5 223  48  PD 1  79.33 37.49 39.33 0.13 -1.97* 0.00  W  0.000 1.40  97   4.14 D                         
 PHP  NC VLZ ZP240.5 223  48  P  1  79.69 37.85 39.33 0.13 -1.61* 0.00  W  0.000 0.09   5 4 1.67XZ                         
 HGS  NC VHZ VH240.5 258  48  PU    80.04 38.20 39.34-0.03 -1.11* 0.00  W  0.000 5.58 107   4.06 D                         
 PHA  NC VHZ VP241.3 217  48  PU 2  79.54 37.70 39.43 0.00 -1.73* 0.00  W  0.000 1.40 105   4.11 D                         
 AFD  NC VHZ VA241.7 310  48  PU    81.36 39.52 39.48-0.33  0.37  0.00  W  0.00011.65 136   4.09 D                         
 BLR  NC VHZ VB242.1 246  48  PD 3  81.31 39.47 39.54 0.26 -0.33  0.00  W  0.000 5.58 248 2 4.29 D                         
 CAO  NC VHZ VC242.9 265  48  PU 3  80.10 38.26 39.63-0.33 -1.04* 0.00  W  0.000 5.58 105 1 3.98 D                         
 PHO  NC VHZ VP242.9 219  48  PU 1  79.79 37.95 39.64 0.00 -1.69* 0.00  W  0.000 1.40 105 1 3.99 D                         
 AHR  NC VHZ VA242.9 306  48  PD    81.20 39.36 39.64-0.35  0.07  0.00  W  0.00011.65 117   3.87 D                         
 BPI  NC VHZ VB243.3 241  48  PU 3  79.90 38.06 39.68-0.19 -1.43* 0.00  W  0.00011.65 137   4.03 D                         
 BSL  NC VHZ VB243.4 249  48  PU    80.54 38.70 39.69 0.03 -1.02* 0.00  W  0.000 1.40 123   3.98 D                         
 PAG  NC VHZ VP243.4 213  48  PU    79.88 38.04 39.70-0.09 -1.57* 0.00  W  0.000 1.40 135   4.59 D                         
 WJP  CI VHZ VW243.8 173  48  PD    81.24 39.40 39.74 0.09 -0.43  0.00  W  0.000 5.58 111   4.06 D                         
 HPH  NC VHZ VH244.8 252  48  PD 1  81.00 39.16 39.87 0.46 -1.17* 0.00  W  0.000 0.35  77   3.90 D                         
 HCA  NC VHZ VH245.7 256  48  PU    80.73 38.89 39.98-0.05 -1.04* 0.00  W  0.000 5.58 105   3.84 D                         
 BCG  NC VHZ VB245.7 248  48  PU 3  80.60 38.76 39.99 0.06 -1.29* 0.00  W  0.000 2.80  93   3.99 D                         
 HSP  NC VHZ VH246.0 259  48  PU    80.87 39.03 40.02 0.00 -0.99* 0.00  W  0.000 5.58 119   3.89 D                         
 BJO  NC VHZ VB248.1 245  48  PU 2  80.38 38.54 40.29-0.15 -1.60* 0.00  W  0.000 5.58  99   3.95 D                         
 PLO  NC VHZ VP249.1 234  48  PU 1  80.75 38.91 40.41-0.06 -1.44* 0.00  W  0.000 2.80 125   3.93 D                         
 PTR  NC VHZ VP249.2 211  48  PU    80.83 38.99 40.42 0.00 -1.43* 0.00  W  0.000 1.40  87   4.10 D                         
 PWK  NC VHZ VP249.3 219  48  PU 1  80.70 38.86 40.43-0.33 -1.24* 0.00  W  0.000 1.40 109   4.13 D                         
 PMC  NC VHZ VP250.0 215  48  PU 2  80.82 38.98 40.52 0.06 -1.60* 0.00  W  0.000 1.40  93   3.90 D                         
 BVY  NC VHZ VB250.1 249  48  PU    81.16 39.32 40.53-0.17 -1.04* 0.00  W  0.00011.65 103   3.66 D                         
 WSH  CI VHZ VW250.4 151  48  PD    83.38 41.54 40.57-0.94  1.91* 0.00  W  0.00011.65  83 1 3.39 D                         
 CBS  NC VHZ VC251.3 277  48  PU 3  81.42 39.58 40.68 0.28 -1.38* 0.00  W  0.000 2.80 127   3.94 D                         
 HOR  NC VHZ VH251.7 254  48  PU    81.26 39.42 40.73-0.22 -1.09* 0.00  W  0.000 2.80 157   3.95 D                         
 CML  NC VHZ VC252.0 268  48  PU 2  81.42 39.58 40.77 0.31 -1.50* 0.00  W  0.000 2.80  73   4.08 D                         
 HSF  NC VHZ VH254.0 252  48  PU    81.92 40.08 41.02 0.25 -1.19* 0.00  W  0.000 2.80 105   3.93 D                         
