 HYPOINVERSE 2000
 12/2007 VERSION 1.2 (Can fix origin time; g77 compiler)               
 RUN ON Wed Dec  5 15:19:16 2007      RUN LABEL= 
 PROCESSING DOMAIN=NC  PROCESSING VERSION=01


 TEST PARAMETERS:
   -ITERATION AND CONVERGENCE-     -WEIGHTING AND ERRORS-     -MISCELLANEOUS-
       20=ITRLIM   0.900=DAMP    15.000=DISCUT   0.100=RMSCUT       4=MINSTA
    0.040=DQUIT    0.001=DRQT     3.500=DISW1    2.000=RMSW1        2=NET
    7.000=DXFIX    0.012=EIGTOL   7.000=DISW2    3.000=RMSW2 
   30.000=DZMAX    0.020=RBACK        4=ITRDIS       4=ITRRES   5.000=ZTR
    0.500=DZAIR    0.600=BACFAC   1.000=SWT      0.100=RDERR    1.780=POS
                                                 1.000=ERCOF

      ------DURATION MAG CONSTANTS------       -DELAYS & MISC-    -STATIONS-
   -0.810=FMA1     0.000=FMA2   -1.0300=DMA0         T=LMULT        F=ATTEN
    2.220=FMB1     0.000=FMB2    2.1000=DMA1         T=CODAWT       5=SITE-LET
    0.000=FMZ1     0.000=FMZ2    0.0000=DMA2         T=LJUNK        2=NET-LET
    0.001=FMD1     0.000=FMD2    0.0000=DMZ                         3=COMP-LET
    0.000=FMF1     0.000=FMF2    1.0000=DMGN  
    1.000=FMGN  9999.000=FMBRK   0.0027=DMLIN 
   0.0050=DCOF1   40.000=DBRK1        1=LOGA0 
   0.0006=DCOF2  350.000=DBRK2 
   0.0140=ZCOF    10.000=ZBRK  

    DUR MAG COMPONENT CORRECTIONS:  ELZ=-.06  ELE=-.30  ELN=-.30
    AMP MAG COMPONENT CORRECTIONS:  EHZ=0.33  VLZ=0.20  SHZ=0.33

    --- MAGNITUDE LABELS & COMPONENTS ---
    FMAG1: LABEL=D      COMPS= EHZ SHZ HHZ BHZ
    FMAG2: LABEL=Z      COMPS= ELZ
    XMAG1: LABEL=X       TYPE=MX   COMPS= EHZ ELZ ELE ELN EHN EHE SHZ
    XMAG2: LABEL=L       TYPE=ML   COMPS= WLN WLE HHN HHE
    FMAG1 MAGSEL=1  FMAG2 MAGSEL=3

 INPUT FILES:
 COMMANDS:    test-fullNCSN.hyp                                           
              /home/calnet/klein/hypfiles/cal2000seed.hyp                 
 BINARY STATION SNAPSHOT FILE: /home/calnet/klein/hypfiles/allstaseed.bin                  
 DELAYS:                                                                   
 ATTENUATIONS:                                                             
 CAL FACTORS:  /home/calnet/klein/hypfiles/all2000seed.cal                 
 FMAG CORRECT: /home/calnet/klein/hypfiles/all2000seed.fmc                 
 XMAG CORRECT: /home/calnet/klein/hypfiles/all2000seed.xmc                 

 PHASES:       test.arc                                                    
        PHASE FORMAT CODE= 5, TERMINATOR FORMAT CODE=1
 BINARY CRUST SNAPSHOT FILE: /home/calnet/klein/hypfiles/multmodseed.bin                 

 OUTPUT FILES: (T IF APPENDED TO)
 (F) PRINTOUT:    test.prt                                                    
 (F) SUMMARY:     test.sum                                                    FORMAT CODE=1
 (F) ARCHIVE:     testout.arc                                                 ARCHIVE FORMAT CODE= 3

 ####################################################################################
   5 DEC 2007, 22:35  SEQUENCE NO.    1, ID NO.  40206939
                                                        ADJUSTMENTS (KM)
  I ORIGIN   LAT N     LON W     Z   NWR  RMS    DT    DLAT   DLON    DZ    RR NF MOD
 BEGIN FIRST DISTANCE WEIGHTING
  1 28.53  37 38.53  122 28.79  5.00  47 0.42  0.267  0.699  0.095  0.000 0.705 3 PEN
 FREE DEPTH
  2 28.80  37 38.91  122 28.85  5.00  47 0.32  0.040 -0.881  0.397  3.058 3.207 4 PEN
  3 28.84  37 38.43  122 29.13  8.06  47 0.28 -0.125 -0.125  0.120  0.821 0.840 4 PEN
 BEGIN MAIN DISTANCE WEIGHTING
 BEGIN RESIDUAL WEIGHTING
  4 28.71  37 38.36  122 29.21  8.88  36 0.10 -0.139 -0.208  0.308  1.331 1.382 4 PEN
  5 28.57  37 38.25  122 29.42 10.21  36 0.05 -0.031 -0.058  0.060  0.219 0.234 4 PEN
  6 28.54  37 38.22  122 29.46 10.43  36 0.05 -0.005 -0.008  0.017  0.034 0.039 4 PEN
  7 28.54  37 38.22  122 29.47 10.46  36 0.05 -0.001 -0.004 -0.003  0.004 0.006 4 PEN
 ERROR ELLIPSE: <SERR AZ DIP>-<   0.47 226 58>-<   0.24  86 24>-<   0.15 348 17>
 ------------------------------------------------------------------------------------
 YEAR MO DA  --ORIGIN--  --LAT N-  --LON W--  DEPTH   RMS   ERH   ERZ  XMAG  FMAG  PMAG
 2007-12-05  2235 28.54  37 38.22  122 29.47  10.46  0.05  0.24  0.40        2.07  2.07D
                                                                                          SOURCE
 NSTA NPHS  DMIN MODEL GAP ITR NFM NWR NWS NVR REMRKS-AVH  N.XMG-XMMAD-T   N.FMG-FMMAD-T  L F X
   49   49   1.4  PEN  152   7  41  36   0  49 SFP    B1A      0  0.00 X      29  0.18 D  W W  

 XMAG2-N.XMG2-XMMAD-T-S  FMAG2-N.FMG2-FMMAD-T-S  PREF.MAG-N.PMAG-PRMAD-T
                                                     2.07     29  0.18 D
 REGION= S.F. Peninsula             MODELS USED:  PEN=1.00

 STA NET COM L CR DIST AZM  AN P/S WT   SEC (TOBS -TCAL -DLY  =RES)  WT   SR  INFO  CAL DUR-W-FMAG-T -AMP-U-PER-W-XMAG-T DEV
 JMGB NC EHZ -- J  1.4  88 171  PD    30.53  1.99  2.07-0.07 -0.01  1.69  W  0.347 4.64  19   2.12 D                         
 JSP  NC EHZ -- J  5.7 190 147  PD    30.89  2.35  2.32-0.02  0.05  1.69  W  0.341 4.64  26   2.35 D                         
 JSA  NC EHZ -- J  8.7 134 133  PD    31.00  2.46  2.64-0.15 -0.03  1.69  W  0.176 4.64  23   2.25 D                         
 SBRN BK EP1 -- J  8.9  52 133  PD    30.92  2.38  2.65-0.26 -0.01  1.69  I  0.268 0.00  17                                  
 JSB  NC EHZ -- J  9.2  63 132  PU    31.05  2.51  2.69-0.17 -0.01  1.69  W  0.252 0.20  17   1.75XD                         
 JGR  NC EHZ -- J 13.7 167 118  PD    31.69  3.15  3.29-0.09 -0.05  1.69  W  0.451 4.64  23   2.31 D                         
 JCP  NC EHZ -- J 15.8 109 114  PU    31.96  3.42  3.59-0.18  0.01  1.69  W  0.161 1.41  13   2.15 D                         
 OXMT BK EP1 --   16.4 158 113  PU 2  31.92  3.38  3.68 0.00 -0.30  0.00  I  0.000 0.00   9                                  
 JCH  NC EHZ -- J 16.7 142 112  PD 3  32.06  3.52  3.72-0.26  0.06  0.17  W  0.003 0.20   7 1 1.09XD                         
 JPR  NC EHZ -- J 17.6   4 111  PU 3  32.52  3.98  3.87 0.07  0.04  0.17  W  0.001 4.64   9   1.30 D                         
 NRL  NC EHZ -- N 22.4 350 104  PD    33.19  4.65  4.59 0.02  0.04  1.69  W  0.188 1.41  17   2.36 D                         
 MHDL BK EP1 -- N 22.8   0 104  PU 3  33.06  4.52  4.66 0.00 -0.14  0.17  I  0.001 0.00   9                                  
 CAG  NC EHZ -- C 25.2  13 101  PD    33.59  5.05  5.04 0.00  0.01  1.69  W  0.108 4.64  26   2.33 D                         
 CMC  NC EHZ -- C 32.0  59  97  PD    34.69  6.15  6.12 0.00  0.03  1.69  W  0.135 1.41  13   2.39 D                         
 NTAC NC EHZ -- N 33.1 344  97  PD    34.80  6.26  6.31 0.00 -0.05  1.69  W  0.262 4.64  23   2.58 D                         
 CMSB BK DP1 -- C 33.6  38  96  PU 1  34.78  6.24  6.37-0.16  0.03  0.85  I  0.026 0.00   9 1                                
 BKS  BK HHZ -- C 34.8  40  96  PD 1  35.15  6.61  6.57-0.09  0.13  0.85  I  0.026 0.00   3 4 0.27XD                         
 CPM  NC EHZ -- C 35.4  11  95  PD    35.07  6.53  6.67-0.11 -0.03  1.69  W  0.115 0.20  17   1.97 D                         
 CVP  NC EHZ -- C 36.2  40  95  PD 1  35.49  6.95  6.79 0.14  0.02  0.85  W  0.027 2.82  13   1.98 D                         
 CSP  NC EHZ -- C 38.9  23  94  PD 1  36.02  7.48  7.23 0.20  0.05  0.85  W  0.025 1.41  13   2.00 D                         
 CLCB NC EHZ -- C 39.2  73  94  PU    35.74  7.20  7.29 0.04 -0.13  1.69  W  0.168 4.64  17   2.02 D                         
 NCC  NC EHZ -- N 40.5   2  94  PD    36.01  7.47  7.50 0.00 -0.03  1.69  W  0.154 0.00  21   2.18 D                         
 JFP  NC EHZ -- J 40.6 138  94  P  2  37.01  8.47  7.51 0.00  0.96* 0.00  W  0.000 4.64  19   2.25 D                         
 BRIB BK HHZ -- C 43.3  43  93  P  2  36.80  8.26  7.94 0.00  0.32  0.00  I  0.000 0.00  14   1.79 D                         
 SVIN BK EP1 -- N 44.1 356  93  PU 2  36.51  7.97  8.07-0.16  0.06  0.34  I  0.007 0.00  11                                  
 OHLN BK EP1 -- C 45.3  25  92  PD 3  37.32  8.78  8.26 0.00  0.52* 0.00  I  0.000 0.00  15                                  
 NHF  NC EHZ -- N 45.9 357  92  PD 2  36.90  8.36  8.36-0.06  0.06  0.34  W  0.007 0.20  13   1.71XD                         
 CPI  NC EHZ -- C 46.0  31  92  PD    37.49  8.95  8.37 0.60 -0.02  1.69  W  0.105 4.64  25   2.10 D                         
 CNI  NC EHZ -- C 46.6  93  92  PU    37.02  8.48  8.47-0.02  0.03  1.69  W  0.242 2.82   3 4 0.53XD                         
 JPSB NC EHZ -- J 50.3 165  91  PU 2  37.77  9.23  9.07 0.03  0.13  0.34  W  0.041 4.64  17   1.80 D                         
 NOLB NC EHZ -- N 52.4 330  91  P  2  38.72 10.18  9.42-0.18  0.94* 0.00  W  0.000 4.64  19   1.81 D                         
 NMI  NC EHZ -- N 52.9  22  91  PD    38.70 10.16  9.48 0.69 -0.01  1.69  W  0.112 4.64  24   2.16 D                         
 CMJ  NC EHZ -- C 56.1 103  89  PU 1  38.55 10.01 10.01-0.03  0.03  0.84  W  0.077 5.62  15   1.99 D                         
 VALB BK EP1 -- N 57.0  19  89  PU    39.45 10.91 10.16 0.00  0.75* 0.00  I  0.000 0.00  15                                  
 CVL  NC EHZ -- C 57.8  91  89  PD 1  39.46 10.92 10.29 0.56  0.07  0.83  W  0.061 5.62  17   1.88 D                         
 CRPB NC EHZ -- C 59.8  59  88  P  2  39.40 10.86 10.61 0.38 -0.13  0.32  W  0.005 4.64  17   1.96 D                         
 NLH  NC EHZ -- N 61.8  29  88  PD 3  40.05 11.51 10.92 0.69 -0.10  0.16  W  0.001 1.73  19   2.03 D                         
 NHV  NC EHZ -- N 61.8 342  88  P  2  39.55 11.01 10.92-0.06  0.15  0.31  W  0.012 4.64  17 1 2.24 D                         
 NSP  NC EHZ -- N 62.6   2  88  PD 3  39.85 11.31 11.05 0.23  0.03  0.15  W  0.001 4.64  15   1.97 D                         
 CMOB NC EHZ -- C 63.7  72  88  PD 1  40.69 12.15 11.23 0.75  0.17  0.76  W  0.039 4.64   3 4 0.34XD                         
 NBRB NC EHZ -- N 69.4 356  86  PD 1  41.04 12.50 12.15 0.25  0.10  0.65  W  0.035 4.64  17   1.86 D                         
 CSA  NC EHZ -- C 69.7  86  86  PU 2  42.27 13.73 12.20 0.89  0.64* 0.00  W  0.000 1.41   3 4 0.57XD                         
 NGVB NC EHZ -- N 75.4  18  85  PU 2  42.05 13.51 13.12 0.53 -0.14  0.20  W  0.002 4.64   9 4 1.45XD                         
 JST  NC EHZ -- J 77.8 127  84  P  3  41.91 13.37 13.51-0.28  0.14  0.09  W  0.001 5.62   9 4 1.45XD                         
 NAD  NC EHZ -- N102.1  26  50  PD 3  47.85 19.31 16.80 1.38  1.13* 0.00  W  0.000 2.82   3 4 0.38XD                         
 BLR  NC EHZ 02 B152.7 134  50  PU 2  55.92 27.38 23.07 0.00  4.31* 0.00  W  0.000 5.62  29 2 2.47 D                         
 BVL  NC EHZ -- B165.1 135  50  PU 3  51.67 23.13 24.61-0.18 -1.30* 0.00  W  0.00011.22  11 4 1.39XD                         
 PADB NC SHZ -- P264.9 146  50  P  2  64.14 35.60 36.98 0.00 -1.38* 0.00  W  0.000 2.82   7 4 1.31XD                         
 PTR  NC SHZ -- P299.9 136  50  P  3  78.14 49.60 41.32 0.00  8.28* 0.00  W  0.000 1.41   7 4 1.72XD                         
 ####################################################################################
   5 DEC 2007, 23:39  SEQUENCE NO.    2, ID NO.  40206942
                                                        ADJUSTMENTS (KM)
  I ORIGIN   LAT N     LON W     Z   NWR  RMS    DT    DLAT   DLON    DZ    RR NF MOD
 BEGIN FIRST DISTANCE WEIGHTING
  1 59.11  38 46.16  122 51.01  5.00  40 1.20  0.434 -6.065  2.366  0.000 6.510 3 GEY
 FREE DEPTH
  2 59.54  38 42.89  122 52.65  5.00  40 0.26 -0.167 -0.471  0.280  1.616 1.706 4 NBY
  3 59.38  38 42.63  122 52.84  6.62  40 0.21 -0.031 -0.081  0.042  0.037 0.099 4 NBY
 BEGIN MAIN DISTANCE WEIGHTING
 BEGIN RESIDUAL WEIGHTING
  4 59.35  38 42.59  122 52.87  6.65  33 0.10  0.084 -0.387 -0.211 -1.465 1.530 4 NBY
  5 59.43  38 42.38  122 52.72  5.19  34 0.08  0.002 -0.065 -0.029 -0.441 0.447 4 NBY
  6 59.43  38 42.35  122 52.70  4.75  34 0.08  0.007 -0.005 -0.001 -0.342 0.342 4 NBY
  7 59.44  38 42.34  122 52.70  4.40  33 0.08  0.000  0.000  0.006 -0.057 0.057 4 NBY
 ERROR ELLIPSE: <SERR AZ DIP>-<   1.15 345 86>-<   0.24 109  1>-<   0.18 200  2>
 ------------------------------------------------------------------------------------
 YEAR MO DA  --ORIGIN--  --LAT N-  --LON W--  DEPTH   RMS   ERH   ERZ  XMAG  FMAG  PMAG
 2007-12-05  2339 59.44  38 42.34  122 52.70   4.40  0.08  0.24  1.15        2.28  2.28D
                                                                                          SOURCE
 NSTA NPHS  DMIN MODEL GAP ITR NFM NWR NWS NVR REMRKS-AVH  N.XMG-XMMAD-T   N.FMG-FMMAD-T  L F X
   40   40   7.1  NBY   45   7  32  33   0  40 ROG    B1A      0  0.00 X      20  0.12 D  W W  

 XMAG2-N.XMG2-XMMAD-T-S  FMAG2-N.FMG2-FMMAD-T-S  PREF.MAG-N.PMAG-PRMAD-T
                                                     2.28     20  0.12 D
 REGION= Rodgers Creek Fault        MODELS USED:  NBY=0.58  GEY=0.42

 STA NET COM L CR DIST AZM  AN P/S WT   SEC (TOBS -TCAL -DLY  =RES)  WT   SR  INFO  CAL DUR-W-FMAG-T -AMP-U-PER-W-XMAG-T DEV
 GGPB NC EHZ -- G  7.1  23 114  PD    61.11  1.67  1.66-0.06  0.07  1.27  W  0.379 0.00  21   2.35 D                         
 GAXB NC EHZ -- G 10.5  86 103  PU    61.58  2.14  2.25-0.24  0.13  1.27  W  0.235 4.64  19   2.30 D                         
 DRK  BG DPZ -- G 11.3  35 101  PU    61.76  2.32  2.38-0.02 -0.04  1.27  W  0.082 0.00  18                                  
 GSS  NC EHZ -- G 11.8 269 100  PU    61.83  2.39  2.48-0.03 -0.06  1.27  W  0.380 5.62  21   2.29 D                         
 FNF  BG DPZ -- G 12.2  53 100  PD    61.91  2.47  2.54-0.10  0.03  1.27  W  0.088 0.00  14                                  
 SB4  BG DPZ -- G 12.2  20  99  PU    61.95  2.51  2.54-0.04  0.01  1.27  W  0.069 0.00  16                                  
 AL2  BG DPZ -- G 12.4 353  99  P     62.00  2.56  2.57 0.00 -0.01  1.27  W  0.122 0.00  11                                  
 FUM  BG DPZ -- G 12.5  38  99  PU    61.95  2.51  2.59-0.01 -0.07  1.27  W  0.064 0.00  20                                  
 NMC  NC EHZ -- N 13.1 194  98  PD    61.97  2.53  2.70-0.07 -0.10  1.27  W  0.352 5.62  21   2.34 D                         
 GDXB NC HHZ -- G 13.5  32  98  PD    62.10  2.66  2.77-0.22  0.11  1.27  W  0.057 0.00  17   1.80 D                         
 AL3  BG DPZ -- G 13.6   7  97  P     62.29  2.85  2.80 0.00  0.05  1.27  W  0.084 0.00  15                                  
 SQK  BG DPZ -- G 14.3  24  97  PU    62.29  2.85  2.92-0.02 -0.05  1.27  W  0.060 0.00  16                                  
 JKR  BG DPZ -- G 14.8  44  96  PU    62.31  2.87  3.00 0.00 -0.13  1.27  W  0.061 0.00  12                                  
 AL5  BG DPZ -- G 14.9   3  96  PU    62.46  3.02  3.03 0.00 -0.01  1.27  W  0.098 0.00  11                                  
 AL4  BG DPZ -- G 15.2  14  96  P  3  62.47  3.03  3.08 0.00 -0.05  0.13  W  0.000 0.00  15                                  
 GCR  NC EHZ 02 G 15.9  61  95  PU    62.38  2.94  3.20-0.26  0.00  1.27  W  0.085 5.62  17   2.23 D                         
 AL6  BG DPZ -- G 16.0   5  95  PU    61.73  2.29  3.23 0.00 -0.94* 0.00  W  0.000 0.00  15                                  
 GPM  NC EHZ 02 G 16.6 340  94  PD    62.90  3.46  3.32 0.03  0.11  1.27  W  0.180 2.82  15   2.15 D                         
 CLV  BG DPZ -- G 16.6  27  94  P     62.69  3.25  3.33-0.01 -0.07  1.27  W  0.068 0.00  15                                  
 MNS  BG DPZ -- G 17.0  55  94  P  1  62.72  3.28  3.41-0.01 -0.12  0.64  W  0.019 0.00  23                                  
 DES  BG DPZ -- G 17.0  65  94  PD    62.61  3.17  3.41-0.08 -0.16  1.27  W  0.095 0.00  22                                  
 LCK  BG DPZ -- G 17.3  43  94  P     62.86  3.42  3.46 0.02 -0.06  1.27  W  0.070 0.00  15                                  
 GBG  NC EHZ -- G 20.9  54  90  PU    63.58  4.14  4.09 0.06 -0.01  1.27  W  0.106 2.82  13   1.88 D                         
 NMW  NC EHZ -- N 21.9 141  90  PU 1  63.89  4.45  4.28-0.03  0.20  0.63  W  0.063 2.82  27   2.52 D                         
 GSG  NC EHZ 02 G 23.1  39  89  PD    64.21  4.77  4.50 0.25  0.02  1.27  W  0.121 5.62  27   2.16 D                         
 NFV  NC EHZ -- N 26.5 184  87  PD    64.48  5.04  5.11-0.04 -0.03  1.27  W  0.312 4.64  13   1.90 D                         
 NSH  NC EHZ -- N 31.3 131  85  PU    65.38  5.94  5.97-0.15  0.12  1.27  W  0.288 5.62  23   2.56 D                         
 GRT  NC EHZ -- G 31.5  34  85  PU 1  65.38  5.94  6.01-0.21  0.14  0.64  W  0.053 5.62  21   2.29 D                         
 NFR  NC EHZ 02 N 32.0 231  85  PD 1  65.65  6.21  6.10 0.07  0.04  0.64  W  0.105 5.62  31 1 2.86 D                         
 GSN  NC EHZ -- G 37.7 314  83  PU 1  66.70  7.26  7.13 0.11  0.02  0.64  W  0.129 5.62  19   2.27 D                         
 NMT  NC EHZ -- N 39.1  73  82  PD 2  66.60  7.16  7.37-0.16 -0.05  0.25  W  0.01211.22  21   2.19 D                         
 GHL  NC EHZ -- G 39.1 342  82  PD 1  66.93  7.49  7.38 0.00  0.11  0.64  W  0.11411.22  21   2.35 D                         
 NTYB NC EHZ -- N 39.8 151  82  PU 1  67.26  7.82  7.51-0.08  0.39  0.00  W  0.000 4.64  19   1.98 D                         
 NPV  NC EHZ 02 N 39.9  99  82  PU 2  66.51  7.07  7.51-0.28 -0.16  0.25  W  0.013 2.82   3 4 0.72XD                         
 CVS  BK HHZ -- C 54.2 137  77  PU 3  68.98  9.54 10.06 0.00 -0.52* 0.00  I  0.000 0.00  27 1 2.43 D                         
 NIMB NC EHZ -- N 55.7 106  77  P  1  69.03  9.59 10.32-0.17 -0.56* 0.00  W  0.000 0.00   5 4 0.80XD                         
 NBP  NC EHZ -- N 59.6  93  75  P  2  70.81 11.37 11.01 0.40 -0.04  0.24  W  0.020 5.62  19   2.05 D                         
 NHV  NC EHZ -- N 61.8 166  75  PD 2  71.04 11.60 11.38-0.08  0.30  0.00  W  0.000 4.64   5 4 1.05XD                         
 NCC  NC EHZ -- N 85.7 155  48  PU    74.54 15.10 15.41 0.00 -0.31  0.00  W  0.000 0.00   5 4 0.84XD                         
 CMC  NC EHZ -- C119.6 148  44  PU 1  78.11 18.67 19.69-0.19 -0.83* 0.00  W  0.000 1.41   3 4 1.11XD                         
