NLLOC "./loc/vinti.19950422.151958.grid0" "LOCATED" "Location completed."
SIGNATURE "Anthony Lomax - Geosciences Azur   NLLoc:v4.40.1 20Aug2008 13h05m53"
COMMENT "1995 Vintimiglia Sequence (NonLinLoc Sample Location)"
GRID  101 101 21  -50.000000 -50.000000 0.000000  1.000000 1.000000 1.000000 PROB_DENSITY
SEARCH OCTREE nInitial 400 nEvaluated 10008 smallestNodeSide 0.312500/0.312500/0.156250 oct_tree_integral 2.669124e+01 scatter_volume 2.669124e+01
HYPOCENTER  x 4.843750 y 4.843750 z 10.078125  OT 56.672591  ix -1 iy -1 iz -1
GEOGRAPHIC  OT 1995 04 22  15 19 56.672591  Lat 43.793584 Long 7.560187 Depth 10.078125
QUALITY  Pmax 1.898e+27 MFmin 14.264003 MFmax 14.341972 RMS 0.092651 Nphs 12 Gap 186 Dist 10.215761 Mamp -9.90 0 Mdur -9.90 0
VPVSRATIO  VpVsRatio 1.569e+00  Npair 3  Diff 1.070e+00
STATISTICS  ExpectX 4.9512e+00 Y 4.6024e+00 Z 9.3171e+00  CovXX 6.42e-01 XY -4.06e-01 XZ 1.16e+00 YY 2.76e+00 YZ 1.27e+00 ZZ 1.03e+01 EllAz1  76.0 Dip1  -8.2 Len1  1.14e+00 Az2  345.0 Dip2  -6.9 Len2  3.09e+00 Len3  6.13e+00
STAT_GEOG  ExpectLat 43.791412 Long 7.561520 Depth 9.317130
TRANSFORM  LAMBERT RefEllipsoid Clarke-1880  LatOrig 43.750000  LongOrig 7.500000  FirstStdParal 43.199300  SecondStdParal 44.996100  RotCW 0.000000
FOCALMECH  Hyp  43.793584 7.560187 10.078125 Mech  0.0 0.0 0.0 mf  0.00 nObs 0
PHASE ID Ins Cmp On Pha  FM Date     HrMn   Sec     Err  ErrMag    Coda      Amp       Per  >   TTpred    Res       Weight    StaLoc(X  Y         Z)        SDist    SAzim  RAz  RDip RQual    Tcorr 
RONE   ?    ?    ? P      ? 19950422 1519   59.2800 GAU  1.00e-01 -1.00e+00 -1.00e+00 -1.00e+00 >    2.6729   -0.0655    1.0247    7.8887   14.5952   -0.3000   10.2158  17.34  17.3 129.3  9     0.0000
RONE   ?    ?    ? S      ? 19950422 1520    1.1200 GAU  1.00e-01 -1.00e+00 -1.00e+00 -1.00e+00 >    4.4904   -0.0430    1.0367    7.8887   14.5952   -0.3000   10.2158  17.34  17.3 129.3  9     0.0000
SBF    ?    ?    i p      d 19950422 1519   59.8800 GAU  1.00e-01 -1.00e+00 -1.00e+00 -1.00e+00 >    3.1209    0.0865    1.0045   -5.2384   12.6113   -0.8470   12.7273 307.61 307.6 122.8  9     0.0000
NEGI   ?    ?    ? P      ? 19950422 1519   59.8200 GAU  1.00e-01 -1.00e+00 -1.00e+00 -1.00e+00 >    3.1186   -0.0112    1.0449   16.3893   10.8705   -0.6400   13.0239  62.44  62.4 121.8  9     0.0400
NEGI   ?    ?    ? S      ? 19950422 1520    2.1100 GAU  1.00e-01 -1.00e+00 -1.00e+00 -1.00e+00 >    5.2392    0.1582    0.9177   16.3893   10.8705   -0.6400   13.0239  62.44  62.4 121.8  9     0.0400
REVF   ?    ?    P G      ? 19950422 1520    0.1700 GAU  1.00e-01 -1.00e+00 -1.00e+00 -1.00e+00 >    3.6483   -0.1509    0.9357  -10.6730   -1.1024   -0.7000   16.6170 249.03 249.0 115.1  9     0.0000
CEPP   ?    ?    ? P      ? 19950422 1520    0.9100 GAU  1.00e-01 -1.00e+00 -1.00e+00 -1.00e+00 >    4.2727   -0.0353    1.0396   19.7971   18.5085   -1.0800   20.2565  47.58  47.6 110.5  9     0.0000
CEPP   ?    ?    ? S      ? 19950422 1520    3.8200 GAU  1.00e-01 -1.00e+00 -1.00e+00 -1.00e+00 >    7.1782   -0.0308    1.0411   19.7971   18.5085   -1.0800   20.2565  47.58  47.6 110.5  9     0.0000
AURF   ?    ?    P G      ? 19950422 1520    1.1900 GAU  1.00e-01 -1.00e+00 -1.00e+00 -1.00e+00 >    4.4431    0.0743    1.0148  -13.8607   15.2716   -1.0400   21.4149 299.14 299.1 109.2  9     0.0000
AUTN   ?    ?    ? p      ? 19950422 1520    1.6800 GAU  1.00e-01 -1.00e+00 -1.00e+00 -1.00e+00 >    5.1761   -0.1687    0.9096   -5.8149   27.2765   -2.0690   24.8362 334.59 334.6 106.5  9     0.0000
MVIF   ?    ?    i p      d 19950422 1520    3.3700 GAU  1.00e-01 -1.00e+00 -1.00e+00 -1.00e+00 >    6.6264    0.0710    1.0173  -27.9180   16.3343   -1.4800   34.7183 289.33 289.3  98.3  9     0.0000
TOUF   ?    ?    i p      u 19950422 1520    3.4900 GAU  1.00e-01 -1.00e+00 -1.00e+00 -1.00e+00 >    6.7412    0.0762    1.0133  -20.1791   29.3046   -1.8500   34.9925 314.35 314.3  98.4  9     0.0000
0666   ?    ?    i p      u 19950422 1519   58.7200 GAU  1.00e-01 -1.00e+00 -1.00e+00 -1.00e+00 >    0.0000    0.0000    0.0000 -100000000000000000000.0000 -100000000000000000000.0000 -100000000000000000000.0000    0.0000   0.00   0.0   0.0  0     0.0000
0665   ?    ?    i p      u 19950422 1519   58.7600 GAU  1.00e-01 -1.00e+00 -1.00e+00 -1.00e+00 >    0.0000    0.0000    0.0000 -100000000000000000000.0000 -100000000000000000000.0000 -100000000000000000000.0000    0.0000   0.00   0.0   0.0  0     0.0000
0669   ?    ?    i p      u 19950422 1519   58.9800 GAU  1.00e-01 -1.00e+00 -1.00e+00 -1.00e+00 >    0.0000    0.0000    0.0000 -100000000000000000000.0000 -100000000000000000000.0000 -100000000000000000000.0000    0.0000   0.00   0.0   0.0  0     0.0000
0667   ?    ?    e p      u 19950422 1519   59.7000 GAU  1.00e-01 -1.00e+00 -1.00e+00 -1.00e+00 >    0.0000    0.0000    0.0000 -100000000000000000000.0000 -100000000000000000000.0000 -100000000000000000000.0000    0.0000   0.00   0.0   0.0  0     0.0000
.obs   ?    ?    i p      d 19950422 1519   60.2300 GAU  1.00e-01 -1.00e+00 -1.00e+00 -1.00e+00 >    0.0000    0.0000    0.0000 -100000000000000000000.0000 -100000000000000000000.0000 -100000000000000000000.0000    0.0000   0.00   0.0   0.0  0     0.0000
CALN   ?    ?    i p      u 19950422 1519   66.5200 GAU  1.00e-01 -1.00e+00 -1.00e+00 -1.00e+00 >    0.0000    0.0000    0.0000 -100000000000000000000.0000 -100000000000000000000.0000 -100000000000000000000.0000    0.0000   0.00   0.0   0.0  0     0.0000
FRF    ?    ?    ? G      ? 19950422 1520   10.3000 GAU  1.00e-01 -1.00e+00 -1.00e+00 -1.00e+00 >    0.0000    0.0000    0.0000 -100000000000000000000.0000 -100000000000000000000.0000 -100000000000000000000.0000    0.0000   0.00   0.0   0.0  0     0.0000
LMR    ?    ?    ? G      ? 19950422 1520   13.4000 GAU  1.00e-01 -1.00e+00 -1.00e+00 -1.00e+00 >    0.0000    0.0000    0.0000 -100000000000000000000.0000 -100000000000000000000.0000 -100000000000000000000.0000    0.0000   0.00   0.0   0.0  0     0.0000
LRG    ?    ?    ? G      ? 19950422 1520   14.8000 GAU  1.00e-01 -1.00e+00 -1.00e+00 -1.00e+00 >    0.0000    0.0000    0.0000 -100000000000000000000.0000 -100000000000000000000.0000 -100000000000000000000.0000    0.0000   0.00   0.0   0.0  0     0.0000
END_PHASE
SCATTER Nsamples 5009
   4.1722    3.7002    8.3950  6.63e+01
   3.8981    3.2451    8.2277  6.63e+01
   3.8364    3.7042    8.1351  6.63e+01
   5.0961    2.4543    8.8442  6.63e+01
   5.5767    2.0919    8.7604  6.63e+01
   5.6035    2.1262    9.0582  6.63e+01
   6.2317    5.8216   12.4025  6.63e+01
   5.9371    6.1949   12.4566  6.63e+01
   5.9804    5.7571   12.4244  6.63e+01
   3.8447    5.9244    7.0162  6.63e+01
   4.1525    5.7735    7.0769  6.63e+01
   4.0691    5.9199    7.1552  6.63e+01
   5.1491    7.6001   11.7374  6.63e+01
   5.3876    8.0601   11.5684  6.63e+01
   5.5304    7.7321   11.7077  6.63e+01
   5.3387    2.0277    8.1468  6.63e+01
   5.0153    2.2310    8.2166  6.63e+01
   5.2161    2.3144    8.1843  6.63e+01
   5.5912    2.5086    6.1004  6.63e+01
   5.3677    2.6322    6.0320  6.63e+01
   5.0912    2.8040    6.1037  6.63e+01
   4.2875    7.3320    9.5415  6.63e+01
   3.9214    7.4036    9.5929  6.63e+01
   4.3056    6.8929    9.4743  6.63e+01
   6.1178    2.8024    8.8146  6.63e+01
   5.9579    3.0902    8.7807  6.63e+01
   5.8763    2.7035    8.8633  6.63e+01
   5.8196    2.5204   15.0683  6.42e+01
   5.1131    3.6416   15.2416  6.42e+01
   5.9091    2.9217   15.3014  6.42e+01
   4.8268    3.6212    1.0441  6.63e+01
   4.5494    3.5328    1.0664  6.63e+01
   4.4584    3.4447    1.2182  6.63e+01
   5.7675    3.7306   13.6944  6.63e+01
   6.0876    3.7108   13.5172  6.63e+01
   5.8840    3.1628   13.5680  6.63e+01
   4.9087    2.9995    5.0523  6.63e+01
   4.3989    2.9854    5.2146  6.63e+01
   4.4928    2.8118    5.0063  6.63e+01
   3.8973    3.5472    5.7485  6.63e+01
   4.0470    3.6387    5.6736  6.63e+01
   3.8117    4.8228    0.6894  6.63e+01
   3.9800    4.8263    0.9108  6.63e+01
   3.8178    4.8781    0.8659  6.63e+01
   5.4247    2.2003    9.6028  6.62e+01
   5.0335    2.1306    9.4473  6.62e+01
   5.5095    2.0377    9.4789  6.62e+01
   4.7582    5.5258    2.7888  6.42e+01
   4.2572    5.2184    2.6255  6.42e+01
   4.1267    5.4729    3.0000  6.42e+01
   4.7618    4.7598   10.1061  6.83e+01
   4.9200    4.7356   10.1519  6.83e+01
   4.8625    4.9886   10.1176  6.83e+01
   4.8256    4.9678   10.1735  6.83e+01
   4.9949    4.6908   10.2207  6.83e+01
   4.9840    4.8456   10.3009  6.83e+01
   4.4780    2.8353   10.0043  6.62e+01
   4.9855    2.9011   10.1656  6.62e+01
   5.0440    4.4442    7.5676  6.62e+01
   5.1926    4.8490    7.6063  6.62e+01
   5.0829    4.9384    7.7059  6.62e+01
   3.7874    6.9225   10.6815  6.62e+01
   3.8231    7.4441   10.7596  6.62e+01
   3.9463    7.4217   10.7908  6.62e+01
   4.7020    4.9209    9.9932  6.83e+01
   4.9739    4.9253    9.8696  6.83e+01
   4.7114    4.9892    9.9032  6.83e+01
   4.9224    4.5719    9.8730  6.83e+01
   4.9184    4.5608    9.9477  6.83e+01
   4.8319    4.5844    9.9969  6.83e+01
   4.9167    4.3870    9.7230  6.83e+01
   4.8263    4.4494    9.8097  6.83e+01
   4.7371    4.6223    9.7700  6.83e+01
   4.9047    4.8223   10.3813  6.83e+01
   4.9080    4.9427   10.4509  6.83e+01
   4.8680    4.7107   10.3929  6.83e+01
   4.8819    4.6260   10.1384  6.83e+01
   4.9734    4.4567   10.0292  6.83e+01
   4.9351    4.4547   10.1076  6.83e+01
   4.5187    3.4198   11.5829  6.62e+01
   4.8959    3.3716   11.7126  6.62e+01
   4.9810    3.3035   11.5796  6.62e+01
   5.8122    4.1116   13.9097  6.62e+01
   6.0463    4.0129   13.8343  6.62e+01
   5.8389    3.9290   13.9352  6.62e+01
   4.4789    3.4358    4.3719  6.62e+01
   4.5639    3.2765    4.2201  6.62e+01
   4.7385    3.2204    4.1608  6.62e+01
   4.7856    5.6880   13.0329  6.62e+01
   4.7353    6.0169   12.8933  6.62e+01
   4.3751    5.8668   13.1158  6.62e+01
   6.1568    6.1154   13.1225  6.62e+01
   6.1804    5.7900   12.9213  6.62e+01
   5.9517    6.1442   13.0317  6.62e+01
   5.5250    1.9978    7.7348  6.62e+01
   5.4511    2.2936    7.6632  6.62e+01
   5.6055    1.9010    7.5647  6.62e+01
   4.9955    4.6020    9.5455  6.83e+01
   4.8904    4.3795    9.5429  6.83e+01
   4.7275    4.7681    9.7589  6.83e+01
   4.9483    4.9057    9.7054  6.83e+01
   4.8718    4.8347    9.8074  6.83e+01
   4.6922    4.4137   10.2562  6.83e+01
   4.7299    4.4984   10.1640  6.83e+01
   4.7371    4.8616   10.5443  6.83e+01
   4.7184    4.9637   10.6036  6.83e+01
   4.7473    4.8148   10.5446  6.83e+01
   4.6288    8.1002   11.9662  6.62e+01
   4.9528    7.8515   12.0991  6.62e+01
   5.4189    7.5081   12.2092  6.62e+01
   5.1087    7.8311   12.4072  6.62e+01
   5.5218    4.3296   13.5309  6.62e+01
   5.2457    3.8641   13.7305  6.62e+01
   5.0986    3.7706   13.7003  6.62e+01
   4.7594    4.4541    9.4384  6.83e+01
   4.6928    4.6112    9.4471  6.83e+01
   4.7589    4.6153    9.4761  6.83e+01
   5.6204    2.9511   12.3177  6.62e+01
   5.1784    2.6366   12.2045  6.62e+01
   4.8186    5.1259   10.4117  6.83e+01
   4.8967    5.0498   10.3491  6.83e+01
   4.8938    5.2170   10.3565  6.83e+01
   4.7675    5.2588   10.3044  6.83e+01
   4.6923    5.0473   10.2766  6.83e+01
   2.5887    4.9174    4.1661  6.41e+01
   3.0699    4.2151    4.1568  6.41e+01
   2.8969    4.3177    4.3309  6.41e+01
   4.8229    4.6082    0.3497  6.62e+01
   4.8576    4.7449    0.4876  6.62e+01
   4.5433    4.7159    0.4345  6.62e+01
   4.7619    4.9736    9.6315  6.83e+01
   4.9246    4.9051    9.5409  6.83e+01
   4.7942    4.5515   10.3400  6.82e+01
   4.9670    4.5806   10.4242  6.82e+01
   4.7633    4.5516   10.4627  6.82e+01
   6.0735    6.2330   11.8637  6.62e+01
   6.0586    5.8406   11.8620  6.62e+01
   5.7624    6.2474   11.7770  6.62e+01
   4.1661    3.8812    1.2347  6.62e+01
   4.2961    3.8921    0.9739  6.62e+01
   4.0313    4.0947    1.2454  6.62e+01
   4.7791    5.0434   10.5202  6.82e+01
   4.9974    5.0312   10.5864  6.82e+01
   5.3722    3.8422    6.6437  6.62e+01
   5.5516    4.2012    6.7930  6.62e+01
   5.6189    3.9583    6.6892  6.62e+01
   4.9812    5.1491   10.0774  6.82e+01
   4.9782    5.1395   10.0121  6.82e+01
   4.9843    5.2802   10.0726  6.82e+01
   6.3216    2.1243   10.4194  6.41e+01
   7.1299    1.3661   10.4392  6.41e+01
   7.5202    0.9863   16.5688  6.20e+01
   9.3473    0.4016   16.8813  6.20e+01
   8.2471    0.9365   17.4980  6.20e+01
   4.0821    3.9067    4.2443  6.62e+01
   4.1107    4.2669    4.2770  6.62e+01
   4.3567    3.8468    4.3216  6.62e+01
   4.8715    4.8072   10.7315  6.82e+01
   4.7287    4.9741   10.7266  6.82e+01
   4.9541    4.7075   10.7194  6.82e+01
   6.0059    5.5132   10.9048  6.62e+01
   6.0675    5.0007   10.6899  6.62e+01
   4.9053    4.6455    9.2579  6.82e+01
   4.8475    4.4422    9.2881  6.82e+01
   4.7235    4.4474    9.2847  6.82e+01
   4.7749    5.1532   10.7100  6.82e+01
   4.8061    5.1337   10.7657  6.82e+01
   4.9320    5.2128   10.7203  6.82e+01
   4.8857    4.1395    9.6022  6.82e+01
   4.7780    4.2614    9.6854  6.82e+01
   5.5222    2.1299   10.2231  6.61e+01
   5.6158    2.4301   10.2439  6.61e+01
   5.6209    1.9858   10.3108  6.61e+01
   4.8709    4.3220    9.7060  6.82e+01
   4.7887    4.0646    9.7413  6.82e+01
   4.7690    4.2754    9.8027  6.82e+01
   4.8941    5.0861    9.8489  6.82e+01
   4.7432    5.2135    9.9654  6.82e+01
   4.7778    4.2217    9.4004  6.82e+01
   4.8941    4.1805    9.4059  6.82e+01
   3.7603    6.2668    8.0299  6.61e+01
   4.1693    6.6121    8.0278  6.61e+01
   4.0129    6.6772    7.8376  6.61e+01
   3.7578    4.0698   10.5493  6.61e+01
   4.2382    4.2242   10.5598  6.61e+01
   3.9120    3.9587   10.5081  6.61e+01
   3.9135    3.2873    5.0063  6.61e+01
   4.2232    3.6572    5.3108  6.61e+01
   4.3142    3.2786    5.0653  6.61e+01
   4.7376    4.6470   10.5611  6.82e+01
   4.7094    4.6008   10.5001  6.82e+01
   4.7489    4.6650   10.5097  6.82e+01
   4.7105    4.8423    9.4116  6.82e+01
   4.9221    4.9450    9.4101  6.82e+01
   4.7513    4.9006    9.4883  6.82e+01
   4.3812    4.2899    4.5951  6.61e+01
   4.8318    3.8047    4.5976  6.61e+01
   4.6437    4.3442    4.6191  6.61e+01
   4.7305    4.2501    9.9770  6.82e+01
   4.8274    4.3019    9.9699  6.82e+01
   4.9259    4.2604    9.8724  6.82e+01
   4.4077    9.1788    5.7632  6.20e+01
   4.6206    7.8147    5.1638  6.20e+01
   3.3561    9.3397    5.0432  6.20e+01
   4.8703    4.3700    9.2895  6.82e+01
   4.8589    4.3016    9.2403  6.82e+01
   4.4742    4.7638    9.6845  6.82e+01
   4.6718    4.7205    9.5914  6.82e+01
   4.5915    4.9116    9.3948  6.82e+01
   4.5421    4.9875    9.5057  6.82e+01
   5.0174    4.3971   10.3642  6.82e+01
   5.0710    4.3773   10.4098  6.82e+01
   5.4272    6.4001    9.8919  6.61e+01
   5.4340    6.8028    9.6995  6.61e+01
   5.2362    6.2689    9.9705  6.61e+01
   4.3668    3.5178    8.8179  6.61e+01
   4.2757    3.5647    8.9539  6.61e+01
   4.3250    3.5881    8.8872  6.61e+01
   5.1816    4.4839   10.6055  6.82e+01
   5.1747    4.5678   10.5669  6.82e+01
   5.1495    4.3777   10.5281  6.82e+01
   4.6738    6.9113    9.3499  6.61e+01
   4.6869    7.3745    9.1038  6.61e+01
   4.9880    7.0791    9.3095  6.61e+01
   4.3869    4.9008    9.7328  6.82e+01
   4.3818    4.8315    9.6988  6.82e+01
   4.9978    4.4784    9.1244  6.82e+01
   4.9359    4.5882    9.0681  6.82e+01
   4.8120    5.1803   10.7900  6.82e+01
   4.7888    5.1000   10.8872  6.82e+01
   4.9172    4.7055   10.8896  6.82e+01
   4.8671    4.7860   10.8215  6.82e+01
   5.0716    4.4159   10.1941  6.82e+01
   5.2567    4.6593   10.2086  6.82e+01
   5.2948    4.4602   10.1900  6.82e+01
   4.6243    4.8177    9.3616  6.82e+01
   4.4724    4.7815    9.2294  6.82e+01
   4.7417    4.1893   10.0870  6.82e+01
   4.9096    4.1914   10.0149  6.82e+01
   4.3311    4.4311    4.5191  6.61e+01
   3.8812    4.4632    4.5832  6.61e+01
   5.2707    4.6292   10.6309  6.82e+01
   5.2332    4.4900   10.6730  6.82e+01
   5.0732    4.5584   10.6658  6.82e+01
   4.9928    5.0355    9.8204  6.82e+01
   4.8865    5.1071    9.8315  6.82e+01
   4.8741    5.1882    9.7365  6.82e+01
   4.4152    3.1583    3.8792  6.61e+01
   4.4867    3.5190    3.9948  6.61e+01
   4.4241    3.2885    3.9215  6.61e+01
   4.9195    5.5574    2.4561  6.40e+01
   4.7395    5.5068    2.1132  6.40e+01
   4.7161    5.6719    2.2610  6.40e+01
   4.9297    4.2532    9.1924  6.82e+01
   4.7448    4.1591    9.0848  6.82e+01
   4.9896    4.1382    9.1090  6.82e+01
   4.6001    5.2512    9.7311  6.82e+01
   4.4259    5.0342    9.7615  6.82e+01
   4.5384    5.0057    9.7987  6.82e+01
   5.5143    2.3325    7.1194  6.61e+01
   5.3701    2.1754    6.8758  6.61e+01
   5.4770    2.0969    6.9678  6.61e+01
   4.5447    5.2062    9.8783  6.82e+01
   4.6698    5.2792    9.8550  6.82e+01
   4.8172    3.0172    4.5855  6.61e+01
   4.5641    2.6565    4.4514  6.61e+01
   5.8721    2.8294   13.2043  6.61e+01
   5.9159    2.6500   13.2767  6.61e+01
   4.4117    3.2454    1.3396  6.61e+01
   4.8532    3.5601    1.4422  6.61e+01
   4.9949    3.5350    1.2739  6.61e+01
   4.5508    4.6926    9.8823  6.82e+01
   4.5289    4.9189    9.8669  6.82e+01
   4.6202    4.7787    9.9352  6.82e+01
   5.1959    4.9426   10.7706  6.82e+01
   5.2585    4.7795   10.7681  6.82e+01
   4.2698    4.9508    1.2285  6.61e+01
   3.7903    4.6427    0.9562  6.61e+01
   4.1051    4.5110    1.1194  6.61e+01
   5.1930    4.8871   10.5409  6.82e+01
   5.2032    4.8181   10.5542  6.82e+01
   4.7392    4.9304    5.3926  6.61e+01
   4.5625    4.7309    5.3612  6.61e+01
   4.4414    4.5480    5.4710  6.61e+01
   4.3906    5.1394    9.5983  6.82e+01
   4.5318    5.2538    9.6171  6.82e+01
   5.1156    4.5321   10.0294  6.82e+01
   5.2425    4.4670   10.1342  6.82e+01
   4.5549    4.8367    9.1854  6.82e+01
   4.6074    4.8104    9.1258  6.82e+01
   4.9858    4.4964   10.6554  6.82e+01
   4.9705    4.5989   10.6374  6.82e+01
   4.6877    4.4495   10.6300  6.82e+01
   5.0512    4.0683   10.2938  6.82e+01
   5.2919    4.3604   10.3034  6.82e+01
   5.2078    4.1386   10.2724  6.82e+01
   5.0975    4.5423   10.8632  6.82e+01
   5.1864    4.5570   10.8839  6.82e+01
   5.2065    4.4696   10.8881  6.82e+01
   5.0483    4.6935   10.8877  6.82e+01
   5.1007    4.8671   10.8549  6.82e+01
   4.5366    5.2601   10.0528  6.82e+01
   4.6079    5.0803   10.1502  6.82e+01
   4.7475    4.9007    9.3050  6.82e+01
   4.8781    4.9002    9.2457  6.82e+01
   4.7376    4.7656    9.2971  6.82e+01
   5.8535    2.3975   10.5392  6.61e+01
   6.1532    2.2446   10.4852  6.61e+01
   3.8711    5.2859   11.6284  6.61e+01
   4.3323    5.6214   11.7427  6.61e+01
   3.7586    5.3255   11.6229  6.61e+01
   5.5753    3.1496   13.3971  6.61e+01
   5.6161    3.7300   13.2666  6.61e+01
   5.1681    4.1241   10.4540  6.82e+01
   5.0090    4.0882   10.3389  6.82e+01
   6.2017    3.5722    8.6956  6.61e+01
   5.8599    3.6267    8.7488  6.61e+01
   5.8825    2.3883   11.0282  6.61e+01
   5.9342    2.1736   11.0881  6.61e+01
   6.2434    2.2798   11.2459  6.61e+01
   5.0934    4.2026   10.1145  6.82e+01
   5.0964    4.2895   10.0312  6.82e+01
   4.8003    4.2925   10.1972  6.82e+01
   4.7023    4.0853   10.2893  6.82e+01
   5.2194    4.6954   10.4145  6.82e+01
   5.0954    4.9135   10.4087  6.82e+01
   8.7813    2.0766   17.6558  6.19e+01
   8.8812    0.0263   17.6587  6.19e+01
   8.3878    0.5906   18.6366  6.19e+01
   4.5937    4.6469    9.2703  6.82e+01
   4.4193    4.6002    9.2365  6.82e+01
   5.2205    7.6233   11.0347  6.61e+01
   5.1636    7.6564   11.2474  6.61e+01
   4.5913    5.0172    9.4893  6.81e+01
   4.4111    5.2527    9.3879  6.81e+01
   4.5920    5.2478    9.4402  6.81e+01
   4.5498    4.4871    9.1642  6.81e+01
   4.5008    4.5197    9.1948  6.81e+01
   4.9615    5.4961   10.5876  6.81e+01
   4.9121    5.4509   10.5009  6.81e+01
   4.4041    4.6215    9.4115  6.81e+01
   4.6814    4.4601    9.4433  6.81e+01
   6.1280    0.0957   17.2543  6.19e+01
