NLLOC "./loc/vinti.19950422.151153_001.grid0" "LOCATED" "Location completed."
SIGNATURE "Anthony Lomax - Geosciences Azur   NLLoc:v4.10.6 07Jul2008 16h19m57"
COMMENT "1995 Vintimiglia Sequence (NonLinLoc Sample Location)"
GRID  101 101 21  -50.000000 -50.000000 0.000000  1.000000 1.000000 1.000000 PROB_DENSITY
SEARCH OCTREE nInitial 400 nEvaluated 10016 smallestNodeSide 0.312500/0.312500/0.156250
HYPOCENTER  x 5.156250 y 4.218750 z 5.703125  OT 50.843329  ix -1 iy -1 iz -1
GEOGRAPHIC  OT 1995 04 22  15 11 50.843329  Lat 43.787956 Long 7.564064 Depth 5.703125
QUALITY  Pmax 1.345e+36 MFmin 17.499244 MFmax 17.557444 RMS 0.227342 Nphs 15 Gap 188 Dist 10.730155 Mamp -9.90 0 Mdur -9.90 0
VPVSRATIO  VpVsRatio 1.617e+00  Npair 4  Diff 1.910e+00
STATISTICS  ExpectX 5.1322e+00 Y 3.5823e+00 Z 4.7182e+00  CovXX 2.97e-01 XY -1.50e-01 XZ 2.08e-01 YY 3.31e+00 YZ 1.61e+00 ZZ 5.91e+00 EllAz1  85.4 Dip1  -3.4 Len1  9.81e-01 Az2  353.7 Dip2  -25.2 Len2  3.01e+00 Len3  4.86e+00
STAT_GEOG  ExpectLat 43.782227 Long 7.563759 Depth 4.718156
TRANSFORM  LAMBERT RefEllipsoid Clarke-1880  LatOrig 43.750000  LongOrig 7.500000  FirstStdParal 43.199300  SecondStdParal 44.996100  RotCW 0.000000
FOCALMECH  Hyp  43.787956 7.564064 5.703125 Mech  0.0 0.0 0.0 mf  0.00 nObs 0
PHASE ID Ins Cmp On Pha  FM Date     HrMn   Sec     Err  ErrMag    Coda      Amp       Per      >   TTpred    Res       Weight    StaLoc(X  Y         Z)        SDist    SAzim  RAz   RDip  RQual    Tcorr 
RONE   ?    ?    ? P      ? 19950422 1511   53.6300 GAU  1.00e-01 -1.00e+00 -1.00e+00 -1.00e+00 >    2.9099   -0.1232    1.0584    7.8887   14.5952   -0.3000   10.7302  14.75  14.8 116.3  9     0.0000
RONE   ?    ?    ? S      ? 19950422 1511   55.7000 GAU  1.00e-01 -1.00e+00 -1.00e+00 -1.00e+00 >    4.8886   -0.0319    1.0584    7.8887   14.5952   -0.3000   10.7302  14.75  14.8 116.3  9     0.0000
NEGI   ?    ?    ? P      ? 19950422 1511   54.1300 GAU  1.00e-01 -1.00e+00 -1.00e+00 -1.00e+00 >    3.2659   -0.0193    1.0584   16.3893   10.8705   -0.6400   13.0548  59.37  59.4 111.6  9     0.0400
NEGI   ?    ?    ? S      ? 19950422 1511   56.4200 GAU  1.00e-01 -1.00e+00 -1.00e+00 -1.00e+00 >    5.4868    0.0499    1.0584   16.3893   10.8705   -0.6400   13.0548  59.37  59.4 111.6  9     0.0400
SBF    ?    ?    P G      ? 19950422 1511   54.3200 GAU  1.00e-01 -1.00e+00 -1.00e+00 -1.00e+00 >    3.3136    0.1630    1.0584   -5.2384   12.6113   -0.8470   13.3598 308.92 308.9 111.1  9     0.0000
REVF   ?    ?    P G      ? 19950422 1511   53.8700 GAU  1.00e-01 -1.00e+00 -1.00e+00 -1.00e+00 >    3.8420   -0.8153    1.0584  -10.6730   -1.1024   -0.7000   16.6997 251.42 251.4 107.1  9     0.0000
CEPP   ?    ?    ? P      ? 19950422 1511   55.3200 GAU  1.00e-01 -1.00e+00 -1.00e+00 -1.00e+00 >    4.4474    0.0293    1.0584   19.7971   18.5085   -1.0800   20.4585  45.70  45.7 104.1  9     0.0000
CEPP   ?    ?    ? S      ? 19950422 1511   58.3400 GAU  1.00e-01 -1.00e+00 -1.00e+00 -1.00e+00 >    7.4716    0.0251    1.0584   19.7971   18.5085   -1.0800   20.4585  45.70  45.7 104.1  9     0.0000
AURF   ?    ?    P G      ? 19950422 1511   55.5400 GAU  1.00e-01 -1.00e+00 -1.00e+00 -1.00e+00 >    4.6969   -0.0002    1.0584  -13.8607   15.2716   -1.0400   21.9957 300.17 300.2 103.2  9     0.0000
AURF   ?    ?    ? p      ? 19950422 1511   55.5700 GAU  5.00e-01 -1.00e+00 -1.00e+00 -1.00e+00 >    4.6969    0.0298    0.1825  -13.8607   15.2716   -1.0400   21.9957 300.17 300.2 103.2  9     0.0000
AUTN   ?    ?    P G      ? 19950422 1511   56.0300 GAU  1.00e-01 -1.00e+00 -1.00e+00 -1.00e+00 >    5.2743   -0.0876    1.0584   -5.8149   27.2765   -2.0690   25.5348 334.55 334.6 101.5  9     0.0000
AUTN   ?    ?    i p      u 19950422 1511   56.1800 GAU  1.00e-01 -1.00e+00 -1.00e+00 -1.00e+00 >    5.2743    0.0624    1.0584   -5.8149   27.2765   -2.0690   25.5348 334.55 334.6 101.5  9     0.0000
IMI    ?    ?    ? P      ? 19950422 1511   56.8700 GAU  1.00e-01 -1.00e+00 -1.00e+00 -1.00e+00 >    5.9669    0.0597    1.0584   31.5793   17.9062   -0.8400   29.7578  62.62  62.6  99.9  9     0.0000
IMI    ?    ?    ? S      ? 19950422 1512    0.8500 GAU  1.00e-01 -1.00e+00 -1.00e+00 -1.00e+00 >   10.0244   -0.0178    1.0584   31.5793   17.9062   -0.8400   29.7578  62.62  62.6  99.9  9     0.0000
MVIF   ?    ?    P G      ? 19950422 1511   57.6400 GAU  1.00e-01 -1.00e+00 -1.00e+00 -1.00e+00 >    6.8671   -0.0705    1.0584  -27.9180   16.3343   -1.4800   35.2234 290.12 290.1  98.5  9     0.0000
0666   ?    ?    e p      d 19950422 1511   53.0400 GAU  1.00e-01 -1.00e+00 -1.00e+00 -1.00e+00 >    0.0000    0.0000    0.0000 -100000000000000000000.0000 -100000000000000000000.0000 -100000000000000000000.0000    0.0000   0.00   0.0   0.0  0     0.0000
0665   ?    ?    e p      d 19950422 1511   53.0800 GAU  1.00e-01 -1.00e+00 -1.00e+00 -1.00e+00 >    0.0000    0.0000    0.0000 -100000000000000000000.0000 -100000000000000000000.0000 -100000000000000000000.0000    0.0000   0.00   0.0   0.0  0     0.0000
.obs   ?    ?    i p      d 19950422 1511   54.5200 GAU  1.00e-01 -1.00e+00 -1.00e+00 -1.00e+00 >    0.0000    0.0000    0.0000 -100000000000000000000.0000 -100000000000000000000.0000 -100000000000000000000.0000    0.0000   0.00   0.0   0.0  0     0.0000
ENR    ?    ?    ? P      ? 19950422 1512    0.0800 GAU  1.00e-01 -1.00e+00 -1.00e+00 -1.00e+00 >    0.0000    0.0000    0.0000 -100000000000000000000.0000 -100000000000000000000.0000 -100000000000000000000.0000    0.0000   0.00   0.0   0.0  0     0.0000
STV    ?    ?    ? P      ? 19950422 1512    0.5800 GAU  1.00e-01 -1.00e+00 -1.00e+00 -1.00e+00 >    0.0000    0.0000    0.0000 -100000000000000000000.0000 -100000000000000000000.0000 -100000000000000000000.0000    0.0000   0.00   0.0   0.0  0     0.0000
ROB    ?    ?    ? P      ? 19950422 1512    1.7800 GAU  5.00e-01 -1.00e+00 -1.00e+00 -1.00e+00 >    0.0000    0.0000    0.0000 -100000000000000000000.0000 -100000000000000000000.0000 -100000000000000000000.0000    0.0000   0.00   0.0   0.0  0     0.0000
FIN    ?    ?    ? P      ? 19950422 1512    3.3300 GAU  5.00e-01 -1.00e+00 -1.00e+00 -1.00e+00 >    0.0000    0.0000    0.0000 -100000000000000000000.0000 -100000000000000000000.0000 -100000000000000000000.0000    0.0000   0.00   0.0   0.0  0     0.0000
FRF    ?    ?    ? G      ? 19950422 1512    4.7000 GAU  1.00e-01 -1.00e+00 -1.00e+00 -1.00e+00 >    0.0000    0.0000    0.0000 -100000000000000000000.0000 -100000000000000000000.0000 -100000000000000000000.0000    0.0000   0.00   0.0   0.0  0     0.0000
PZZ    ?    ?    ? P      ? 19950422 1512    5.7900 GAU  1.00e+00 -1.00e+00 -1.00e+00 -1.00e+00 >    0.0000    0.0000    0.0000 -100000000000000000000.0000 -100000000000000000000.0000 -100000000000000000000.0000    0.0000   0.00   0.0   0.0  0     0.0000
ENR    ?    ?    ? S      ? 19950422 1512    5.8000 GAU  1.00e-01 -1.00e+00 -1.00e+00 -1.00e+00 >    0.0000    0.0000    0.0000 -100000000000000000000.0000 -100000000000000000000.0000 -100000000000000000000.0000    0.0000   0.00   0.0   0.0  0     0.0000
STV    ?    ?    ? S      ? 19950422 1512    6.7100 GAU  1.00e-01 -1.00e+00 -1.00e+00 -1.00e+00 >    0.0000    0.0000    0.0000 -100000000000000000000.0000 -100000000000000000000.0000 -100000000000000000000.0000    0.0000   0.00   0.0   0.0  0     0.0400
LMR    ?    ?    ? G      ? 19950422 1512    7.4000 GAU  1.00e-01 -1.00e+00 -1.00e+00 -1.00e+00 >    0.0000    0.0000    0.0000 -100000000000000000000.0000 -100000000000000000000.0000 -100000000000000000000.0000    0.0000   0.00   0.0   0.0  0     0.0000
LRG    ?    ?    ? G      ? 19950422 1512    8.9000 GAU  1.00e-01 -1.00e+00 -1.00e+00 -1.00e+00 >    0.0000    0.0000    0.0000 -100000000000000000000.0000 -100000000000000000000.0000 -100000000000000000000.0000    0.0000   0.00   0.0   0.0  0     0.0000
ROB    ?    ?    ? S      ? 19950422 1512    9.1100 GAU  5.00e-01 -1.00e+00 -1.00e+00 -1.00e+00 >    0.0000    0.0000    0.0000 -100000000000000000000.0000 -100000000000000000000.0000 -100000000000000000000.0000    0.0000   0.00   0.0   0.0  0     0.0000
FIN    ?    ?    ? S      ? 19950422 1512   11.5100 GAU  5.00e-01 -1.00e+00 -1.00e+00 -1.00e+00 >    0.0000    0.0000    0.0000 -100000000000000000000.0000 -100000000000000000000.0000 -100000000000000000000.0000    0.0000   0.00   0.0   0.0  0     0.0000
PZZ    ?    ?    ? S      ? 19950422 1512   15.4000 GAU  1.00e+00 -1.00e+00 -1.00e+00 -1.00e+00 >    0.0000    0.0000    0.0000 -100000000000000000000.0000 -100000000000000000000.0000 -100000000000000000000.0000    0.0000   0.00   0.0   0.0  0     0.0000
END_PHASE
END_NLLOC

