NLLOC "./loc/vinti.19950421.080259.grid0" "LOCATED" "Location completed."
SIGNATURE "Anthony Lomax - Geosciences Azur   NLLoc:v4.40.1 20Aug2008 13h05m52"
COMMENT "1995 Vintimiglia Sequence (NonLinLoc Sample Location)"
GRID  101 101 21  -50.000000 -50.000000 0.000000  1.000000 1.000000 1.000000 PROB_DENSITY
SEARCH OCTREE nInitial 400 nEvaluated 10008 smallestNodeSide 0.312500/0.312500/0.156250 oct_tree_integral 5.018439e+01 scatter_volume 5.018439e+01
HYPOCENTER  x 4.843750 y 6.093750 z 9.453125  OT 57.046441  ix -1 iy -1 iz -1
GEOGRAPHIC  OT 1995 04 21  08 02 57.046441  Lat 43.804836 Long 7.560198 Depth 9.453125
QUALITY  Pmax 1.264e+26 MFmin 13.148783 MFmax 13.212033 RMS 0.132876 Nphs 12 Gap 177 Dist 9.030267 Mamp -9.90 0 Mdur -9.90 0
VPVSRATIO  VpVsRatio 5.000e-01  Npair 2  Diff 1.000e+00
STATISTICS  ExpectX 5.0856e+00 Y 5.9594e+00 Z 8.9342e+00  CovXX 7.14e-01 XY -2.92e-01 XZ 1.24e+00 YY 2.98e+00 YZ -4.60e-01 ZZ 1.55e+01 EllAz1  83.9 Dip1  -4.5 Len1  1.44e+00 Az2  354.1 Dip2  2.7 Len2  3.25e+00 Len3  7.43e+00
STAT_GEOG  ExpectLat 43.803625 Long 7.563202 Depth 8.934228
TRANSFORM  LAMBERT RefEllipsoid Clarke-1880  LatOrig 43.750000  LongOrig 7.500000  FirstStdParal 43.199300  SecondStdParal 44.996100  RotCW 0.000000
FOCALMECH  Hyp  43.804836 7.560198 9.453125 Mech  0.0 0.0 0.0 mf  0.00 nObs 0
PHASE ID Ins Cmp On Pha  FM Date     HrMn   Sec     Err  ErrMag    Coda      Amp       Per  >   TTpred    Res       Weight    StaLoc(X  Y         Z)        SDist    SAzim  RAz  RDip RQual    Tcorr 
RONE   ?    ?    ? P      U 19950421 0802   59.4400 GAU  1.00e-01 -1.00e+00 -1.00e+00 -1.00e+00 >    2.4571   -0.0636    1.1278    7.8887   14.5952   -0.3000    9.0303  19.71  19.7 132.7  9     0.0000
SBF    ?    ?    ? P      ? 19950421 0803    0.2600 GAU  1.00e-01 -1.00e+00 -1.00e+00 -1.00e+00 >    2.9634    0.2502    0.8775   -5.2384   12.6113   -0.8470   12.0053 302.88 302.9 123.6  9     0.0000
NEGI   ?    ?    ? P      U 19950421 0803    0.0200 GAU  1.00e-01 -1.00e+00 -1.00e+00 -1.00e+00 >    2.9892   -0.0556    1.1337   16.3893   10.8705   -0.6400   12.4947  67.52  67.5 122.2  9     0.0400
REVF   ?    ?    ? P      ? 19950421 0803    0.6700 GAU  1.00e-01 -1.00e+00 -1.00e+00 -1.00e+00 >    3.6760   -0.0524    1.1359  -10.6730   -1.1024   -0.7000   17.1042 245.12 245.1 114.4  9     0.0000
CEPP   ?    ?    ? P      U 19950421 0803    1.1400 GAU  1.00e-01 -1.00e+00 -1.00e+00 -1.00e+00 >    4.1071   -0.0135    1.1537   19.7971   18.5085   -1.0800   19.4352  50.30  50.3 111.8  9     0.0000
AURF   ?    ?    ? P      ? 19950421 0803    1.3900 GAU  1.00e-01 -1.00e+00 -1.00e+00 -1.00e+00 >    4.3157    0.0278    1.1544  -13.8607   15.2716   -1.0400   20.8348 296.14 296.1 110.4  9     0.0000
AUTN   ?    ?    ? P      ? 19950421 0803    2.0400 GAU  1.00e-01 -1.00e+00 -1.00e+00 -1.00e+00 >    4.9659    0.0276    1.1545   -5.8149   27.2765   -2.0690   23.7132 333.29 333.3 108.5  9     0.0000
IMI    ?    ?    ? P      ? 19950421 0803    2.7700 GAU  1.00e-01 -1.00e+00 -1.00e+00 -1.00e+00 >    5.6051    0.1184    1.0923   31.5793   17.9062   -0.8400   29.2288  66.16  66.2 103.8  9     0.0000
TOUF   ?    ?    ? P      ? 19950421 0803    3.5500 GAU  1.00e-01 -1.00e+00 -1.00e+00 -1.00e+00 >    6.5850   -0.0814    1.1122  -20.1791   29.3046   -1.8500   34.1304 312.85 312.8 100.8  9     0.0000
TOUF   ?    ?    ? S      ? 19950421 0803    7.6500 GAU  5.00e-01 -1.00e+00 -1.00e+00 -1.00e+00 >   11.0627   -0.4592    0.5032  -20.1791   29.3046   -1.8500   34.1304 312.85 312.8 100.8  9     0.0000
MVIF   ?    ?    ? P      ? 19950421 0803    3.5800 GAU  1.00e-01 -1.00e+00 -1.00e+00 -1.00e+00 >    6.5456   -0.0120    1.1540  -27.9180   16.3343   -1.4800   34.3249 287.36 287.4 100.4  9     0.0000
MVIF   ?    ?    ? S      ? 19950421 0803    8.6800 GAU  5.00e-01 -1.00e+00 -1.00e+00 -1.00e+00 >   10.9965    0.6370    0.4008  -27.9180   16.3343   -1.4800   34.3249 287.36 287.4 100.4  9     0.0000
END_PHASE
SCATTER Nsamples 5012
   5.0993    5.8482    5.0728  6.43e+01
   5.5240    5.6687    5.1574  6.43e+01
   5.4067    6.2380    5.1825  6.43e+01
   5.4733    5.6984    5.1767  6.43e+01
   4.5154    2.9216   11.5621  6.22e+01
   4.0169    3.7314   11.3980  6.22e+01
   3.8372    3.5556   11.6086  6.22e+01
   5.5042    4.9817    6.5006  6.43e+01
   5.1718    4.4652    6.4731  6.43e+01
   5.1357    4.7820    6.3382  6.43e+01
   5.0792    3.8507   11.7252  6.43e+01
   5.5902    3.7630   11.7723  6.43e+01
   5.5295    3.7711   11.7342  6.43e+01
   5.1562    4.0952   11.6257  6.43e+01
   5.3252    4.4855   13.3324  6.43e+01
   5.1499    4.5834   13.2828  6.43e+01
   5.5874    4.4779   13.3992  6.43e+01
   5.3257    4.6687   13.2994  6.43e+01
   3.8899    2.8340    7.0393  6.22e+01
   4.7657    2.8018    7.2080  6.22e+01
   4.5902    2.7523    7.3105  6.22e+01
   4.1715    5.7317   10.0904  6.43e+01
   4.3416    5.7821   10.0503  6.43e+01
   3.9563    5.6911   10.0423  6.43e+01
   5.2164    7.5934   11.7981  6.43e+01
   5.5463    8.0406   11.6339  6.43e+01
   5.1515    7.8099   11.7282  6.43e+01
   3.7922    6.3972   10.3261  6.43e+01
   3.8680    6.2729   10.4632  6.43e+01
   3.8422    6.3376   10.4732  6.43e+01
   4.2698    6.4990   10.3357  6.43e+01
   4.9991    5.0660    2.7416  6.43e+01
   4.4847    5.4676    2.5147  6.43e+01
   4.8088    5.5141    2.5925  6.43e+01
   4.3030    7.0325    7.1485  6.43e+01
   4.0394    7.3509    7.0715  6.43e+01
   4.2502    6.9876    7.0807  6.43e+01
   3.7679    7.3685    6.9710  6.43e+01
   4.4925    6.4372    1.4826  6.43e+01
   4.4789    6.3926    1.4239  6.43e+01
   4.7074    6.5907    1.5183  6.43e+01
   4.9361    6.5143    1.9994  6.43e+01
   4.9797    6.5857    2.0966  6.43e+01
   4.8879    6.7489    1.9060  6.43e+01
   5.3540    7.0197    6.9244  6.43e+01
   5.1238    7.3691    7.0639  6.43e+01
   5.3761    7.0494    6.9688  6.43e+01
   5.5495    6.9552    6.9444  6.43e+01
   5.4958    4.1798    9.1025  6.43e+01
   5.2835    4.3670    9.2641  6.43e+01
   5.3880    3.7973    9.1200  6.43e+01
   5.4201    3.9129    9.0770  6.43e+01
   7.3035    3.6232   14.3490  6.22e+01
   6.6661    2.9594   13.8611  6.22e+01
   7.4371    2.5384   14.3387  6.22e+01
   5.7765    4.4499   12.1924  6.42e+01
   5.9430    4.7160   12.2688  6.42e+01
   6.1511    4.7311   12.4756  6.42e+01
   5.9144    4.8063   12.4058  6.42e+01
   3.8771    6.0257    5.7006  6.42e+01
   3.9307    6.2289    5.6995  6.42e+01
   4.1913    5.8984    5.8461  6.42e+01
   6.1933    6.2231    9.8380  6.42e+01
   5.6481    5.6774    9.9041  6.42e+01
   6.0905    6.0895    9.9613  6.42e+01
   6.0336    5.8776    9.7952  6.42e+01
   6.1159    4.7295   10.4116  6.42e+01
   6.2204    4.4991   10.3698  6.42e+01
   5.9630    4.4444   10.5507  6.42e+01
   5.9697    4.7158   10.4420  6.42e+01
   5.7103    6.7330   11.2935  6.42e+01
   6.0329    6.4705   11.2839  6.42e+01
   6.1819    6.6005   11.2752  6.42e+01
   5.2395    2.6106    4.3219  6.21e+01
   6.2312    2.9616    4.2078  6.21e+01
   5.6841    2.8422    4.3606  6.21e+01
   5.2583    3.6547    3.8540  6.21e+01
   4.5226    5.3378    2.0572  6.42e+01
   4.7351    5.5641    1.8854  6.42e+01
   4.6959    5.2173    2.1206  6.42e+01
   4.7941    5.3662    1.2714  6.42e+01
   4.7498    5.0883    1.4495  6.42e+01
   4.6049    5.1338    1.4140  6.42e+01
   4.4821    5.3141    1.3167  6.42e+01
   5.9443    6.3146   10.9301  6.42e+01
   5.9345    6.3254   10.7397  6.42e+01
   6.0417    6.7507   10.6630  6.42e+01
   6.1264    6.3527   10.9090  6.42e+01
   5.3743    5.4608    4.8649  6.42e+01
   5.6134    5.1275    4.7717  6.42e+01
   5.2253    5.1540    4.7672  6.42e+01
   4.4719    4.5706    5.3846  6.42e+01
   4.3782    4.4623    5.5752  6.42e+01
   4.8512    4.8517    5.6061  6.42e+01
   4.9843    5.0455    0.6874  6.42e+01
   4.9296    5.4115    0.7216  6.42e+01
   4.5298    5.1995    0.6533  6.42e+01
   6.9413    6.2557   13.3042  6.21e+01
   7.1299    6.9143   13.3981  6.21e+01
   6.8416    6.9697   13.5555  6.21e+01
   7.0336    3.2352   15.0248  6.21e+01
   6.3204    2.6717   15.2160  6.21e+01
   6.9342    3.4725   15.4595  6.21e+01
   6.8111    3.4980   15.5594  6.21e+01
   4.0143    6.6225    4.8912  6.42e+01
   3.8272    6.2513    4.9512  6.42e+01
   3.7993    6.6914    4.8315  6.42e+01
   4.5360    6.4097    0.8612  6.42e+01
   4.9535    6.2716    0.7561  6.42e+01
   4.5485    6.6710    0.8935  6.42e+01
   4.5197    6.4110    0.8763  6.42e+01
   6.0879    6.1533   13.1061  6.42e+01
   5.9405    5.8201   13.0863  6.42e+01
   5.7698    5.6979   12.9753  6.42e+01
   3.9214    6.9228    6.2820  6.42e+01
   3.9582    7.0066    6.5498  6.42e+01
   4.0632    7.0449    6.4726  6.42e+01
   6.2090    5.0518    9.4304  6.42e+01
   5.8088    5.0345    9.4840  6.42e+01
   5.6329    5.1024    9.4751  6.42e+01
   5.9838    6.3746   11.9584  6.42e+01
   6.0652    6.7689   11.9772  6.42e+01
   6.1992    6.5557   11.9945  6.42e+01
   4.9841    4.5739   12.4751  6.42e+01
   4.8138    4.4024   12.2641  6.42e+01
   4.4509    4.7742   12.3180  6.42e+01
   4.7184    4.5421   12.2990  6.42e+01
   4.8071    8.3852    9.8768  6.42e+01
   4.9066    8.4888    9.9522  6.42e+01
   4.8453    8.1620    9.7798  6.42e+01
   4.6044    7.6341    6.4638  6.42e+01
   4.9446    7.7771    6.4480  6.42e+01
   4.6595    7.9830    6.4431  6.42e+01
   4.6150    7.5154    6.2662  6.42e+01
   5.9776   10.4604    9.0636  6.21e+01
   6.1544   10.1219    9.0013  6.21e+01
   6.1590   11.1720    9.0453  6.21e+01
   4.6620    7.1002    4.2925  6.42e+01
   4.5828    7.4470    4.2195  6.42e+01
   4.5243    7.3490    4.3690  6.42e+01
   4.6214    7.4621    4.0721  6.42e+01
   3.9712    7.4022   10.2865  6.42e+01
   3.8220    7.2559   10.0330  6.42e+01
   4.0236    7.2552   10.0704  6.42e+01
   4.5052    5.1932    0.1591  6.42e+01
   4.5579    5.0729    0.0122  6.42e+01
   4.6315    5.4216    0.3124  6.42e+01
   4.4802    8.6503    9.2757  6.42e+01
   4.8972    8.3580    9.1853  6.42e+01
   4.5433    8.3129    9.2792  6.42e+01
   6.1784    5.1462   13.3515  6.42e+01
   5.8465    5.5706   13.3957  6.42e+01
   5.6357    5.1602   13.2911  6.42e+01
   5.5543    4.0675    8.4609  6.42e+01
   5.6128    3.8827    8.7455  6.42e+01
   5.2735    4.2221    8.6673  6.42e+01
   5.5124    3.9283   12.2581  6.42e+01
   5.5897    4.3577   12.2870  6.42e+01
   5.5539    4.1942   12.3292  6.42e+01
   3.7715    3.5367    5.7570  6.21e+01
   4.8342    2.7527    6.0621  6.21e+01
   4.6454    3.0445    5.7852  6.21e+01
   5.0951    5.9818   13.8124  6.42e+01
   5.4973    5.8506   14.0114  6.42e+01
   5.3255    5.7293   13.7574  6.42e+01
   9.9906    3.7073   17.0891  6.00e+01
   8.0258    4.5582   16.5497  6.00e+01
   8.3855    3.4454   16.3386  6.00e+01
   6.1436    5.1848   16.8814  6.21e+01
   6.0981    5.9707   17.1225  6.21e+01
   5.3592    5.9152   16.9879  6.21e+01
   4.1430    6.0991    5.1752  6.42e+01
   4.1271    6.1322    5.0799  6.42e+01
   3.9670    6.2438    5.0223  6.42e+01
   4.1482    5.6629    5.0407  6.42e+01
   5.1840    6.5800    5.3503  6.42e+01
   5.1741    6.2813    5.5506  6.42e+01
   5.5909    6.5820    5.5725  6.42e+01
   5.4980    6.2822   13.4494  6.41e+01
   5.3427    6.4851   13.6129  6.41e+01
   5.3859    6.4114   13.6952  6.41e+01
   5.2457    4.9742    5.9025  6.41e+01
   5.4809    4.9407    5.7932  6.41e+01
   5.2937    4.4931    5.8736  6.41e+01
   5.2297    4.8238    5.6515  6.41e+01
   6.4744    3.3548   12.5078  6.21e+01
   6.5650    3.3177   12.7671  6.21e+01
   6.3079    3.1056   12.7902  6.21e+01
   5.6068    6.2000    4.4380  6.41e+01
   5.3311    6.1339    4.5063  6.41e+01
   5.1984    5.7186    4.6122  6.41e+01
   5.6711    4.8188   13.0174  6.41e+01
   6.1622    4.8600   12.8639  6.41e+01
   5.7278    4.7412   12.8380  6.41e+01
   4.1174    5.8482   10.9167  6.41e+01
   4.0520    6.2338   10.8484  6.41e+01
   3.9675    5.9478   10.6948  6.41e+01
   4.5296    5.0574   13.3070  6.41e+01
   4.7457    5.6053   13.1378  6.41e+01
   4.8680    5.5324   13.1710  6.41e+01
   5.1818    7.5459    7.8998  6.41e+01
   5.3769    7.7910    7.8701  6.41e+01
   5.5506    7.8202    7.8822  6.41e+01
   4.2297    6.4510    4.1080  6.41e+01
   3.8881    6.2949    4.1204  6.41e+01
   4.1781    6.7549    4.1547  6.41e+01
   5.8132    4.7725    9.9572  6.41e+01
   6.1412    4.6262    9.8820  6.41e+01
   5.6591    4.7785    9.9553  6.41e+01
   5.7500    6.2512   10.0053  6.41e+01
   5.7710    6.6120   10.1235  6.41e+01
   5.9105    6.8324   10.2516  6.41e+01
   4.9715    8.3869    8.7326  6.41e+01
   4.7818    8.6673    8.7033  6.41e+01
   4.5613    8.2157    8.5720  6.41e+01
   4.3770    4.6091    4.7091  6.41e+01
   4.7956    4.5203    4.8255  6.41e+01
   4.5761    4.6916    4.9414  6.41e+01
   3.7536    7.2092    5.8447  6.41e+01
   4.1298    6.9339    5.6702  6.41e+01
   4.2561    6.9289    5.7583  6.41e+01
   4.7571    8.1943   10.4884  6.41e+01
   4.5391    8.5473   10.3445  6.41e+01
   4.7484    8.6502   10.3517  6.41e+01
   6.7891    5.6642   16.5269  6.20e+01
   7.4494    5.2660   16.6761  6.20e+01
   6.8181    5.6829   16.7506  6.20e+01
   5.0499    8.5791   10.2968  6.41e+01
   5.6001    8.7190   10.1667  6.41e+01
   5.1242    8.3669   10.1343  6.41e+01
   5.2051    2.7579    2.5257  6.20e+01
   5.0113    3.2463    2.6951  6.20e+01
   5.8204    2.7998    2.9467  6.20e+01
   4.0978    6.0131    4.6580  6.41e+01
   4.0972    5.6465    4.3957  6.41e+01
   3.8844    5.9608    4.6370  6.41e+01
   4.8336    3.5092   12.6433  6.20e+01
   4.7986    2.7992   12.9275  6.20e+01
   4.9232    3.2670   12.8287  6.20e+01
   4.4330    6.6913   13.4174  6.41e+01
   4.8245    6.6302   13.1571  6.41e+01
   7.0110    4.7680   17.1887  6.20e+01
   7.0183    4.6302   17.2926  6.20e+01
   6.4027    3.9261   17.0202  6.20e+01
   7.2282    6.9730   14.5340  6.20e+01
   7.0505    6.6674   14.8113  6.20e+01
   6.9021    7.1760   14.9333  6.20e+01
   5.0890    5.4269    4.3650  6.41e+01
   5.2586    5.4260    4.1488  6.41e+01
   5.4208    5.1104    4.1217  6.41e+01
   4.3385    6.5017   11.0718  6.41e+01
   4.3505    6.6403   11.1937  6.41e+01
   5.0158    4.2252    7.8562  6.41e+01
   5.5061    3.9671    8.0074  6.41e+01
   5.6001    3.8807    8.0193  6.41e+01
   8.1494   -0.0114    2.9498  5.57e+01
   6.2118   -4.9504    0.1592  5.57e+01
   1.5543   -0.9025    2.3965  5.57e+01
   6.1086    4.8899   13.3793  6.41e+01
   5.6976    4.4446   13.2467  6.41e+01
   6.0279    4.8682   13.1276  6.41e+01
   6.1567    6.6845   12.6492  6.41e+01
   6.0743    6.5653   12.7706  6.41e+01
   6.0623    6.8195   12.6311  6.41e+01
   5.3976    6.9785    6.3971  6.41e+01
   5.5012    6.8842    6.3443  6.41e+01
   5.1934    7.3021    6.3317  6.41e+01
   6.0793    5.6898    9.3446  6.41e+01
   6.0196    6.0318    9.1708  6.41e+01
   6.0214    5.8168    9.3663  6.41e+01
   5.5878    7.4845   16.8201  6.20e+01
   5.7982    6.6749   16.8612  6.20e+01
   5.3967    6.7885   16.5890  6.20e+01
   4.4695    6.9948    3.6924  6.41e+01
   4.6508    6.9134    3.6178  6.41e+01
   4.8556    6.9732    3.6660  6.41e+01
   4.6648    7.5540   11.9531  6.40e+01
   4.8040    7.5209   11.9641  6.40e+01
   4.9042    7.5691   12.0756  6.40e+01
   6.8754    7.1814   12.2268  6.20e+01
   6.3153    7.0686   12.1137  6.20e+01
   6.3400    7.0317   12.4276  6.20e+01
   4.0598    2.6602    4.8432  6.20e+01
   3.7740    2.9358    4.6438  6.20e+01
   4.6280    3.5339    4.7686  6.20e+01
   5.1062    8.2011   10.7908  6.40e+01
   5.2952    8.2572   10.7059  6.40e+01
   5.1572    7.8164   12.4112  6.40e+01
   5.0934    7.7106   12.3563  6.40e+01
   5.7555   10.4842   11.6084  6.20e+01
   5.3370   11.0538   11.3769  6.20e+01
   5.9721   10.4208   11.7908  6.20e+01
   5.5242    8.6785    9.5563  6.40e+01
   5.5772    8.6424    9.4706  6.40e+01
   5.4053    8.4932    9.5437  6.40e+01
   3.7608    5.2741    8.6035  6.40e+01
   4.1960    5.3122    8.4892  6.40e+01
   3.8549    6.3188    3.4595  6.40e+01
   4.1807    6.6343    3.5834  6.40e+01
   4.2607    6.2574    3.5932  6.40e+01
   5.2061    7.0414   19.9545  5.99e+01
   6.2347    6.2618   19.4299  5.99e+01
   5.2133    6.1776   19.0117  5.99e+01
   5.4769    3.5940    1.7361  6.19e+01
   5.7963    3.1760    1.6378  6.19e+01
   6.2367    3.1455    1.3917  6.19e+01
   3.9026    5.1789    7.8742  6.40e+01
   4.2236    5.3348    7.9884  6.40e+01
   3.7713    5.2851    7.8881  6.40e+01
   3.8189    5.0618    9.3585  6.40e+01
   4.1443    5.5664    9.2107  6.40e+01
   4.4310    5.7048   13.6758  6.40e+01
   4.4364    5.7813   13.5160  6.40e+01
   4.7573    6.2301   13.4704  6.40e+01
   5.3809    4.6218   13.7755  6.40e+01
   5.3871    4.7474   14.0409  6.40e+01
   5.5528    2.7462    0.3289  6.19e+01
   5.4902    2.5301    0.0340  6.19e+01
   5.4337    2.7542    0.3047  6.19e+01
   5.3304    5.3103   14.1110  6.40e+01
   5.0154    5.2949   14.1147  6.40e+01
   5.4600    5.1574   14.2862  6.40e+01
   6.1557   11.0722    8.6494  6.19e+01
   5.9404   10.9910    8.1642  6.19e+01
   5.7302   10.5577    8.4669  6.19e+01
   5.5080    4.7500    5.3110  6.40e+01
   5.0022    4.7795    5.2295  6.40e+01
   4.8085    4.9821    4.0975  6.40e+01
   4.9635    4.8351    4.1859  6.40e+01
   4.7603    4.7256    4.2744  6.40e+01
   4.1863    5.9364    4.0444  6.40e+01
   3.9894    6.0682    3.8874  6.40e+01
   6.1726    5.1585    8.9550  6.40e+01
   6.2347    5.1509    9.0561  6.40e+01
   5.7016    5.1177    8.8738  6.40e+01
   5.0671    6.9247   13.1524  6.40e+01
   5.4239    6.9216   13.1305  6.40e+01
   5.0622    7.0007   13.3425  6.40e+01
   5.2164    4.3701   12.8540  6.40e+01
   5.4012    4.2010   12.9220  6.40e+01
   5.5040    4.0336   13.0640  6.40e+01
   4.4292    4.2584   10.0385  6.40e+01
   4.7812    3.8033   10.0863  6.40e+01
   6.1830    5.8111   13.5218  6.40e+01
   5.9883    5.8168   13.5617  6.40e+01
   3.7815    7.3923    5.1748  6.40e+01
   3.9071    7.3718    5.0766  6.40e+01
   4.4556    7.7341    5.6942  6.40e+01
   4.9998    8.1088    5.8720  6.40e+01
   4.4606    8.0844    5.6757  6.40e+01
   4.0545    5.0352    7.3248  6.40e+01
   3.8138    5.1436    7.2101  6.40e+01
   4.1682    5.5711    7.3395  6.40e+01
   4.6248    4.3655    9.4986  6.40e+01
   4.9457    4.1713    9.6013  6.40e+01
   4.5948    3.9283    9.6249  6.40e+01
   7.4876    2.6708   16.7187  6.19e+01
   7.2369    3.3235   16.4171  6.19e+01
   6.9926    2.9389   16.2523  6.19e+01
   5.4608    6.1495    3.9091  6.40e+01
   5.6042    5.9901    3.7741  6.40e+01
   4.4917    4.5116   15.8272  6.19e+01
   4.3883    4.3252   15.8536  6.19e+01
   4.9585    4.0253   16.1687  6.19e+01
   5.3358    6.2198   14.1054  6.40e+01
   5.1396    6.0556   14.0976  6.40e+01
   3.9938    7.3298   10.8733  6.40e+01
   3.7673    6.8849   10.6502  6.40e+01
   4.0740    6.9276   10.7815  6.40e+01
   5.9390    4.7747   13.7251  6.40e+01
   5.9286    4.8492   13.7286  6.40e+01
   6.0927    4.4571   13.5550  6.40e+01
   3.9299    5.5066    9.9731  6.40e+01
   3.8493    5.2827    9.8979  6.40e+01
   4.6999    8.4514    7.9951  6.40e+01
   4.4490    8.5010    8.0825  6.40e+01
   4.6777    8.5753    8.0381  6.40e+01
   4.4778    7.1076   12.9820  6.40e+01
   4.4959    7.4262   12.8590  6.40e+01
   5.5104    6.4844   14.0402  6.40e+01
   5.1498    6.4785   13.9681  6.40e+01
   5.2350    6.3499   13.9430  6.40e+01
   5.0852    6.8124    4.8840  6.40e+01
   5.3453    6.7739    4.7275  6.40e+01
   5.5743    6.7672    4.9812  6.40e+01
   3.7872    6.7917    2.8458  6.40e+01
   3.7923    6.8102    2.8911  6.40e+01
   6.0606    5.3973   13.8045  6.40e+01
   5.6525    5.5646   13.7618  6.40e+01
   6.0087    5.2043   13.8056  6.40e+01
   4.7026    6.4765    0.2017  6.40e+01
   4.8333    6.4445    0.3043  6.40e+01
   4.8716    3.8572    8.8661  6.40e+01
   4.9726    3.9427    8.8898  6.40e+01
   5.5953    3.8518    7.4721  6.40e+01
   5.5608    3.8631    7.4715  6.40e+01
   5.4316    4.2604    7.3735  6.40e+01
   5.8482    1.2658   11.6256  6.19e+01
   5.4187    2.4220   11.7336  6.19e+01
   5.0354    2.2737   11.6002  6.19e+01
   4.4515    9.9740    5.1621  6.19e+01
