NLLOC "./loc/vinti.19950422.151958_002.grid0" "LOCATED" "Location completed."
SIGNATURE "Anthony Lomax - Geosciences Azur   NLLoc:v4.10.6 07Jul2008 16h19m57"
COMMENT "1995 Vintimiglia Sequence (NonLinLoc Sample Location)"
GRID  101 101 21  -50.000000 -50.000000 0.000000  1.000000 1.000000 1.000000 PROB_DENSITY
SEARCH OCTREE nInitial 400 nEvaluated 10008 smallestNodeSide 0.156250/0.156250/0.078125
HYPOCENTER  x 4.921875 y 4.609375 z 3.710938  OT 56.584833  ix -1 iy -1 iz -1
GEOGRAPHIC  OT 1995 04 22  15 19 56.584833  Lat 43.791474 Long 7.561155 Depth 3.710938
QUALITY  Pmax 2.005e+27 MFmin 14.263867 MFmax 14.346216 RMS 0.093055 Nphs 12 Gap 188 Dist 10.417198 Mamp -9.90 0 Mdur -9.90 0
VPVSRATIO  VpVsRatio 1.569e+00  Npair 3  Diff 1.070e+00
STATISTICS  ExpectX 5.2250e+00 Y 4.6076e+00 Z 4.8193e+00  CovXX 4.85e-01 XY -4.62e-01 XZ 7.14e-01 YY 2.22e+00 YZ 2.92e-01 ZZ 6.61e+00 EllAz1  75.6 Dip1  -6.9 Len1  9.90e-01 Az2  345.4 Dip2  -1.4 Len2  2.87e+00 Len3  4.86e+00
STAT_GEOG  ExpectLat 43.791456 Long 7.564922 Depth 4.819298
TRANSFORM  LAMBERT RefEllipsoid Clarke-1880  LatOrig 43.750000  LongOrig 7.500000  FirstStdParal 43.199300  SecondStdParal 44.996100  RotCW 0.000000
FOCALMECH  Hyp  43.791474 7.561155 3.710938 Mech  0.0 0.0 0.0 mf  0.00 nObs 0
PHASE ID Ins Cmp On Pha  FM Date     HrMn   Sec     Err  ErrMag    Coda      Amp       Per      >   TTpred    Res       Weight    StaLoc(X  Y         Z)        SDist    SAzim  RAz   RDip  RQual    Tcorr 
RONE   ?    ?    ? P      ? 19950422 1519   59.2800 GAU  1.00e-01 -1.00e+00 -1.00e+00 -1.00e+00 >    2.7387   -0.0435    1.0000    7.8887   14.5952   -0.3000   10.4172  16.55  16.5 106.3  9     0.0000
RONE   ?    ?    ? S      ? 19950422 1520    1.1200 GAU  1.00e-01 -1.00e+00 -1.00e+00 -1.00e+00 >    4.6010   -0.0658    1.0000    7.8887   14.5952   -0.3000   10.4172  16.55  16.5 106.3  9     0.0000
SBF    ?    ?    i p      d 19950422 1519   59.8800 GAU  1.00e-01 -1.00e+00 -1.00e+00 -1.00e+00 >    3.1461    0.1491    1.0000   -5.2384   12.6113   -0.8470   12.9330 308.22 308.2 103.2  9     0.0000
NEGI   ?    ?    ? P      ? 19950422 1519   59.8200 GAU  1.00e-01 -1.00e+00 -1.00e+00 -1.00e+00 >    3.1676    0.0275    1.0000   16.3893   10.8705   -0.6400   13.0654  61.37  61.4 103.1  9     0.0400
NEGI   ?    ?    ? S      ? 19950422 1520    2.1100 GAU  1.00e-01 -1.00e+00 -1.00e+00 -1.00e+00 >    5.3216    0.1636    1.0000   16.3893   10.8705   -0.6400   13.0654  61.37  61.4 103.1  9     0.0400
REVF   ?    ?    P G      ? 19950422 1520    0.1700 GAU  1.00e-01 -1.00e+00 -1.00e+00 -1.00e+00 >    3.7475   -0.1623    1.0000  -10.6730   -1.1024   -0.7000   16.6079 249.88 249.9 100.4  9     0.0000
CEPP   ?    ?    ? P      ? 19950422 1520    0.9100 GAU  1.00e-01 -1.00e+00 -1.00e+00 -1.00e+00 >    4.3650   -0.0398    1.0000   19.7971   18.5085   -1.0800   20.3582  46.94  46.9  98.6  9     0.0000
CEPP   ?    ?    ? S      ? 19950422 1520    3.8200 GAU  1.00e-01 -1.00e+00 -1.00e+00 -1.00e+00 >    7.3332   -0.0980    1.0000   19.7971   18.5085   -1.0800   20.3582  46.94  46.9  98.6  9     0.0000
AURF   ?    ?    P G      ? 19950422 1520    1.2300 GAU  1.00e-01 -1.00e+00 -1.00e+00 -1.00e+00 >    4.5697    0.0355    1.0000  -13.8607   15.2716   -1.0400   21.5979 299.58 299.6  98.1  9     0.0400
AUTN   ?    ?    ? p      ? 19950422 1520    1.6800 GAU  1.00e-01 -1.00e+00 -1.00e+00 -1.00e+00 >    5.1457   -0.0505    1.0000   -5.8149   27.2765   -2.0690   25.0815 334.65 334.7  97.1  9     0.0000
MVIF   ?    ?    i p      d 19950422 1520    3.3700 GAU  1.00e-01 -1.00e+00 -1.00e+00 -1.00e+00 >    6.7688    0.0163    1.0000  -27.9180   16.3343   -1.4800   34.8702 289.65 289.6  95.2  9     0.0000
TOUF   ?    ?    i p      u 19950422 1520    3.4900 GAU  1.00e-01 -1.00e+00 -1.00e+00 -1.00e+00 >    6.8256    0.0795    1.0000  -20.1791   29.3046   -1.8500   35.2123 314.53 314.5  95.2  9     0.0000
0666   ?    ?    i p      u 19950422 1519   58.7200 GAU  1.00e-01 -1.00e+00 -1.00e+00 -1.00e+00 >    0.0000    0.0000    0.0000 -100000000000000000000.0000 -100000000000000000000.0000 -100000000000000000000.0000    0.0000   0.00   0.0   0.0  0     0.0000
0665   ?    ?    i p      u 19950422 1519   58.7600 GAU  1.00e-01 -1.00e+00 -1.00e+00 -1.00e+00 >    0.0000    0.0000    0.0000 -100000000000000000000.0000 -100000000000000000000.0000 -100000000000000000000.0000    0.0000   0.00   0.0   0.0  0     0.0000
0669   ?    ?    i p      u 19950422 1519   58.9800 GAU  1.00e-01 -1.00e+00 -1.00e+00 -1.00e+00 >    0.0000    0.0000    0.0000 -100000000000000000000.0000 -100000000000000000000.0000 -100000000000000000000.0000    0.0000   0.00   0.0   0.0  0     0.0000
0667   ?    ?    e p      u 19950422 1519   59.7000 GAU  1.00e-01 -1.00e+00 -1.00e+00 -1.00e+00 >    0.0000    0.0000    0.0000 -100000000000000000000.0000 -100000000000000000000.0000 -100000000000000000000.0000    0.0000   0.00   0.0   0.0  0     0.0000
.obs   ?    ?    i p      d 19950422 1519   60.2300 GAU  1.00e-01 -1.00e+00 -1.00e+00 -1.00e+00 >    0.0000    0.0000    0.0000 -100000000000000000000.0000 -100000000000000000000.0000 -100000000000000000000.0000    0.0000   0.00   0.0   0.0  0     0.0000
CALN   ?    ?    i p      u 19950422 1519   66.5200 GAU  1.00e-01 -1.00e+00 -1.00e+00 -1.00e+00 >    0.0000    0.0000    0.0000 -100000000000000000000.0000 -100000000000000000000.0000 -100000000000000000000.0000    0.0000   0.00   0.0   0.0  0     0.0000
FRF    ?    ?    ? G      ? 19950422 1520   10.3000 GAU  1.00e-01 -1.00e+00 -1.00e+00 -1.00e+00 >    0.0000    0.0000    0.0000 -100000000000000000000.0000 -100000000000000000000.0000 -100000000000000000000.0000    0.0000   0.00   0.0   0.0  0     0.0000
LMR    ?    ?    ? G      ? 19950422 1520   13.4000 GAU  1.00e-01 -1.00e+00 -1.00e+00 -1.00e+00 >    0.0000    0.0000    0.0000 -100000000000000000000.0000 -100000000000000000000.0000 -100000000000000000000.0000    0.0000   0.00   0.0   0.0  0     0.0000
LRG    ?    ?    ? G      ? 19950422 1520   14.8000 GAU  1.00e-01 -1.00e+00 -1.00e+00 -1.00e+00 >    0.0000    0.0000    0.0000 -100000000000000000000.0000 -100000000000000000000.0000 -100000000000000000000.0000    0.0000   0.00   0.0   0.0  0     0.0000
END_PHASE
END_NLLOC

