NLLOC "./loc/vinti.19950422.154718.grid0" "LOCATED" "Location completed."
SIGNATURE "Anthony Lomax - Geosciences Azur   NLLoc:v4.40.1 20Aug2008 13h05m53"
COMMENT "1995 Vintimiglia Sequence (NonLinLoc Sample Location)"
GRID  101 101 21  -50.000000 -50.000000 0.000000  1.000000 1.000000 1.000000 PROB_DENSITY
SEARCH OCTREE nInitial 400 nEvaluated 10016 smallestNodeSide 0.312500/0.312500/0.156250 oct_tree_integral 4.470883e+01 scatter_volume 4.470883e+01
HYPOCENTER  x 3.906250 y 4.218750 z 9.296875  OT 16.537041  ix -1 iy -1 iz -1
GEOGRAPHIC  OT 1995 04 22  15 47 16.537041  Lat 43.787964 Long 7.548533 Depth 9.296875
QUALITY  Pmax 1.902e+29 MFmin 15.538781 MFmax 15.611877 RMS 0.108047 Nphs 13 Gap 227 Dist 11.114397 Mamp -9.90 0 Mdur -9.90 0
VPVSRATIO  VpVsRatio 1.767e+00  Npair 4  Diff 2.350e+00
STATISTICS  ExpectX 3.8516e+00 Y 3.3923e+00 Z 7.5999e+00  CovXX 5.01e-01 XY 3.17e-01 XZ 7.87e-01 YY 4.44e+00 YZ 3.33e+00 ZZ 1.06e+01 EllAz1  271.2 Dip1  4.1 Len1  1.24e+00 Az2  179.4 Dip2  23.6 Len2  3.24e+00 Len3  6.53e+00
STAT_GEOG  ExpectLat 43.780525 Long 7.547849 Depth 7.599916
TRANSFORM  LAMBERT RefEllipsoid Clarke-1880  LatOrig 43.750000  LongOrig 7.500000  FirstStdParal 43.199300  SecondStdParal 44.996100  RotCW 0.000000
FOCALMECH  Hyp  43.787964 7.548533 9.296875 Mech  0.0 0.0 0.0 mf  0.00 nObs 0
PHASE ID Ins Cmp On Pha  FM Date     HrMn   Sec     Err  ErrMag    Coda      Amp       Per  >   TTpred    Res       Weight    StaLoc(X  Y         Z)        SDist    SAzim  RAz  RDip RQual    Tcorr 
RONE   ?    ?    ? P      ? 19950422 1547   19.2900 GAU  1.00e-01 -1.00e+00 -1.00e+00 -1.00e+00 >    2.7126    0.0404    1.1486    7.8887   14.5952   -0.3000   11.1144  21.00  21.0 124.7  9     0.0000
RONE   ?    ?    ? S      ? 19950422 1547   21.0200 GAU  1.00e-01 -1.00e+00 -1.00e+00 -1.00e+00 >    4.5571   -0.0742    1.1216    7.8887   14.5952   -0.3000   11.1144  21.00  21.0 124.7  9     0.0000
SBF    ?    ?    P G      ? 19950422 1547   19.8900 GAU  1.00e-01 -1.00e+00 -1.00e+00 -1.00e+00 >    3.0058    0.3471    0.6478   -5.2384   12.6113   -0.8470   12.4121 312.54 312.5 122.4  9     0.0000
NEGI   ?    ?    ? P      ? 19950422 1547   19.8000 GAU  1.00e-01 -1.00e+00 -1.00e+00 -1.00e+00 >    3.2118    0.0112    1.1557   16.3893   10.8705   -0.6400   14.1447  61.95  61.9 118.7  9     0.0400
NEGI   ?    ?    ? S      ? 19950422 1547   21.9400 GAU  1.00e-01 -1.00e+00 -1.00e+00 -1.00e+00 >    5.3958   -0.0328    1.1481   16.3893   10.8705   -0.6400   14.1447  61.95  61.9 118.7  9     0.0400
AURF   ?    ?    P G      ? 19950422 1547   20.6300 GAU  1.00e-01 -1.00e+00 -1.00e+00 -1.00e+00 >    4.3199   -0.2269    0.8876  -13.8607   15.2716   -1.0400   20.9244 301.89 301.9 110.4  9     0.0000
CEPP   ?    ?    ? P      ? 19950422 1547   20.9600 GAU  1.00e-01 -1.00e+00 -1.00e+00 -1.00e+00 >    4.3973    0.0257    1.1534   19.7971   18.5085   -1.0800   21.3709  48.04  48.0 110.0  9     0.0000
CEPP   ?    ?    ? S      ? 19950422 1547   23.9700 GAU  1.00e-01 -1.00e+00 -1.00e+00 -1.00e+00 >    7.3874    0.0455    1.1464   19.7971   18.5085   -1.0800   21.3709  48.04  48.0 110.0  9     0.0000
AUTN   ?    ?    P G      ? 19950422 1547   21.7300 GAU  1.00e-01 -1.00e+00 -1.00e+00 -1.00e+00 >    5.1637    0.0293    1.1524   -5.8149   27.2765   -2.0690   25.0232 337.14 337.1 107.6  9     0.0000
IMI    ?    ?    ? P      ? 19950422 1547   22.3300 GAU  1.00e-01 -1.00e+00 -1.00e+00 -1.00e+00 >    5.8621   -0.0692    1.1258   31.5793   17.9062   -0.8400   30.8730  63.68  63.7 103.2  9     0.0000
IMI    ?    ?    ? S      ? 19950422 1547   26.4100 GAU  1.00e-01 -1.00e+00 -1.00e+00 -1.00e+00 >    9.8484    0.0246    1.1536   31.5793   17.9062   -0.8400   30.8730  63.68  63.7 103.2  9     0.0000
MVIF   ?    ?    P G      ? 19950422 1547   21.9500 GAU  1.00e-01 -1.00e+00 -1.00e+00 -1.00e+00 >    6.4967   -1.0838    0.0063  -27.9180   16.3343   -1.4800   34.0524 290.84 290.8 101.1  9     0.0000
TOUF   ?    ?    P G      ? 19950422 1547   23.2500 GAU  1.00e-01 -1.00e+00 -1.00e+00 -1.00e+00 >    6.6840    0.0289    1.1525  -20.1791   29.3046   -1.8500   34.7764 316.17 316.2 100.8  9     0.0000
0666   ?    ?    e p      u 19950422 1547   18.7700 GAU  1.00e-01 -1.00e+00 -1.00e+00 -1.00e+00 >    0.0000    0.0000    0.0000 -100000000000000000000.0000 -100000000000000000000.0000 -100000000000000000000.0000    0.0000   0.00   0.0   0.0  0     0.0000
0665   ?    ?    e p      u 19950422 1547   18.8200 GAU  1.00e-01 -1.00e+00 -1.00e+00 -1.00e+00 >    0.0000    0.0000    0.0000 -100000000000000000000.0000 -100000000000000000000.0000 -100000000000000000000.0000    0.0000   0.00   0.0   0.0  0     0.0400
.obs   ?    ?    i p      u 19950422 1547   20.2100 GAU  1.00e-01 -1.00e+00 -1.00e+00 -1.00e+00 >    0.0000    0.0000    0.0000 -100000000000000000000.0000 -100000000000000000000.0000 -100000000000000000000.0000    0.0000   0.00   0.0   0.0  0     0.0000
ENR    ?    ?    ? P      ? 19950422 1547   25.4700 GAU  1.00e-01 -1.00e+00 -1.00e+00 -1.00e+00 >    0.0000    0.0000    0.0000 -100000000000000000000.0000 -100000000000000000000.0000 -100000000000000000000.0000    0.0000   0.00   0.0   0.0  0     0.0400
STV    ?    ?    ? P      ? 19950422 1547   26.1300 GAU  1.00e-01 -1.00e+00 -1.00e+00 -1.00e+00 >    0.0000    0.0000    0.0000 -100000000000000000000.0000 -100000000000000000000.0000 -100000000000000000000.0000    0.0000   0.00   0.0   0.0  0     0.0000
FIN    ?    ?    ? P      ? 19950422 1547   29.0300 GAU  1.00e+00 -1.00e+00 -1.00e+00 -1.00e+00 >    0.0000    0.0000    0.0000 -100000000000000000000.0000 -100000000000000000000.0000 -100000000000000000000.0000    0.0000   0.00   0.0   0.0  0     0.0000
FRF    ?    ?    ? G      ? 19950422 1547   30.4000 GAU  1.00e-01 -1.00e+00 -1.00e+00 -1.00e+00 >    0.0000    0.0000    0.0000 -100000000000000000000.0000 -100000000000000000000.0000 -100000000000000000000.0000    0.0000   0.00   0.0   0.0  0     0.0000
PZZ    ?    ?    ? P      ? 19950422 1547   31.3900 GAU  1.00e+00 -1.00e+00 -1.00e+00 -1.00e+00 >    0.0000    0.0000    0.0000 -100000000000000000000.0000 -100000000000000000000.0000 -100000000000000000000.0000    0.0000   0.00   0.0   0.0  0     0.0000
ENR    ?    ?    ? S      ? 19950422 1547   31.4900 GAU  1.00e-01 -1.00e+00 -1.00e+00 -1.00e+00 >    0.0000    0.0000    0.0000 -100000000000000000000.0000 -100000000000000000000.0000 -100000000000000000000.0000    0.0000   0.00   0.0   0.0  0     0.0000
STV    ?    ?    ? S      ? 19950422 1547   32.4500 GAU  1.00e-01 -1.00e+00 -1.00e+00 -1.00e+00 >    0.0000    0.0000    0.0000 -100000000000000000000.0000 -100000000000000000000.0000 -100000000000000000000.0000    0.0000   0.00   0.0   0.0  0     0.0400
LMR    ?    ?    ? G      ? 19950422 1547   33.8000 GAU  1.00e-01 -1.00e+00 -1.00e+00 -1.00e+00 >    0.0000    0.0000    0.0000 -100000000000000000000.0000 -100000000000000000000.0000 -100000000000000000000.0000    0.0000   0.00   0.0   0.0  0     0.0000
LRG    ?    ?    ? G      ? 19950422 1547   34.4000 GAU  1.00e-01 -1.00e+00 -1.00e+00 -1.00e+00 >    0.0000    0.0000    0.0000 -100000000000000000000.0000 -100000000000000000000.0000 -100000000000000000000.0000    0.0000   0.00   0.0   0.0  0     0.0000
FIN    ?    ?    ? S      ? 19950422 1547   37.3200 GAU  1.00e+00 -1.00e+00 -1.00e+00 -1.00e+00 >    0.0000    0.0000    0.0000 -100000000000000000000.0000 -100000000000000000000.0000 -100000000000000000000.0000    0.0000   0.00   0.0   0.0  0     0.0000
PZZ    ?    ?    ? S      ? 19950422 1547   41.6400 GAU  1.00e+00 -1.00e+00 -1.00e+00 -1.00e+00 >    0.0000    0.0000    0.0000 -100000000000000000000.0000 -100000000000000000000.0000 -100000000000000000000.0000    0.0000   0.00   0.0   0.0  0     0.0000
END_PHASE
END_NLLOC

