NLLOC "./loc/vinti.19950422.151958_002.grid0" "LOCATED" "Location completed."
SIGNATURE "Anthony Lomax - Geosciences Azur   NLLoc:v4.10.6 07Jul2008 16h19m57"
COMMENT "1995 Vintimiglia Sequence (NonLinLoc Sample Location)"
GRID  101 101 21  -50.000000 -50.000000 0.000000  1.000000 1.000000 1.000000 PROB_DENSITY
SEARCH OCTREE nInitial 400 nEvaluated 10008 smallestNodeSide 0.156250/0.156250/0.078125
HYPOCENTER  x 4.921875 y 4.609375 z 3.710938  OT 56.584833  ix -1 iy -1 iz -1
GEOGRAPHIC  OT 1995 04 22  15 19 56.584833  Lat 43.791474 Long 7.561155 Depth 3.710938
QUALITY  Pmax 2.005e+27 MFmin 14.263867 MFmax 14.346216 RMS 0.093055 Nphs 12 Gap 188 Dist 10.417198 Mamp -9.90 0 Mdur -9.90 0
VPVSRATIO  VpVsRatio 1.569e+00  Npair 3  Diff 1.070e+00
STATISTICS  ExpectX 5.2250e+00 Y 4.6076e+00 Z 4.8193e+00  CovXX 4.85e-01 XY -4.62e-01 XZ 7.14e-01 YY 2.22e+00 YZ 2.92e-01 ZZ 6.61e+00 EllAz1  75.6 Dip1  -6.9 Len1  9.90e-01 Az2  345.4 Dip2  -1.4 Len2  2.87e+00 Len3  4.86e+00
STAT_GEOG  ExpectLat 43.791456 Long 7.564922 Depth 4.819298
TRANSFORM  LAMBERT RefEllipsoid Clarke-1880  LatOrig 43.750000  LongOrig 7.500000  FirstStdParal 43.199300  SecondStdParal 44.996100  RotCW 0.000000
FOCALMECH  Hyp  43.791474 7.561155 3.710938 Mech  0.0 0.0 0.0 mf  0.00 nObs 0
PHASE ID Ins Cmp On Pha  FM Date     HrMn   Sec     Err  ErrMag    Coda      Amp       Per  >   TTpred    Res       Weight    StaLoc(X  Y         Z)        SDist    SAzim  RAz  RDip RQual    Tcorr 
RONE   ?    ?    ? P      ? 19950422 1519   59.2800 GAU  1.00e-01 -1.00e+00 -1.00e+00 -1.00e+00 >    2.7387   -0.0435    1.0000    7.8887   14.5952   -0.3000   10.4172  16.55  16.5 106.3  9     0.0000
RONE   ?    ?    ? S      ? 19950422 1520    1.1200 GAU  1.00e-01 -1.00e+00 -1.00e+00 -1.00e+00 >    4.6010   -0.0658    1.0000    7.8887   14.5952   -0.3000   10.4172  16.55  16.5 106.3  9     0.0000
SBF    ?    ?    i p      d 19950422 1519   59.8800 GAU  1.00e-01 -1.00e+00 -1.00e+00 -1.00e+00 >    3.1461    0.1491    1.0000   -5.2384   12.6113   -0.8470   12.9330 308.22 308.2 103.2  9     0.0000
NEGI   ?    ?    ? P      ? 19950422 1519   59.8200 GAU  1.00e-01 -1.00e+00 -1.00e+00 -1.00e+00 >    3.1676    0.0275    1.0000   16.3893   10.8705   -0.6400   13.0654  61.37  61.4 103.1  9     0.0400
NEGI   ?    ?    ? S      ? 19950422 1520    2.1100 GAU  1.00e-01 -1.00e+00 -1.00e+00 -1.00e+00 >    5.3216    0.1636    1.0000   16.3893   10.8705   -0.6400   13.0654  61.37  61.4 103.1  9     0.0400
REVF   ?    ?    P G      ? 19950422 1520    0.1700 GAU  1.00e-01 -1.00e+00 -1.00e+00 -1.00e+00 >    3.7475   -0.1623    1.0000  -10.6730   -1.1024   -0.7000   16.6079 249.88 249.9 100.4  9     0.0000
CEPP   ?    ?    ? P      ? 19950422 1520    0.9100 GAU  1.00e-01 -1.00e+00 -1.00e+00 -1.00e+00 >    4.3650   -0.0398    1.0000   19.7971   18.5085   -1.0800   20.3582  46.94  46.9  98.6  9     0.0000
CEPP   ?    ?    ? S      ? 19950422 1520    3.8200 GAU  1.00e-01 -1.00e+00 -1.00e+00 -1.00e+00 >    7.3332   -0.0980    1.0000   19.7971   18.5085   -1.0800   20.3582  46.94  46.9  98.6  9     0.0000
AURF   ?    ?    P G      ? 19950422 1520    1.2300 GAU  1.00e-01 -1.00e+00 -1.00e+00 -1.00e+00 >    4.5697    0.0355    1.0000  -13.8607   15.2716   -1.0400   21.5979 299.58 299.6  98.1  9     0.0400
AUTN   ?    ?    ? p      ? 19950422 1520    1.6800 GAU  1.00e-01 -1.00e+00 -1.00e+00 -1.00e+00 >    5.1457   -0.0505    1.0000   -5.8149   27.2765   -2.0690   25.0815 334.65 334.7  97.1  9     0.0000
MVIF   ?    ?    i p      d 19950422 1520    3.3700 GAU  1.00e-01 -1.00e+00 -1.00e+00 -1.00e+00 >    6.7688    0.0163    1.0000  -27.9180   16.3343   -1.4800   34.8702 289.65 289.6  95.2  9     0.0000
TOUF   ?    ?    i p      u 19950422 1520    3.4900 GAU  1.00e-01 -1.00e+00 -1.00e+00 -1.00e+00 >    6.8256    0.0795    1.0000  -20.1791   29.3046   -1.8500   35.2123 314.53 314.5  95.2  9     0.0000
0666   ?    ?    i p      u 19950422 1519   58.7200 GAU  1.00e-01 -1.00e+00 -1.00e+00 -1.00e+00 >    0.0000    0.0000    0.0000 -100000000000000000000.0000 -100000000000000000000.0000 -100000000000000000000.0000    0.0000   0.00   0.0   0.0  0     0.0000
0665   ?    ?    i p      u 19950422 1519   58.7600 GAU  1.00e-01 -1.00e+00 -1.00e+00 -1.00e+00 >    0.0000    0.0000    0.0000 -100000000000000000000.0000 -100000000000000000000.0000 -100000000000000000000.0000    0.0000   0.00   0.0   0.0  0     0.0000
0669   ?    ?    i p      u 19950422 1519   58.9800 GAU  1.00e-01 -1.00e+00 -1.00e+00 -1.00e+00 >    0.0000    0.0000    0.0000 -100000000000000000000.0000 -100000000000000000000.0000 -100000000000000000000.0000    0.0000   0.00   0.0   0.0  0     0.0000
0667   ?    ?    e p      u 19950422 1519   59.7000 GAU  1.00e-01 -1.00e+00 -1.00e+00 -1.00e+00 >    0.0000    0.0000    0.0000 -100000000000000000000.0000 -100000000000000000000.0000 -100000000000000000000.0000    0.0000   0.00   0.0   0.0  0     0.0000
.obs   ?    ?    i p      d 19950422 1519   60.2300 GAU  1.00e-01 -1.00e+00 -1.00e+00 -1.00e+00 >    0.0000    0.0000    0.0000 -100000000000000000000.0000 -100000000000000000000.0000 -100000000000000000000.0000    0.0000   0.00   0.0   0.0  0     0.0000
CALN   ?    ?    i p      u 19950422 1519   66.5200 GAU  1.00e-01 -1.00e+00 -1.00e+00 -1.00e+00 >    0.0000    0.0000    0.0000 -100000000000000000000.0000 -100000000000000000000.0000 -100000000000000000000.0000    0.0000   0.00   0.0   0.0  0     0.0000
FRF    ?    ?    ? G      ? 19950422 1520   10.3000 GAU  1.00e-01 -1.00e+00 -1.00e+00 -1.00e+00 >    0.0000    0.0000    0.0000 -100000000000000000000.0000 -100000000000000000000.0000 -100000000000000000000.0000    0.0000   0.00   0.0   0.0  0     0.0000
LMR    ?    ?    ? G      ? 19950422 1520   13.4000 GAU  1.00e-01 -1.00e+00 -1.00e+00 -1.00e+00 >    0.0000    0.0000    0.0000 -100000000000000000000.0000 -100000000000000000000.0000 -100000000000000000000.0000    0.0000   0.00   0.0   0.0  0     0.0000
LRG    ?    ?    ? G      ? 19950422 1520   14.8000 GAU  1.00e-01 -1.00e+00 -1.00e+00 -1.00e+00 >    0.0000    0.0000    0.0000 -100000000000000000000.0000 -100000000000000000000.0000 -100000000000000000000.0000    0.0000   0.00   0.0   0.0  0     0.0000
END_PHASE
SCATTER Nsamples 5035
   4.8952    4.2105    2.0677  6.83e+01
   4.9045    4.1189    2.0902  6.83e+01
   4.8643    4.3602    2.0352  6.83e+01
   6.5667    2.3743    5.2629  6.41e+01
   7.2372    2.1555    5.4005  6.41e+01
   4.9938    4.1918    1.9689  6.83e+01
   4.8347    4.1009    2.0087  6.83e+01
   4.8348    4.3623    1.9979  6.83e+01
   4.7023    4.1247    2.3644  6.83e+01
   4.9370    4.2195    2.4834  6.83e+01
   4.8958    4.3332    2.3450  6.83e+01
   4.9065    4.9165    2.9862  6.83e+01
   4.7396    4.7073    3.0373  6.83e+01
   4.8001    4.6925    3.0346  6.83e+01
   5.0590    4.4768    4.5144  6.83e+01
   5.1600    4.4218    4.4603  6.83e+01
   5.2084    4.5183    4.4675  6.83e+01
   5.2435    4.6722    4.5684  6.83e+01
   5.2400    4.6309    4.6766  6.83e+01
   4.8842    4.8137    4.5776  6.83e+01
   4.7843    4.8820    4.6008  6.83e+01
   4.9043    4.7201    4.6864  6.83e+01
   5.0838    4.5047    4.3035  6.83e+01
   5.1968    4.3993    4.2644  6.83e+01
   5.1526    4.6513    4.3624  6.83e+01
   4.7672    4.2616    2.7396  6.83e+01
   4.7857    4.3046    2.7937  6.83e+01
   4.9710    4.2120    2.6676  6.83e+01
   5.0460    4.6063    4.8096  6.83e+01
   5.2425    4.4584    4.7797  6.83e+01
   5.0386    4.6732    4.7291  6.83e+01
   4.9395    4.1372    3.1062  6.83e+01
   4.7776    4.1386    2.9834  6.83e+01
   5.2421    4.6666    4.9111  6.83e+01
   5.3089    4.5259    4.8579  6.83e+01
   5.2523    4.4063    4.9303  6.83e+01
   5.8668    3.8915    9.6450  6.62e+01
   5.7495    3.8976    9.3846  6.62e+01
   6.0290    4.0329    9.4110  6.62e+01
   5.2039    4.3704    3.8562  6.83e+01
   5.0621    4.3301    3.8093  6.83e+01
   5.0846    4.2067    3.7650  6.83e+01
   5.2912    4.1230    3.9558  6.83e+01
   5.1869    4.0727    3.9933  6.83e+01
   5.2111    4.3501    4.0412  6.83e+01
   4.7615    4.7475    1.6138  6.83e+01
   4.7307    4.9771    1.5675  6.83e+01
   4.7355    4.9771    1.6096  6.83e+01
   5.2883    4.1710    3.5989  6.83e+01
   5.3018    4.1881    3.7479  6.83e+01
   4.9909    4.7858    2.7638  6.83e+01
   4.8435    4.9725    2.7908  6.83e+01
   4.7535    4.9244    2.6883  6.83e+01
   5.0474    4.5247    3.9769  6.83e+01
   5.2012    4.4492    4.0072  6.83e+01
   5.1475    4.6552    3.9357  6.83e+01
   5.0746    4.1126    4.1500  6.83e+01
   5.1938    4.3425    4.0655  6.83e+01
   5.1160    4.2077    1.5457  6.83e+01
   5.1693    4.1388    1.4171  6.83e+01
   5.1780    4.1541    1.4604  6.83e+01
   4.7956    4.9072    4.7171  6.83e+01
   4.9831    4.6918    4.7689  6.83e+01
   4.7536    4.7820    4.7746  6.83e+01
   5.0456    4.2145    3.5206  6.83e+01
   5.2687    4.2910    3.5208  6.83e+01
   5.2643    4.2804    3.4596  6.83e+01
   4.9653    4.3839    4.4246  6.83e+01
   4.9339    4.5262    4.4073  6.83e+01
   4.9826    4.4057    4.4642  6.83e+01
   5.1257    4.1642    4.2754  6.83e+01
   5.2049    4.0676    4.2358  6.83e+01
   5.2854    4.1833    4.2648  6.83e+01
   5.2273    4.4804    1.1691  6.83e+01
   5.2259    4.6231    1.1470  6.83e+01
   5.2039    4.5039    1.2154  6.83e+01
   5.0417    4.2223    1.3904  6.83e+01
   5.0713    4.3653    1.3785  6.83e+01
   5.2929    4.1422    1.3013  6.83e+01
   5.1295    4.0814    3.3465  6.83e+01
   5.2668    4.3122    3.3074  6.83e+01
   5.2427    4.2771    3.3764  6.83e+01
   5.0589    4.5309    5.0031  6.82e+01
   5.0736    4.5861    5.0618  6.82e+01
   5.2568    4.4236    5.1509  6.82e+01
   5.0308    4.2864    1.5947  6.82e+01
   5.1150    4.2882    1.7054  6.82e+01
   5.0339    4.6266    1.3704  6.82e+01
   5.2124    4.5376    1.3639  6.82e+01
   5.1278    4.4473    1.2977  6.82e+01
   4.9422    4.1439    3.3332  6.82e+01
   4.9396    4.1940    3.3534  6.82e+01
   4.7421    4.1252    3.3900  6.82e+01
   5.0942    4.1807    3.2500  6.82e+01
   5.0743    4.1348    3.2311  6.82e+01
   5.0481    4.3662    4.4860  6.82e+01
   5.1750    4.3636    4.4926  6.82e+01
   5.2803    4.0970    4.5287  6.82e+01
   5.0033    4.5038    0.9401  6.82e+01
   5.2965    4.5331    1.0821  6.82e+01
   5.1676    4.3793    1.0901  6.82e+01
   4.8881    4.8531    2.4923  6.82e+01
   4.7095    4.7221    2.3776  6.82e+01
   4.9245    4.7938    2.3901  6.82e+01
   5.0414    4.6567    3.6967  6.82e+01
   5.0187    4.3988    3.6220  6.82e+01
   5.2845    4.5096    3.6119  6.82e+01
   4.7857    4.9608    1.3329  6.82e+01
   4.7020    4.9209    1.3994  6.82e+01
   5.2378    4.1142    3.0083  6.82e+01
   5.0239    4.3642    3.0282  6.82e+01
   4.8844    4.4334    1.2092  6.82e+01
   4.8733    4.5828    1.1108  6.82e+01
   4.8969    4.6814    1.2083  6.82e+01
   5.0241    2.0169    2.3263  6.62e+01
   5.1489    2.3638    2.2682  6.62e+01
   5.4946    2.2051    2.4047  6.62e+01
   4.8223    4.8251    4.9540  6.82e+01
   4.9427    4.9643    4.9149  6.82e+01
   4.7107    4.8483    4.9410  6.82e+01
   4.2521    6.1786    5.5984  6.62e+01
   3.9134    5.7418    5.4959  6.62e+01
   4.7672    4.2777    1.5984  6.82e+01
   4.8349    4.0829    1.6927  6.82e+01
   4.8376    4.2055    1.7140  6.82e+01
   5.0893    4.0796    1.1406  6.82e+01
   5.1808    4.2222    1.1991  6.82e+01
   5.0843    4.0827    1.1472  6.82e+01
   5.0895    4.2477    4.5572  6.82e+01
   5.1554    4.3719    4.5785  6.82e+01
   5.1576    4.1725    4.6221  6.82e+01
   5.0477    4.4733    5.2589  6.82e+01
   5.0315    4.5954    5.2463  6.82e+01
   5.0808    4.5950    5.1563  6.82e+01
   5.1209    4.3658    1.8517  6.82e+01
   5.2452    4.3725    1.8576  6.82e+01
   5.1088    4.1555    1.8004  6.82e+01
   5.2596    4.2817    2.9438  6.82e+01
   5.0614    4.2973    2.9253  6.82e+01
   5.1632    4.0880    2.9639  6.82e+01
   3.7760    4.5044    1.2455  6.61e+01
   4.2040    4.4320    1.1404  6.61e+01
   3.7965    4.9809    0.9775  6.61e+01
   4.7681    4.5179    4.6616  6.82e+01
   4.9057    4.4108    4.5573  6.82e+01
   4.8347    4.6148    4.5336  6.82e+01
   5.0387    4.8873    5.0212  6.82e+01
   5.1234    4.7031    5.1464  6.82e+01
   5.1741    4.8385    5.0154  6.82e+01
   5.2762    4.9572    4.9158  6.82e+01
   5.0598    4.8148    4.9196  6.82e+01
   5.3001    4.7787    4.9882  6.82e+01
   5.1757    4.2866    2.7786  6.82e+01
   5.2094    4.0666    2.6671  6.82e+01
   5.1655    4.2822    2.8095  6.82e+01
   5.2609    4.9773    4.7342  6.82e+01
   5.1228    4.7446    4.8340  6.82e+01
   5.0493    4.6978    4.8189  6.82e+01
   4.5188    2.6581    2.9393  6.61e+01
   4.3857    2.9725    2.9567  6.61e+01
   4.5179    2.9806    3.0146  6.61e+01
   4.9977    4.9130    1.9401  6.82e+01
   4.7767    4.7558    1.8835  6.82e+01
   4.8186    4.1884    3.6930  6.82e+01
   4.8967    4.1123    3.6304  6.82e+01
   4.8938    4.2795    3.6377  6.82e+01
   5.0800    4.9463    5.3044  6.82e+01
   5.0048    4.7348    5.2766  6.82e+01
   3.7944    4.3337    2.7081  6.61e+01
   4.0350    3.9825    2.7034  6.61e+01
   3.9485    4.0338    2.7905  6.61e+01
   4.9115    4.8041    2.0499  6.82e+01
   4.9288    4.8724    2.1188  6.82e+01
   4.7716    4.8579    2.0922  6.82e+01
   5.0744    4.3486    4.7878  6.82e+01
   5.2371    4.2801    4.6971  6.82e+01
   4.7942    5.1765    4.4025  6.82e+01
   4.9670    5.2056    4.4867  6.82e+01
   4.7633    5.1766    4.6815  6.82e+01
   4.9118    5.3040    4.6819  6.82e+01
   5.1078    4.3620    2.5415  6.82e+01
   5.0687    4.3737    2.6072  6.82e+01
   5.7562    6.2195    8.7106  6.61e+01
   5.7671    5.6978    8.6184  6.61e+01
   5.9697    6.2408    8.5291  6.61e+01
   5.0434    4.7903    4.6862  6.82e+01
   5.0312    4.9229    4.6688  6.82e+01
   5.0461    4.7687    4.6691  6.82e+01
   5.2256    4.6055    3.3201  6.82e+01
   5.3095    4.4791    3.3446  6.82e+01
   5.2983    2.1846    3.1032  6.61e+01
   5.2790    1.9232    2.8294  6.61e+01
   4.9677    5.1452    4.6964  6.82e+01
   4.9061    5.2097    4.7975  6.82e+01
   4.9071    5.2580    4.6888  6.82e+01
   5.4932    9.0688    8.5868  6.40e+01
   5.2008    9.3813    8.4573  6.40e+01
   5.4682    9.9980    8.4571  6.40e+01
   5.0783    4.8693    5.4027  6.82e+01
   5.2584    4.9020    5.3743  6.82e+01
   5.0484    4.6341    5.4045  6.82e+01
   5.1197    4.5881    5.3331  6.82e+01
   4.8908    5.1130    4.1958  6.82e+01
   4.7075    5.1888    4.1577  6.82e+01
   5.2798    4.2838    2.3439  6.82e+01
   5.0649    4.3433    2.4526  6.82e+01
   4.7657    4.8475    5.0336  6.82e+01
   4.8262    4.7260    5.0180  6.82e+01
   4.8194    4.7749    5.0766  6.82e+01
   4.7151    6.4872    1.6962  6.61e+01
   4.9376    6.6101    1.8070  6.61e+01
   4.7562    3.5215    6.0145  6.61e+01
   4.6587    3.3061    6.1364  6.61e+01
   4.9204    4.9486    1.1575  6.82e+01
   4.9106    4.9954    1.2325  6.82e+01
   5.0481    4.9980    4.4027  6.82e+01
   5.3108    4.8709    4.5047  6.82e+01
   5.1012    4.6896    4.4288  6.82e+01
   5.1492    4.1440    1.0439  6.82e+01
   5.2303    4.2691    0.9806  6.82e+01
   5.0557    4.2760    1.0591  6.82e+01
   5.2509    4.4653    1.6421  6.82e+01
   5.0509    4.5816    1.6215  6.82e+01
   5.2331    4.3801    1.5667  6.82e+01
   5.2174    4.2722    4.9343  6.82e+01
   5.2153    4.0851    4.9095  6.82e+01
   4.7126    5.0039    4.9237  6.82e+01
   4.9243    5.2441    4.9623  6.82e+01
   4.6998    4.4560    4.7397  6.82e+01
   4.8831    4.4568    4.7281  6.82e+01
   4.9241    4.6411    4.8429  6.82e+01
   5.1425    4.3446    2.2259  6.82e+01
   5.0653    4.1126    2.3235  6.82e+01
   5.0219    4.2883    2.2189  6.82e+01
   5.3001    2.6228    7.4775  6.61e+01
   5.1640    2.5459    7.3423  6.61e+01
   5.4691    3.0150    7.2577  6.61e+01
   5.1610    4.1263    1.9815  6.82e+01
   5.2267    4.0656    2.0100  6.82e+01
   4.2068    4.4297    4.9101  6.61e+01
   4.0351    4.6437    4.9846  6.61e+01
   5.0860    7.8753    6.8289  6.61e+01
   5.2798    7.9787    6.8149  6.61e+01
   5.4769    7.8957    6.6198  6.61e+01
   5.2385    4.8973    5.5641  6.82e+01
   5.2651    4.7268    5.4892  6.82e+01
   5.1070    4.9175    5.4741  6.82e+01
   5.1828    4.3700    2.1020  6.82e+01
   5.1714    4.3016    2.0528  6.82e+01
   4.7867    5.0763    3.9033  6.82e+01
   4.9843    5.0330    3.8101  6.82e+01
   4.9040    4.2866    3.9260  6.82e+01
   4.8546    4.3625    4.0369  6.82e+01
   4.7049    4.0846    3.9580  6.82e+01
   4.5169    7.5045    6.1320  6.61e+01
   4.8333    7.9272    6.0126  6.61e+01
   5.4340    2.4278    3.1370  6.61e+01
   5.1972    2.1112    3.1344  6.61e+01
   4.9918    7.8928    6.6304  6.61e+01
   4.9007    7.9397    6.7664  6.61e+01
   4.9500    7.9631    6.6997  6.61e+01
   4.8691    5.1089    5.1368  6.82e+01
   4.8622    5.1928    5.0981  6.82e+01
   4.8370    5.0027    5.0594  6.82e+01
   5.1494    4.3932    5.6125  6.82e+01
   5.1560    4.6248    5.4894  6.82e+01
   5.3065    4.4770    5.5922  6.82e+01
   5.0119    4.2758    5.0453  6.82e+01
   5.0068    4.2065    5.0113  6.82e+01
   4.9978    4.4784    0.9994  6.82e+01
   4.9359    4.5882    0.9431  6.82e+01
   5.1245    4.5553    2.9775  6.82e+01
   5.1013    4.4750    3.0747  6.82e+01
   5.4594    5.0360    9.2792  6.61e+01
   5.3592    5.1969    9.1430  6.61e+01
   5.0716    4.7284    5.6629  6.82e+01
   5.2567    4.9718    5.6773  6.82e+01
   5.2948    4.7727    5.6588  6.82e+01
   4.9368    4.8177    5.2991  6.82e+01
   4.7849    4.7815    5.1669  6.82e+01
   5.0542    3.8768    3.0557  6.82e+01
   5.2221    3.8789    2.9836  6.82e+01
   5.2905    3.7780    3.1970  6.82e+01
   5.0656    3.7941    3.2291  6.82e+01
   5.5414    7.3835    5.3243  6.61e+01
   5.4664    7.1050    5.4086  6.61e+01
   5.1464    7.2418    5.3941  6.61e+01
   5.3053    3.7855    2.9454  6.82e+01
   5.1990    3.8571    2.9565  6.82e+01
   5.1866    3.9382    2.8615  6.82e+01
   5.0201    4.7041    4.1271  6.82e+01
   5.0559    4.8845    4.1849  6.82e+01
   5.0246    4.7693    4.1483  6.82e+01
   4.9799    4.5144    4.9890  6.82e+01
   4.9349    4.5017    4.9033  6.82e+01
   4.9290    4.5430    4.9403  6.82e+01
   5.2422    3.9407    3.4112  6.82e+01
   5.0573    3.8466    3.3036  6.82e+01
   5.3021    3.8257    3.3278  6.82e+01
   5.2251    4.0012    2.6999  6.82e+01
   5.0509    3.7842    2.7303  6.82e+01
   5.1634    3.7557    2.7675  6.82e+01
   6.1393    2.9575    8.9944  6.61e+01
   5.9951    2.8004    8.7508  6.61e+01
   6.1020    2.7219    8.8428  6.61e+01
   5.1697    3.9562    2.5345  6.82e+01
   5.2948    4.0292    2.5113  6.82e+01
   5.2211    4.0086    3.5427  6.82e+01
   5.0946    3.8283    3.4757  6.82e+01
   4.6221    4.7044    0.0793  6.61e+01
   4.6659    4.5250    0.1517  6.61e+01
   5.0183    3.8102    2.3886  6.82e+01
   5.2391    3.9676    2.4399  6.82e+01
   5.3100    3.9550    2.3557  6.82e+01
   5.3516    7.5102    7.8896  6.61e+01
   5.3079    7.9628    7.8589  6.61e+01
   5.4903    7.6824    7.9954  6.61e+01
   4.8834    5.2551    3.5831  6.82e+01
   4.9460    5.0920    3.5806  6.82e+01
   4.9474    5.2879    3.5830  6.82e+01
   5.6653    5.8927    6.5812  6.61e+01
   5.6643    5.9801    6.6305  6.61e+01
   5.1930    3.9496    2.2596  6.82e+01
   5.2032    3.8806    2.2730  6.82e+01
   4.8696    5.2777    5.1963  6.82e+01
   4.7812    5.1780    5.1806  6.82e+01
   4.7207    5.0865    5.2355  6.82e+01
   5.0156    3.8894    3.6608  6.82e+01
   5.1568    4.0038    3.6796  6.82e+01
   5.2311    5.9392    2.2463  6.61e+01
   5.4851    5.8090    2.4558  6.61e+01
   4.4696    6.8466    1.1166  6.40e+01
   4.6794    6.7416    0.8783  6.40e+01
   5.2983    3.8714    2.0616  6.82e+01
   5.2830    3.9739    2.0437  6.82e+01
   5.0002    3.8245    2.0362  6.82e+01
   5.0512    3.7558    2.0125  6.82e+01
   5.2919    4.0479    2.0221  6.82e+01
   5.2078    3.8261    1.9912  6.82e+01
   5.0975    3.9173    1.8007  6.82e+01
   5.1864    3.9320    1.8214  6.82e+01
   5.2065    3.8446    1.8256  6.82e+01
   5.0483    3.7560    3.8564  6.82e+01
   5.1007    3.9296    3.8236  6.82e+01
   5.1616    4.0101    3.8028  6.82e+01
