NLLOC "./loc/vinti.19950422.151958.grid0" "LOCATED" "Location completed."
SIGNATURE "Anthony Lomax - Geosciences Azur   NLLoc:v4.40.1 20Aug2008 13h05m53"
COMMENT "1995 Vintimiglia Sequence (NonLinLoc Sample Location)"
GRID  101 101 21  -50.000000 -50.000000 0.000000  1.000000 1.000000 1.000000 PROB_DENSITY
SEARCH OCTREE nInitial 400 nEvaluated 10008 smallestNodeSide 0.312500/0.312500/0.156250 oct_tree_integral 2.669124e+01 scatter_volume 2.669124e+01
HYPOCENTER  x 4.843750 y 4.843750 z 10.078125  OT 56.672591  ix -1 iy -1 iz -1
GEOGRAPHIC  OT 1995 04 22  15 19 56.672591  Lat 43.793584 Long 7.560187 Depth 10.078125
QUALITY  Pmax 1.898e+27 MFmin 14.264003 MFmax 14.341972 RMS 0.092651 Nphs 12 Gap 186 Dist 10.215761 Mamp -9.90 0 Mdur -9.90 0
VPVSRATIO  VpVsRatio 1.569e+00  Npair 3  Diff 1.070e+00
STATISTICS  ExpectX 4.9512e+00 Y 4.6024e+00 Z 9.3171e+00  CovXX 6.42e-01 XY -4.06e-01 XZ 1.16e+00 YY 2.76e+00 YZ 1.27e+00 ZZ 1.03e+01 EllAz1  76.0 Dip1  -8.2 Len1  1.14e+00 Az2  345.0 Dip2  -6.9 Len2  3.09e+00 Len3  6.13e+00
STAT_GEOG  ExpectLat 43.791412 Long 7.561520 Depth 9.317130
TRANSFORM  LAMBERT RefEllipsoid Clarke-1880  LatOrig 43.750000  LongOrig 7.500000  FirstStdParal 43.199300  SecondStdParal 44.996100  RotCW 0.000000
FOCALMECH  Hyp  43.793584 7.560187 10.078125 Mech  0.0 0.0 0.0 mf  0.00 nObs 0
PHASE ID Ins Cmp On Pha  FM Date     HrMn   Sec     Err  ErrMag    Coda      Amp       Per  >   TTpred    Res       Weight    StaLoc(X  Y         Z)        SDist    SAzim  RAz  RDip RQual    Tcorr 
RONE   ?    ?    ? P      ? 19950422 1519   59.2800 GAU  1.00e-01 -1.00e+00 -1.00e+00 -1.00e+00 >    2.6729   -0.0655    1.0247    7.8887   14.5952   -0.3000   10.2158  17.34  17.3 129.3  9     0.0000
RONE   ?    ?    ? S      ? 19950422 1520    1.1200 GAU  1.00e-01 -1.00e+00 -1.00e+00 -1.00e+00 >    4.4904   -0.0430    1.0367    7.8887   14.5952   -0.3000   10.2158  17.34  17.3 129.3  9     0.0000
SBF    ?    ?    i p      d 19950422 1519   59.8800 GAU  1.00e-01 -1.00e+00 -1.00e+00 -1.00e+00 >    3.1209    0.0865    1.0045   -5.2384   12.6113   -0.8470   12.7273 307.61 307.6 122.8  9     0.0000
NEGI   ?    ?    ? P      ? 19950422 1519   59.8200 GAU  1.00e-01 -1.00e+00 -1.00e+00 -1.00e+00 >    3.1186   -0.0112    1.0449   16.3893   10.8705   -0.6400   13.0239  62.44  62.4 121.8  9     0.0400
NEGI   ?    ?    ? S      ? 19950422 1520    2.1100 GAU  1.00e-01 -1.00e+00 -1.00e+00 -1.00e+00 >    5.2392    0.1582    0.9177   16.3893   10.8705   -0.6400   13.0239  62.44  62.4 121.8  9     0.0400
REVF   ?    ?    P G      ? 19950422 1520    0.1700 GAU  1.00e-01 -1.00e+00 -1.00e+00 -1.00e+00 >    3.6483   -0.1509    0.9357  -10.6730   -1.1024   -0.7000   16.6170 249.03 249.0 115.1  9     0.0000
CEPP   ?    ?    ? P      ? 19950422 1520    0.9100 GAU  1.00e-01 -1.00e+00 -1.00e+00 -1.00e+00 >    4.2727   -0.0353    1.0396   19.7971   18.5085   -1.0800   20.2565  47.58  47.6 110.5  9     0.0000
CEPP   ?    ?    ? S      ? 19950422 1520    3.8200 GAU  1.00e-01 -1.00e+00 -1.00e+00 -1.00e+00 >    7.1782   -0.0308    1.0411   19.7971   18.5085   -1.0800   20.2565  47.58  47.6 110.5  9     0.0000
AURF   ?    ?    P G      ? 19950422 1520    1.1900 GAU  1.00e-01 -1.00e+00 -1.00e+00 -1.00e+00 >    4.4431    0.0743    1.0148  -13.8607   15.2716   -1.0400   21.4149 299.14 299.1 109.2  9     0.0000
AUTN   ?    ?    ? p      ? 19950422 1520    1.6800 GAU  1.00e-01 -1.00e+00 -1.00e+00 -1.00e+00 >    5.1761   -0.1687    0.9096   -5.8149   27.2765   -2.0690   24.8362 334.59 334.6 106.5  9     0.0000
MVIF   ?    ?    i p      d 19950422 1520    3.3700 GAU  1.00e-01 -1.00e+00 -1.00e+00 -1.00e+00 >    6.6264    0.0710    1.0173  -27.9180   16.3343   -1.4800   34.7183 289.33 289.3  98.3  9     0.0000
TOUF   ?    ?    i p      u 19950422 1520    3.4900 GAU  1.00e-01 -1.00e+00 -1.00e+00 -1.00e+00 >    6.7412    0.0762    1.0133  -20.1791   29.3046   -1.8500   34.9925 314.35 314.3  98.4  9     0.0000
0666   ?    ?    i p      u 19950422 1519   58.7200 GAU  1.00e-01 -1.00e+00 -1.00e+00 -1.00e+00 >    0.0000    0.0000    0.0000 -100000000000000000000.0000 -100000000000000000000.0000 -100000000000000000000.0000    0.0000   0.00   0.0   0.0  0     0.0000
0665   ?    ?    i p      u 19950422 1519   58.7600 GAU  1.00e-01 -1.00e+00 -1.00e+00 -1.00e+00 >    0.0000    0.0000    0.0000 -100000000000000000000.0000 -100000000000000000000.0000 -100000000000000000000.0000    0.0000   0.00   0.0   0.0  0     0.0000
0669   ?    ?    i p      u 19950422 1519   58.9800 GAU  1.00e-01 -1.00e+00 -1.00e+00 -1.00e+00 >    0.0000    0.0000    0.0000 -100000000000000000000.0000 -100000000000000000000.0000 -100000000000000000000.0000    0.0000   0.00   0.0   0.0  0     0.0000
0667   ?    ?    e p      u 19950422 1519   59.7000 GAU  1.00e-01 -1.00e+00 -1.00e+00 -1.00e+00 >    0.0000    0.0000    0.0000 -100000000000000000000.0000 -100000000000000000000.0000 -100000000000000000000.0000    0.0000   0.00   0.0   0.0  0     0.0000
.obs   ?    ?    i p      d 19950422 1519   60.2300 GAU  1.00e-01 -1.00e+00 -1.00e+00 -1.00e+00 >    0.0000    0.0000    0.0000 -100000000000000000000.0000 -100000000000000000000.0000 -100000000000000000000.0000    0.0000   0.00   0.0   0.0  0     0.0000
CALN   ?    ?    i p      u 19950422 1519   66.5200 GAU  1.00e-01 -1.00e+00 -1.00e+00 -1.00e+00 >    0.0000    0.0000    0.0000 -100000000000000000000.0000 -100000000000000000000.0000 -100000000000000000000.0000    0.0000   0.00   0.0   0.0  0     0.0000
FRF    ?    ?    ? G      ? 19950422 1520   10.3000 GAU  1.00e-01 -1.00e+00 -1.00e+00 -1.00e+00 >    0.0000    0.0000    0.0000 -100000000000000000000.0000 -100000000000000000000.0000 -100000000000000000000.0000    0.0000   0.00   0.0   0.0  0     0.0000
LMR    ?    ?    ? G      ? 19950422 1520   13.4000 GAU  1.00e-01 -1.00e+00 -1.00e+00 -1.00e+00 >    0.0000    0.0000    0.0000 -100000000000000000000.0000 -100000000000000000000.0000 -100000000000000000000.0000    0.0000   0.00   0.0   0.0  0     0.0000
LRG    ?    ?    ? G      ? 19950422 1520   14.8000 GAU  1.00e-01 -1.00e+00 -1.00e+00 -1.00e+00 >    0.0000    0.0000    0.0000 -100000000000000000000.0000 -100000000000000000000.0000 -100000000000000000000.0000    0.0000   0.00   0.0   0.0  0     0.0000
END_PHASE
END_NLLOC

