NLLOC "./loc/vinti.19950423.012763.grid0" "LOCATED" "Location completed."
SIGNATURE "Anthony Lomax - Geosciences Azur   NLLoc:v4.40.1 20Aug2008 13h05m53"
COMMENT "1995 Vintimiglia Sequence (NonLinLoc Sample Location)"
GRID  101 101 21  -50.000000 -50.000000 0.000000  1.000000 1.000000 1.000000 PROB_DENSITY
SEARCH OCTREE nInitial 400 nEvaluated 10024 smallestNodeSide 0.312500/0.312500/0.156250 oct_tree_integral 8.773220e+01 scatter_volume 8.773220e+01
HYPOCENTER  x 4.687500 y 5.937500 z 11.406250  OT 6.754424  ix -1 iy -1 iz -1
GEOGRAPHIC  OT 1995 04 23  01 28  6.754424  Lat 43.803431 Long 7.558255 Depth 11.406250
QUALITY  Pmax 7.958e+19 MFmin 9.185765 MFmax 9.327962 RMS 0.087639 Nphs 11 Gap 236 Dist 9.230536 Mamp -9.90 0 Mdur -9.90 0
VPVSRATIO  VpVsRatio 1.631e+00  Npair 3  Diff 1.070e+00
STATISTICS  ExpectX 5.1764e+00 Y 4.7018e+00 Z 8.5802e+00  CovXX 1.61e+00 XY -9.62e-01 XZ -1.16e+00 YY 7.05e+00 YZ 5.77e+00 ZZ 1.67e+01 EllAz1  81.3 Dip1  1.0 Len1  2.26e+00 Az2  171.8 Dip2  25.5 Len2  3.95e+00 Len3  8.31e+00
STAT_GEOG  ExpectLat 43.792304 Long 7.564319 Depth 8.580166
TRANSFORM  LAMBERT RefEllipsoid Clarke-1880  LatOrig 43.750000  LongOrig 7.500000  FirstStdParal 43.199300  SecondStdParal 44.996100  RotCW 0.000000
FOCALMECH  Hyp  43.803431 7.558255 11.406250 Mech  0.0 0.0 0.0 mf  0.00 nObs 0
PHASE ID Ins Cmp On Pha  FM Date     HrMn   Sec     Err  ErrMag    Coda      Amp       Per  >   TTpred    Res       Weight    StaLoc(X  Y         Z)        SDist    SAzim  RAz  RDip RQual    Tcorr 
RONE   ?    ?    ? P      ? 19950423 0128    9.4100 GAU  1.00e-01 -1.00e+00 -1.00e+00 -1.00e+00 >    2.7057   -0.0501    1.5376    7.8887   14.5952   -0.3000    9.2305  20.29  20.3 138.8  9     0.0000
RONE   ?    ?    ? S      ? 19950423 0128   11.3000 GAU  1.00e-01 -1.00e+00 -1.00e+00 -1.00e+00 >    4.5456   -0.0000    1.5858    7.8887   14.5952   -0.3000    9.2305  20.29  20.3 138.8  9     0.0000
SBF    ?    ?    i p      d 19950423 0128    9.9800 GAU  1.00e-01 -1.00e+00 -1.00e+00 -1.00e+00 >    3.1397    0.0858    1.5674   -5.2384   12.6113   -0.8470   11.9609 303.92 303.9 128.2  9     0.0000
NEGI   ?    ?    ? P      ? 19950423 0128    9.9700 GAU  1.00e-01 -1.00e+00 -1.00e+00 -1.00e+00 >    3.1901   -0.0146    1.5762   16.3893   10.8705   -0.6400   12.6991  67.14  67.1 125.6  9     0.0400
NEGI   ?    ?    ? S      ? 19950423 0128   12.2800 GAU  1.00e-01 -1.00e+00 -1.00e+00 -1.00e+00 >    5.3594    0.1262    1.5161   16.3893   10.8705   -0.6400   12.6991  67.14  67.1 125.6  9     0.0400
CEPP   ?    ?    ? P      ? 19950423 0128   11.0000 GAU  1.00e-01 -1.00e+00 -1.00e+00 -1.00e+00 >    4.2553   -0.0098    1.5798   19.7971   18.5085   -1.0800   19.6553  50.24  50.2 112.5  9     0.0000
CEPP   ?    ?    ? S      ? 19950423 0128   13.9600 GAU  1.00e-01 -1.00e+00 -1.00e+00 -1.00e+00 >    7.1490    0.0566    1.5880   19.7971   18.5085   -1.0800   19.6553  50.24  50.2 112.5  9     0.0000
AURF   ?    ?    ? p      ? 19950423 0128   12.0700 GAU  1.00e+05 -1.00e+00 -1.00e+00 -1.00e+00 >    4.4117    0.9039    0.0000  -13.8607   15.2716   -1.0400   20.7644 296.71 296.7 111.0  9     0.0000
AUTN   ?    ?    ? p      ? 19950423 0128    8.4000 GAU  1.00e+05 -1.00e+00 -1.00e+00 -1.00e+00 >    5.0705   -3.4249    0.0000   -5.8149   27.2765   -2.0690   23.7835 333.79 333.8 108.2  9     0.0000
TOUF   ?    ?    P G      ? 19950423 0128   14.2800 GAU  1.00e-01 -1.00e+00 -1.00e+00 -1.00e+00 >    6.6306    0.8950    0.0492  -20.1791   29.3046   -1.8500   34.1228 313.22 313.2  99.4  9     0.0000
MVIF   ?    ?    ? p      ? 19950423 0128   15.0500 GAU  1.00e+05 -1.00e+00 -1.00e+00 -1.00e+00 >    6.5746    1.7210    0.0000  -27.9180   16.3343   -1.4800   34.2229 287.69 287.7  99.2  9     0.0000
0522   ?    ?    i p      d 19950423 0127   63.7200 GAU  1.00e+05 -1.00e+00 -1.00e+00 -1.00e+00 >    0.0000    0.0000    0.0000 -100000000000000000000.0000 -100000000000000000000.0000 -100000000000000000000.0000    0.0000   0.00   0.0   0.0  0     0.0000
0665   ?    ?    e p      . 19950423 0127   66.7400 GAU  1.00e+05 -1.00e+00 -1.00e+00 -1.00e+00 >    0.0000    0.0000    0.0000 -100000000000000000000.0000 -100000000000000000000.0000 -100000000000000000000.0000    0.0000   0.00   0.0   0.0  0     0.0000
0669   ?    ?    ? p      ? 19950423 0127   67.3300 GAU  1.00e+05 -1.00e+00 -1.00e+00 -1.00e+00 >    0.0000    0.0000    0.0000 -100000000000000000000.0000 -100000000000000000000.0000 -100000000000000000000.0000    0.0000   0.00   0.0   0.0  0     0.0000
0666   ?    ?    i p      u 19950423 0127   68.8200 GAU  1.00e-01 -1.00e+00 -1.00e+00 -1.00e+00 >    0.0000    0.0000    0.0000 -100000000000000000000.0000 -100000000000000000000.0000 -100000000000000000000.0000    0.0000   0.00   0.0   0.0  0     0.0400
.obs   ?    ?    i p      d 19950423 0127   70.3400 GAU  1.00e-01 -1.00e+00 -1.00e+00 -1.00e+00 >    0.0000    0.0000    0.0000 -100000000000000000000.0000 -100000000000000000000.0000 -100000000000000000000.0000    0.0000   0.00   0.0   0.0  0     0.0000
0667   ?    ?    e p      . 19950423 0127   72.5600 GAU  1.00e+05 -1.00e+00 -1.00e+00 -1.00e+00 >    0.0000    0.0000    0.0000 -100000000000000000000.0000 -100000000000000000000.0000 -100000000000000000000.0000    0.0000   0.00   0.0   0.0  0     0.0000
PGF    ?    ?    ? p      ? 19950423 0127   78.1000 GAU  1.00e+05 -1.00e+00 -1.00e+00 -1.00e+00 >    0.0000    0.0000    0.0000 -100000000000000000000.0000 -100000000000000000000.0000 -100000000000000000000.0000    0.0000   0.00   0.0   0.0  0     0.0000
FRF    ?    ?    ? G      ? 19950423 0128   20.4000 GAU  1.00e-01 -1.00e+00 -1.00e+00 -1.00e+00 >    0.0000    0.0000    0.0000 -100000000000000000000.0000 -100000000000000000000.0000 -100000000000000000000.0000    0.0000   0.00   0.0   0.0  0     0.0000
LMR    ?    ?    ? G      ? 19950423 0128   23.5000 GAU  1.00e-01 -1.00e+00 -1.00e+00 -1.00e+00 >    0.0000    0.0000    0.0000 -100000000000000000000.0000 -100000000000000000000.0000 -100000000000000000000.0000    0.0000   0.00   0.0   0.0  0     0.0400
LRG    ?    ?    ? G      ? 19950423 0128   24.5000 GAU  1.00e-01 -1.00e+00 -1.00e+00 -1.00e+00 >    0.0000    0.0000    0.0000 -100000000000000000000.0000 -100000000000000000000.0000 -100000000000000000000.0000    0.0000   0.00   0.0   0.0  0     0.0000
END_PHASE
END_NLLOC

