NLLOC "./loc/vinti.19950422.154718.grid0" "LOCATED" "Location completed."
SIGNATURE "Anthony Lomax - Geosciences Azur   NLLoc:v4.40.1 20Aug2008 13h05m53"
COMMENT "1995 Vintimiglia Sequence (NonLinLoc Sample Location)"
GRID  101 101 21  -50.000000 -50.000000 0.000000  1.000000 1.000000 1.000000 PROB_DENSITY
SEARCH OCTREE nInitial 400 nEvaluated 10016 smallestNodeSide 0.312500/0.312500/0.156250 oct_tree_integral 4.470883e+01 scatter_volume 4.470883e+01
HYPOCENTER  x 3.906250 y 4.218750 z 9.296875  OT 16.537041  ix -1 iy -1 iz -1
GEOGRAPHIC  OT 1995 04 22  15 47 16.537041  Lat 43.787964 Long 7.548533 Depth 9.296875
QUALITY  Pmax 1.902e+29 MFmin 15.538781 MFmax 15.611877 RMS 0.108047 Nphs 13 Gap 227 Dist 11.114397 Mamp -9.90 0 Mdur -9.90 0
VPVSRATIO  VpVsRatio 1.767e+00  Npair 4  Diff 2.350e+00
STATISTICS  ExpectX 3.8516e+00 Y 3.3923e+00 Z 7.5999e+00  CovXX 5.01e-01 XY 3.17e-01 XZ 7.87e-01 YY 4.44e+00 YZ 3.33e+00 ZZ 1.06e+01 EllAz1  271.2 Dip1  4.1 Len1  1.24e+00 Az2  179.4 Dip2  23.6 Len2  3.24e+00 Len3  6.53e+00
STAT_GEOG  ExpectLat 43.780525 Long 7.547849 Depth 7.599916
TRANSFORM  LAMBERT RefEllipsoid Clarke-1880  LatOrig 43.750000  LongOrig 7.500000  FirstStdParal 43.199300  SecondStdParal 44.996100  RotCW 0.000000
FOCALMECH  Hyp  43.787964 7.548533 9.296875 Mech  0.0 0.0 0.0 mf  0.00 nObs 0
PHASE ID Ins Cmp On Pha  FM Date     HrMn   Sec     Err  ErrMag    Coda      Amp       Per  >   TTpred    Res       Weight    StaLoc(X  Y         Z)        SDist    SAzim  RAz  RDip RQual    Tcorr 
RONE   ?    ?    ? P      ? 19950422 1547   19.2900 GAU  1.00e-01 -1.00e+00 -1.00e+00 -1.00e+00 >    2.7126    0.0404    1.1486    7.8887   14.5952   -0.3000   11.1144  21.00  21.0 124.7  9     0.0000
RONE   ?    ?    ? S      ? 19950422 1547   21.0200 GAU  1.00e-01 -1.00e+00 -1.00e+00 -1.00e+00 >    4.5571   -0.0742    1.1216    7.8887   14.5952   -0.3000   11.1144  21.00  21.0 124.7  9     0.0000
SBF    ?    ?    P G      ? 19950422 1547   19.8900 GAU  1.00e-01 -1.00e+00 -1.00e+00 -1.00e+00 >    3.0058    0.3471    0.6478   -5.2384   12.6113   -0.8470   12.4121 312.54 312.5 122.4  9     0.0000
NEGI   ?    ?    ? P      ? 19950422 1547   19.8000 GAU  1.00e-01 -1.00e+00 -1.00e+00 -1.00e+00 >    3.2118    0.0112    1.1557   16.3893   10.8705   -0.6400   14.1447  61.95  61.9 118.7  9     0.0400
NEGI   ?    ?    ? S      ? 19950422 1547   21.9400 GAU  1.00e-01 -1.00e+00 -1.00e+00 -1.00e+00 >    5.3958   -0.0328    1.1481   16.3893   10.8705   -0.6400   14.1447  61.95  61.9 118.7  9     0.0400
AURF   ?    ?    P G      ? 19950422 1547   20.6300 GAU  1.00e-01 -1.00e+00 -1.00e+00 -1.00e+00 >    4.3199   -0.2269    0.8876  -13.8607   15.2716   -1.0400   20.9244 301.89 301.9 110.4  9     0.0000
CEPP   ?    ?    ? P      ? 19950422 1547   20.9600 GAU  1.00e-01 -1.00e+00 -1.00e+00 -1.00e+00 >    4.3973    0.0257    1.1534   19.7971   18.5085   -1.0800   21.3709  48.04  48.0 110.0  9     0.0000
CEPP   ?    ?    ? S      ? 19950422 1547   23.9700 GAU  1.00e-01 -1.00e+00 -1.00e+00 -1.00e+00 >    7.3874    0.0455    1.1464   19.7971   18.5085   -1.0800   21.3709  48.04  48.0 110.0  9     0.0000
AUTN   ?    ?    P G      ? 19950422 1547   21.7300 GAU  1.00e-01 -1.00e+00 -1.00e+00 -1.00e+00 >    5.1637    0.0293    1.1524   -5.8149   27.2765   -2.0690   25.0232 337.14 337.1 107.6  9     0.0000
IMI    ?    ?    ? P      ? 19950422 1547   22.3300 GAU  1.00e-01 -1.00e+00 -1.00e+00 -1.00e+00 >    5.8621   -0.0692    1.1258   31.5793   17.9062   -0.8400   30.8730  63.68  63.7 103.2  9     0.0000
IMI    ?    ?    ? S      ? 19950422 1547   26.4100 GAU  1.00e-01 -1.00e+00 -1.00e+00 -1.00e+00 >    9.8484    0.0246    1.1536   31.5793   17.9062   -0.8400   30.8730  63.68  63.7 103.2  9     0.0000
MVIF   ?    ?    P G      ? 19950422 1547   21.9500 GAU  1.00e-01 -1.00e+00 -1.00e+00 -1.00e+00 >    6.4967   -1.0838    0.0063  -27.9180   16.3343   -1.4800   34.0524 290.84 290.8 101.1  9     0.0000
TOUF   ?    ?    P G      ? 19950422 1547   23.2500 GAU  1.00e-01 -1.00e+00 -1.00e+00 -1.00e+00 >    6.6840    0.0289    1.1525  -20.1791   29.3046   -1.8500   34.7764 316.17 316.2 100.8  9     0.0000
0666   ?    ?    e p      u 19950422 1547   18.7700 GAU  1.00e-01 -1.00e+00 -1.00e+00 -1.00e+00 >    0.0000    0.0000    0.0000 -100000000000000000000.0000 -100000000000000000000.0000 -100000000000000000000.0000    0.0000   0.00   0.0   0.0  0     0.0000
0665   ?    ?    e p      u 19950422 1547   18.8200 GAU  1.00e-01 -1.00e+00 -1.00e+00 -1.00e+00 >    0.0000    0.0000    0.0000 -100000000000000000000.0000 -100000000000000000000.0000 -100000000000000000000.0000    0.0000   0.00   0.0   0.0  0     0.0400
.obs   ?    ?    i p      u 19950422 1547   20.2100 GAU  1.00e-01 -1.00e+00 -1.00e+00 -1.00e+00 >    0.0000    0.0000    0.0000 -100000000000000000000.0000 -100000000000000000000.0000 -100000000000000000000.0000    0.0000   0.00   0.0   0.0  0     0.0000
ENR    ?    ?    ? P      ? 19950422 1547   25.4700 GAU  1.00e-01 -1.00e+00 -1.00e+00 -1.00e+00 >    0.0000    0.0000    0.0000 -100000000000000000000.0000 -100000000000000000000.0000 -100000000000000000000.0000    0.0000   0.00   0.0   0.0  0     0.0400
STV    ?    ?    ? P      ? 19950422 1547   26.1300 GAU  1.00e-01 -1.00e+00 -1.00e+00 -1.00e+00 >    0.0000    0.0000    0.0000 -100000000000000000000.0000 -100000000000000000000.0000 -100000000000000000000.0000    0.0000   0.00   0.0   0.0  0     0.0000
FIN    ?    ?    ? P      ? 19950422 1547   29.0300 GAU  1.00e+00 -1.00e+00 -1.00e+00 -1.00e+00 >    0.0000    0.0000    0.0000 -100000000000000000000.0000 -100000000000000000000.0000 -100000000000000000000.0000    0.0000   0.00   0.0   0.0  0     0.0000
FRF    ?    ?    ? G      ? 19950422 1547   30.4000 GAU  1.00e-01 -1.00e+00 -1.00e+00 -1.00e+00 >    0.0000    0.0000    0.0000 -100000000000000000000.0000 -100000000000000000000.0000 -100000000000000000000.0000    0.0000   0.00   0.0   0.0  0     0.0000
PZZ    ?    ?    ? P      ? 19950422 1547   31.3900 GAU  1.00e+00 -1.00e+00 -1.00e+00 -1.00e+00 >    0.0000    0.0000    0.0000 -100000000000000000000.0000 -100000000000000000000.0000 -100000000000000000000.0000    0.0000   0.00   0.0   0.0  0     0.0000
ENR    ?    ?    ? S      ? 19950422 1547   31.4900 GAU  1.00e-01 -1.00e+00 -1.00e+00 -1.00e+00 >    0.0000    0.0000    0.0000 -100000000000000000000.0000 -100000000000000000000.0000 -100000000000000000000.0000    0.0000   0.00   0.0   0.0  0     0.0000
STV    ?    ?    ? S      ? 19950422 1547   32.4500 GAU  1.00e-01 -1.00e+00 -1.00e+00 -1.00e+00 >    0.0000    0.0000    0.0000 -100000000000000000000.0000 -100000000000000000000.0000 -100000000000000000000.0000    0.0000   0.00   0.0   0.0  0     0.0400
LMR    ?    ?    ? G      ? 19950422 1547   33.8000 GAU  1.00e-01 -1.00e+00 -1.00e+00 -1.00e+00 >    0.0000    0.0000    0.0000 -100000000000000000000.0000 -100000000000000000000.0000 -100000000000000000000.0000    0.0000   0.00   0.0   0.0  0     0.0000
LRG    ?    ?    ? G      ? 19950422 1547   34.4000 GAU  1.00e-01 -1.00e+00 -1.00e+00 -1.00e+00 >    0.0000    0.0000    0.0000 -100000000000000000000.0000 -100000000000000000000.0000 -100000000000000000000.0000    0.0000   0.00   0.0   0.0  0     0.0000
FIN    ?    ?    ? S      ? 19950422 1547   37.3200 GAU  1.00e+00 -1.00e+00 -1.00e+00 -1.00e+00 >    0.0000    0.0000    0.0000 -100000000000000000000.0000 -100000000000000000000.0000 -100000000000000000000.0000    0.0000   0.00   0.0   0.0  0     0.0000
PZZ    ?    ?    ? S      ? 19950422 1547   41.6400 GAU  1.00e+00 -1.00e+00 -1.00e+00 -1.00e+00 >    0.0000    0.0000    0.0000 -100000000000000000000.0000 -100000000000000000000.0000 -100000000000000000000.0000    0.0000   0.00   0.0   0.0  0     0.0000
END_PHASE
SCATTER Nsamples 4992
   3.0306    1.5548    2.4923  7.15e+01
   2.5860    1.5942    2.1995  7.15e+01
   2.6068    1.3483    2.4057  7.15e+01
   2.9536    1.3925    2.2543  7.15e+01
   2.9318    1.7227    2.9825  7.15e+01
   2.7933    1.8183    3.0809  7.15e+01
   3.1128    1.5239    2.9374  7.15e+01
   2.8866    1.6519    3.0199  7.15e+01
   4.1627    1.1364    6.3837  7.15e+01
   3.7997    0.8144    6.4449  7.15e+01
   4.0994    0.8496    6.5150  7.15e+01
   4.1144    0.7057    6.2568  7.15e+01
   3.4330    0.2912    2.6850  7.15e+01
   3.2271    0.6209    2.6098  7.15e+01
   3.2493    0.5896    2.5113  7.15e+01
   4.9476    6.9323   10.9397  7.15e+01
   4.5044    7.1927   10.9729  7.15e+01
   4.4443    6.8826   10.9635  7.15e+01
   2.6164    1.5313    3.6299  7.15e+01
   2.6921    1.7091    3.5847  7.15e+01
   2.7697    1.2701    3.7280  7.15e+01
   3.7545    1.0472    5.8801  7.15e+01
   3.9327    0.7297    5.8999  7.15e+01
   4.2504    1.1010    5.7002  7.15e+01
   3.1781    2.6812   12.0223  6.94e+01
   3.0634    2.6429   12.4700  6.94e+01
   3.6544    2.6595   12.1758  6.94e+01
   3.7016    3.0285   12.3890  6.94e+01
   2.9218    2.4932    2.0001  7.15e+01
   2.6124    2.0820    2.0320  7.15e+01
   2.8980    2.4877    2.0941  7.15e+01
   2.7731    2.0983    2.0810  7.15e+01
   3.2377    0.2723    3.2915  7.15e+01
   3.4816    0.0322    3.2831  7.15e+01
   3.5934    0.6059    3.3589  7.15e+01
   4.2155    1.0369    7.1048  7.15e+01
   3.8636    0.7166    7.1110  7.15e+01
   4.1568    0.7705    6.9450  7.15e+01
   4.1576    4.0286    6.1607  7.15e+01
   4.1947    4.3449    5.9491  7.15e+01
   4.2797    3.8660    6.0721  7.15e+01
   3.7790    3.7832    5.9939  7.15e+01
   3.9011    6.8837   11.3135  7.15e+01
   4.3622    7.3766   11.4215  7.15e+01
   4.2840    6.9040   11.4524  7.15e+01
   2.9091    1.4979    4.0868  7.15e+01
   2.9330    1.3636    4.3533  7.15e+01
   2.8514    1.8157    4.0639  7.15e+01
   4.9490    6.4203    9.6524  7.15e+01
   4.4268    6.4121    9.4472  7.15e+01
   4.8589    6.5120    9.4316  7.15e+01
   3.3044    0.1329    3.8802  7.15e+01
   3.4524    0.0804    3.8615  7.15e+01
   3.4473    0.2669    3.8002  7.15e+01
   3.9179    0.8368    5.1976  7.15e+01
   4.2160    0.8945    5.1282  7.15e+01
   4.1284    0.7234    5.2375  7.15e+01
   4.0995    1.1053    5.0104  7.15e+01
   4.3654    2.9677   13.9790  6.94e+01
   4.7483    2.7662   13.7756  6.94e+01
   4.5935    3.5359   14.3226  6.94e+01
   3.0907    3.7479    7.0326  7.15e+01
   3.0940    3.6498    7.0465  7.15e+01
   2.6878    3.1806    6.8848  7.15e+01
   2.7628    3.1234    4.0857  7.15e+01
   2.8086    2.9441    4.1101  7.15e+01
   2.5139    3.0139    4.1431  7.15e+01
   4.1106    1.8983    3.7570  7.14e+01
   3.9300    2.4124    3.9263  7.14e+01
   4.1709    2.2036    3.9038  7.14e+01
   4.0760    1.7789    3.5617  7.14e+01
   4.2900    1.4562    3.4533  7.14e+01
   3.9062    1.6208    3.4886  7.14e+01
   3.4922    0.8083    7.4589  7.14e+01
   3.2776    0.8151    7.3205  7.14e+01
   3.2148    1.2487    7.3442  7.14e+01
   2.5778    2.1800    6.5257  7.14e+01
   2.9288    1.9315    6.5362  7.14e+01
   2.9509    2.3758    6.4780  7.14e+01
   2.6221    2.0813    6.4002  7.14e+01
   2.7749    3.2578    6.2635  7.14e+01
   2.6480    3.3340    6.4609  7.14e+01
   2.5998    3.3947    6.3215  7.14e+01
   2.7551    0.3868    9.5378  6.93e+01
   3.2934    0.1801    9.4779  6.93e+01
   3.6024    0.8487    9.4899  6.93e+01
   3.3511    4.3547    5.0747  7.14e+01
   3.2226    4.1668    5.0562  7.14e+01
   3.6391    4.1445    5.1792  7.14e+01
   3.4262    6.2233   11.0470  7.14e+01
   3.5996    5.9750   11.0116  7.14e+01
   3.1296    6.1327   11.1929  7.14e+01
   2.7711    1.8007    4.8565  7.14e+01
   2.6519    1.5630    4.8697  7.14e+01
   2.9636    1.3176    4.9252  7.14e+01
   2.7941    2.6386    7.3093  7.14e+01
   2.8457    2.8509    7.2521  7.14e+01
   2.9567    3.0887    7.3303  7.14e+01
   3.5823    5.6863    8.6109  7.14e+01
   3.2099    5.6741    8.5833  7.14e+01
   3.1655    5.7419    8.5726  7.14e+01
   4.6118    1.8552   13.6439  6.93e+01
   4.7513    2.2290   13.3034  6.93e+01
   4.5185    1.4861   13.5144  6.93e+01
   4.8121    1.8844   13.3041  6.93e+01
   4.0930    0.9636    7.5604  7.14e+01
   4.3003    0.7077    7.6087  7.14e+01
   3.8157    0.7225    7.5553  7.14e+01
   3.7885    0.8117    7.6352  7.14e+01
   3.4118    0.5821    4.6163  7.14e+01
   3.4132    0.6179    4.4679  7.14e+01
   3.5546    0.4861    4.5972  7.14e+01
   4.2770    2.2208    0.8165  7.14e+01
   4.1816    2.4668    0.7745  7.14e+01
   4.0853    2.4388    0.7805  7.14e+01
   4.1233    0.9468    4.6641  7.14e+01
   4.3535    0.6796    4.6371  7.14e+01
   3.7816    0.6867    4.4821  7.14e+01
   4.5489    2.7752   10.6993  7.14e+01
   4.4132    2.7837   10.8968  7.14e+01
   4.5714    2.5083   10.9268  7.14e+01
   4.4268    2.8389   10.7932  7.14e+01
   2.7685    3.6737    7.6664  7.14e+01
   3.1206    3.3448    7.7008  7.14e+01
   2.9335    3.7280    7.6109  7.14e+01
   3.1793    3.6180    3.7009  7.14e+01
   3.6900    3.6017    3.6495  7.14e+01
   3.3989    3.3525    3.5415  7.14e+01
   3.8333    1.8802    1.4405  7.14e+01
   4.1442    2.0577    1.3921  7.14e+01
   4.1949    2.4223    1.3219  7.14e+01
   2.6039    2.5837    3.6176  7.14e+01
   2.9022    3.1130    3.5489  7.14e+01
   2.9915    2.6891    3.5237  7.14e+01
   3.3143    3.5197    0.9548  7.14e+01
   3.4103    3.6862    1.1099  7.14e+01
   3.2265    3.4484    0.9715  7.14e+01
   3.8896    2.3303   10.6658  7.14e+01
   3.8823    2.3869   10.6707  7.14e+01
   4.0140    2.4412   10.8523  7.14e+01
   4.3235    2.5686    0.4123  7.14e+01
   4.3293    2.9000    0.4263  7.14e+01
   4.2578    2.5058    0.4207  7.14e+01
   3.0639    3.5943    5.8560  7.14e+01
   2.7585    3.4118    5.7528  7.14e+01
   3.0465    3.7060    5.8918  7.14e+01
   4.2273    5.4230   12.3937  7.14e+01
   3.9064    5.3782   12.4442  7.14e+01
   4.3713    5.4164   12.2462  7.14e+01
   3.2507    5.3344   11.3863  7.14e+01
   3.3005    5.3693   11.3428  7.14e+01
   3.2136    5.4850   11.5489  7.14e+01
   3.9618    5.5106    7.1895  7.14e+01
   4.0720    5.2463    7.2662  7.14e+01
   3.7870    5.1105    7.3078  7.14e+01
   3.6824    1.4267    8.7680  7.14e+01
   3.7255    1.5185    9.0225  7.14e+01
   3.1430    1.6496    8.9858  7.14e+01
   4.0277    3.1503    5.0197  7.14e+01
   3.9746    3.5284    5.1734  7.14e+01
   3.9055    3.7293    5.0064  7.14e+01
   4.9435    2.8267    7.7164  7.14e+01
   4.9115    2.7204    7.6852  7.14e+01
   4.4654    2.5448    7.5451  7.14e+01
   4.3026    1.6087    3.0121  7.13e+01
   3.9024    1.6651    3.1052  7.13e+01
   4.1199    1.3194    3.0664  7.13e+01
   4.2121    1.0548    3.9333  7.13e+01
   4.0711    1.1608    3.7851  7.13e+01
   4.1454    0.8572    3.8269  7.13e+01
   4.6295    4.2866    7.8079  7.13e+01
   4.3755    3.7754    7.7075  7.13e+01
   4.6703    4.0857    7.8035  7.13e+01
   3.4753    0.0844    5.1465  7.13e+01
   3.5316    0.2951    5.2461  7.13e+01
   3.4905    0.4259    5.2657  7.13e+01
   2.8201    1.7527    5.5547  7.13e+01
   2.7984    1.6609    5.5427  7.13e+01
   2.7446    1.8291    5.5051  7.13e+01
   4.4152    3.8074   11.9936  7.13e+01
   4.6997    3.8491   12.0839  7.13e+01
   4.9425    3.8868   11.8801  7.13e+01
   2.5267    6.6148    7.6073  6.93e+01
   3.5575    7.3066    7.6098  6.93e+01
   3.2399    6.4044    8.0665  6.93e+01
   4.3230    1.7158    1.7109  7.13e+01
   4.0163    1.3755    1.8129  7.13e+01
   4.0758    1.5591    1.8276  7.13e+01
   3.7944    2.6739    1.2358  7.13e+01
   4.2212    2.5532    1.2412  7.13e+01
   3.7799    2.8795    0.9781  7.13e+01
   4.7599    4.5347    7.8608  7.13e+01
   4.7601    4.5895    8.0771  7.13e+01
   4.9363    4.8209    8.0984  7.13e+01
   4.2998    1.3904    0.9909  7.13e+01
   4.3043    1.8121    0.9828  7.13e+01
   4.3500    1.7275    1.0876  7.13e+01
   3.4782    4.5114   13.1041  6.92e+01
   3.5847    4.9619   12.8052  6.92e+01
   2.8823    4.1587   12.8375  6.92e+01
   3.3160    2.0264    9.9372  7.13e+01
   3.5110    2.1215    9.6926  7.13e+01
   3.6021    2.0568    9.7582  7.13e+01
   4.1671    1.3311    9.9062  7.13e+01
   4.1498    1.3124    9.9083  7.13e+01
   4.2009    1.3899    9.8264  7.13e+01
   4.3717    3.0167    4.2644  7.13e+01
   4.3281    2.5528    4.2870  7.13e+01
   2.9786    2.9566    3.1073  7.13e+01
   2.6582    2.7046    2.8376  7.13e+01
   4.0815    2.3378    3.1799  7.13e+01
   4.2876    2.4780    3.3976  7.13e+01
   4.1328    2.1650    3.3745  7.13e+01
   3.0556    2.0667    7.0643  7.13e+01
   2.8828    2.0565    7.0523  7.13e+01
   4.1234    7.1460    9.6807  7.13e+01
   4.1773    7.0587    9.6328  7.13e+01
   3.9838    7.0386    9.5984  7.13e+01
   4.0858    2.2921    0.3699  7.13e+01
   3.9199    2.2090    0.5374  7.13e+01
   4.3071    2.3822    0.3265  7.13e+01
   3.2022    4.4847    6.1482  7.13e+01
   3.3746    4.8872    5.9821  7.13e+01
   3.6605    4.9749    5.9767  7.13e+01
   4.3227    0.8384    8.3446  7.13e+01
   3.7741    0.9142    8.1533  7.13e+01
   4.2601    0.6868    8.4178  7.13e+01
   3.6628    8.8814   13.8586  6.71e+01
   2.5174    8.3857   14.3843  6.71e+01
   4.4277    8.9978   14.4848  6.71e+01
   4.9594    1.9332    9.2952  7.13e+01
   4.6504    2.1077    9.1453  7.13e+01
   4.9599    2.2744    9.2827  7.13e+01
   2.6485    0.7484    1.9990  7.13e+01
   2.6052    1.0636    1.8804  7.13e+01
   2.8450    0.7498    2.1505  7.13e+01
   4.5625    6.5808   15.6192  6.71e+01
   3.0650    6.3990   15.8679  6.71e+01
   4.3088    6.9491   16.1204  6.71e+01
   4.9240    3.5729   11.7560  7.13e+01
   4.6330    3.6349   11.7275  7.13e+01
   4.7205    3.7299   11.7457  7.13e+01
   4.7715    6.7532   12.0297  7.13e+01
   4.6406    6.6246   11.9166  7.13e+01
   4.8567    6.7173   11.8994  7.13e+01
   3.9846    2.9963    0.0311  7.13e+01
   3.8324    3.0065    0.0910  7.13e+01
   4.0094    3.0416    0.3103  7.13e+01
   3.9715    0.6357    3.2943  7.13e+01
   3.9388    1.1286    3.2124  7.13e+01
   3.9421    0.6896    3.2769  7.13e+01
   3.2593    6.6727   10.2617  7.13e+01
   3.4850    6.4031   10.0357  7.13e+01
   4.9244    2.0167    8.4556  7.13e+01
   4.4991    1.9387    8.7049  7.13e+01
   4.8611    2.0071    8.5853  7.13e+01
   4.8619    3.6511    7.3918  7.13e+01
   4.4281    3.3981    7.4750  7.13e+01
   4.4200    3.6447    7.3488  7.13e+01
   4.2600    1.8478    2.2401  7.13e+01
   3.8679    1.7379    2.4208  7.13e+01
   3.8374    1.3364    2.4754  7.13e+01
   3.9011    3.6178   12.1100  7.13e+01
   4.3168    3.4681   12.0280  7.13e+01
   4.3080    3.2768   11.9278  7.13e+01
   3.0366    3.5554    5.2331  7.13e+01
   2.8919    3.3463    5.0416  7.13e+01
   2.6822    3.3256    5.2080  7.13e+01
   3.9751    7.1438    7.1182  6.92e+01
   4.1740    6.3224    6.8841  6.92e+01
   4.1743    6.5560    7.1371  6.92e+01
   2.7691    0.6620    2.6319  7.13e+01
   2.8050    0.9824    2.6869  7.13e+01
   3.3447    3.6526   11.1389  7.13e+01
   3.7381    3.4411   11.0441  7.13e+01
   3.4032    3.3280   10.9621  7.13e+01
   4.6912   -0.1477    9.7459  6.92e+01
   3.9043   -0.9838    9.9060  6.92e+01
   4.9704   -0.9597    9.7715  6.92e+01
   3.1297    2.2491   11.6439  6.92e+01
   3.1232    1.8884   11.8460  6.92e+01
   3.2921    1.9954   11.6742  6.92e+01
   2.5774    3.0634    2.4691  7.13e+01
   2.5203    3.0621    2.2841  7.13e+01
   2.6764    2.7104    2.2674  7.13e+01
   4.2820   -4.1195    4.8332  6.71e+01
   2.6991   -3.1025    4.9832  6.71e+01
   3.5789   -4.9729    4.3123  6.71e+01
   2.9881    3.2011    8.2462  7.12e+01
   3.1218    3.5923    8.2309  7.12e+01
   4.8526    5.4850    8.3849  7.12e+01
   4.4448    5.0950    8.2779  7.12e+01
   3.7350    3.9833   11.4638  7.12e+01
   3.5566    3.8046   11.2931  7.12e+01
   3.6714    4.0431   11.3590  7.12e+01
   3.0580    1.6335    1.7900  7.12e+01
   2.9951    1.2814    1.7801  7.12e+01
   2.9930    1.5500    1.7360  7.12e+01
   4.6184    7.2102   11.6855  7.12e+01
   4.6335    6.9901   11.6646  7.12e+01
   3.7063    0.4335    5.9174  7.12e+01
   3.3971    0.3628    5.6745  7.12e+01
   2.6946    2.6606    7.8260  7.12e+01
   2.8923    3.0430    8.0061  7.12e+01
   3.0562    2.6376    8.0646  7.12e+01
   4.7944    2.3279    9.8896  7.12e+01
