NLLOC "./loc/vinti.19950423.012763_004.grid0" "LOCATED" "Location completed."
SIGNATURE "Anthony Lomax - Geosciences Azur   NLLoc:v4.10.6 07Jul2008 16h19m58"
COMMENT "1995 Vintimiglia Sequence (NonLinLoc Sample Location)"
GRID  101 101 21  -50.000000 -50.000000 0.000000  1.000000 1.000000 1.000000 PROB_DENSITY
SEARCH OCTREE nInitial 400 nEvaluated 10016 smallestNodeSide 0.312500/0.312500/0.156250
HYPOCENTER  x 5.156250 y 6.718750 z 7.109375  OT 6.776349  ix -1 iy -1 iz -1
GEOGRAPHIC  OT 1995 04 23  01 28  6.776349  Lat 43.810460 Long 7.564088 Depth 7.109375
QUALITY  Pmax 9.374e+19 MFmin 9.184955 MFmax 9.292893 RMS 0.289395 Nphs 11 Gap 229 Dist 8.336915 Mamp -9.90 0 Mdur -9.90 0
VPVSRATIO  VpVsRatio 1.670e+00  Npair 3  Diff 1.110e+00
STATISTICS  ExpectX 5.3544e+00 Y 6.1072e+00 Z 5.5799e+00  CovXX 1.12e+00 XY -5.36e-01 XZ -3.88e-01 YY 3.98e+00 YZ 2.45e+00 ZZ 7.33e+00 EllAz1  79.1 Dip1  -0.7 Len1  1.90e+00 Az2  168.7 Dip2  28.4 Len2  3.11e+00 Len3  5.53e+00
STAT_GEOG  ExpectLat 43.804954 Long 7.566544 Depth 5.579914
TRANSFORM  LAMBERT RefEllipsoid Clarke-1880  LatOrig 43.750000  LongOrig 7.500000  FirstStdParal 43.199300  SecondStdParal 44.996100  RotCW 0.000000
FOCALMECH  Hyp  43.810460 7.564088 7.109375 Mech  0.0 0.0 0.0 mf  0.00 nObs 0
PHASE ID Ins Cmp On Pha  FM Date     HrMn   Sec     Err  ErrMag    Coda      Amp       Per  >   TTpred    Res       Weight    StaLoc(X  Y         Z)        SDist    SAzim  RAz  RDip RQual    Tcorr 
RONE   ?    ?    ? P      ? 19950423 0128    9.4100 GAU  1.00e-01 -1.00e+00 -1.00e+00 -1.00e+00 >    2.7058   -0.0722    1.3750    7.8887   14.5952   -0.3000    8.3369  19.13  19.1 132.1  9     0.0000
RONE   ?    ?    ? S      ? 19950423 0128   11.3000 GAU  1.00e-01 -1.00e+00 -1.00e+00 -1.00e+00 >    4.5458   -0.0221    1.3750    7.8887   14.5952   -0.3000    8.3369  19.13  19.1 132.1  9     0.0000
SBF    ?    ?    i p      d 19950423 0128    9.9800 GAU  1.00e-01 -1.00e+00 -1.00e+00 -1.00e+00 >    3.1996    0.0041    1.3750   -5.2384   12.6113   -0.8470   11.9487 299.55 299.5 119.5  9     0.0000
NEGI   ?    ?    ? P      ? 19950423 0128    9.9700 GAU  1.00e-01 -1.00e+00 -1.00e+00 -1.00e+00 >    3.2035   -0.0499    1.3750   16.3893   10.8705   -0.6400   11.9758  69.72  69.7 119.4  9     0.0400
NEGI   ?    ?    ? S      ? 19950423 0128   12.2800 GAU  1.00e-01 -1.00e+00 -1.00e+00 -1.00e+00 >    5.3819    0.0818    1.3750   16.3893   10.8705   -0.6400   11.9758  69.72  69.7 119.4  9     0.0400
CEPP   ?    ?    ? P      ? 19950423 0128   11.0000 GAU  1.00e-01 -1.00e+00 -1.00e+00 -1.00e+00 >    4.2484   -0.0247    1.3750   19.7971   18.5085   -1.0800   18.7977  51.16  51.2 109.3  9     0.0000
CEPP   ?    ?    ? S      ? 19950423 0128   14.0000 GAU  1.00e-01 -1.00e+00 -1.00e+00 -1.00e+00 >    7.1373    0.0464    1.3750   19.7971   18.5085   -1.0800   18.7977  51.16  51.2 109.3  9     0.0400
AURF   ?    ?    ? p      ? 19950423 0128   12.1100 GAU  1.00e+05 -1.00e+00 -1.00e+00 -1.00e+00 >    4.5743    0.7193    0.0000  -13.8607   15.2716   -1.0400   20.8518 294.22 294.2 107.5  9     0.0400
AUTN   ?    ?    ? p      ? 19950423 0128    8.4000 GAU  1.00e+05 -1.00e+00 -1.00e+00 -1.00e+00 >    4.9667   -3.3431    0.0000   -5.8149   27.2765   -2.0690   23.3021 331.91 331.9 105.8  9     0.0000
TOUF   ?    ?    P G      ? 19950423 0128   14.2800 GAU  1.00e-01 -1.00e+00 -1.00e+00 -1.00e+00 >    6.6960    0.8077    1.3750  -20.1791   29.3046   -1.8500   33.9411 311.72 311.7 101.1  9     0.0000
MVIF   ?    ?    ? p      ? 19950423 0128   15.0500 GAU  1.00e+05 -1.00e+00 -1.00e+00 -1.00e+00 >    6.7783    1.4954    0.0000  -27.9180   16.3343   -1.4800   34.4436 286.21 286.2 100.9  9     0.0000
0522   ?    ?    i p      d 19950423 0127   63.7200 GAU  1.00e+05 -1.00e+00 -1.00e+00 -1.00e+00 >    0.0000    0.0000    0.0000 -100000000000000000000.0000 -100000000000000000000.0000 -100000000000000000000.0000    0.0000   0.00   0.0   0.0  0     0.0000
0665   ?    ?    e p      . 19950423 0127   66.7400 GAU  1.00e+05 -1.00e+00 -1.00e+00 -1.00e+00 >    0.0000    0.0000    0.0000 -100000000000000000000.0000 -100000000000000000000.0000 -100000000000000000000.0000    0.0000   0.00   0.0   0.0  0     0.0000
0669   ?    ?    ? p      ? 19950423 0127   67.3300 GAU  1.00e+05 -1.00e+00 -1.00e+00 -1.00e+00 >    0.0000    0.0000    0.0000 -100000000000000000000.0000 -100000000000000000000.0000 -100000000000000000000.0000    0.0000   0.00   0.0   0.0  0     0.0000
0666   ?    ?    i p      u 19950423 0127   68.8200 GAU  1.00e-01 -1.00e+00 -1.00e+00 -1.00e+00 >    0.0000    0.0000    0.0000 -100000000000000000000.0000 -100000000000000000000.0000 -100000000000000000000.0000    0.0000   0.00   0.0   0.0  0     0.0400
.obs   ?    ?    i p      d 19950423 0127   70.3400 GAU  1.00e-01 -1.00e+00 -1.00e+00 -1.00e+00 >    0.0000    0.0000    0.0000 -100000000000000000000.0000 -100000000000000000000.0000 -100000000000000000000.0000    0.0000   0.00   0.0   0.0  0     0.0400
0667   ?    ?    e p      . 19950423 0127   72.5600 GAU  1.00e+05 -1.00e+00 -1.00e+00 -1.00e+00 >    0.0000    0.0000    0.0000 -100000000000000000000.0000 -100000000000000000000.0000 -100000000000000000000.0000    0.0000   0.00   0.0   0.0  0     0.0000
PGF    ?    ?    ? p      ? 19950423 0127   78.1000 GAU  1.00e+05 -1.00e+00 -1.00e+00 -1.00e+00 >    0.0000    0.0000    0.0000 -100000000000000000000.0000 -100000000000000000000.0000 -100000000000000000000.0000    0.0000   0.00   0.0   0.0  0     0.0000
FRF    ?    ?    ? G      ? 19950423 0128   20.4000 GAU  1.00e-01 -1.00e+00 -1.00e+00 -1.00e+00 >    0.0000    0.0000    0.0000 -100000000000000000000.0000 -100000000000000000000.0000 -100000000000000000000.0000    0.0000   0.00   0.0   0.0  0     0.0000
LMR    ?    ?    ? G      ? 19950423 0128   23.5000 GAU  1.00e-01 -1.00e+00 -1.00e+00 -1.00e+00 >    0.0000    0.0000    0.0000 -100000000000000000000.0000 -100000000000000000000.0000 -100000000000000000000.0000    0.0000   0.00   0.0   0.0  0     0.0400
LRG    ?    ?    ? G      ? 19950423 0128   24.5000 GAU  1.00e-01 -1.00e+00 -1.00e+00 -1.00e+00 >    0.0000    0.0000    0.0000 -100000000000000000000.0000 -100000000000000000000.0000 -100000000000000000000.0000    0.0000   0.00   0.0   0.0  0     0.0000
END_PHASE
SCATTER Nsamples 4958
   5.6872    6.8278    2.9517  4.98e+01
   6.2139    6.5239    2.8534  4.98e+01
   5.8791    6.2976    2.9911  4.98e+01
   5.3097    4.1053    0.4883  4.98e+01
   5.1821    3.7872    0.5562  4.98e+01
   5.2835    4.0478    0.6009  4.98e+01
   4.9872    6.5992    2.9737  4.98e+01
   4.8373    6.2970    2.8133  4.98e+01
   4.8563    6.4718    3.0142  4.98e+01
   5.7060    5.6821    8.2117  4.98e+01
   5.9667    5.7072    8.2820  4.98e+01
   5.7395    5.6561    8.3384  4.98e+01
   5.8010    6.0435    8.1711  4.98e+01
   4.7722    8.7239    1.9025  4.77e+01
   4.0249    8.1552    2.3749  4.77e+01
   4.7147    7.5818    2.2366  4.77e+01
   3.8657    7.9036    8.6883  4.98e+01
   4.0733    8.0613    8.4590  4.98e+01
   4.3166    8.0802    8.5651  4.98e+01
   4.7048    3.9305    4.2464  4.97e+01
   4.9762    3.9663    4.1700  4.97e+01
   4.8795    3.9348    4.1587  4.97e+01
   6.3763    7.4970    9.2601  4.77e+01
   7.1428    6.3150    9.0663  4.77e+01
   6.8858    6.9097    8.9453  4.77e+01
   5.7686    9.1423   10.8704  4.77e+01
   6.1697    9.1841   11.1842  4.77e+01
   5.5420    9.3512   10.8900  4.77e+01
   5.9408    7.7240    6.6811  4.97e+01
   6.2102    7.5104    6.8745  4.97e+01
   6.0013    7.6068    6.6016  4.97e+01
   5.0339    3.2300    2.4092  4.97e+01
   5.5412    3.2914    2.4928  4.97e+01
   5.3307    3.3602    2.2333  4.97e+01
   8.5791    5.3147    9.7956  4.56e+01
   9.5227    7.4908    9.9413  4.56e+01
   9.5577    5.2294    9.1700  4.56e+01
   3.9732    5.9095    7.4195  4.97e+01
   4.1223    6.0401    7.2066  4.97e+01
   3.8417    6.1198    7.4535  4.97e+01
   4.1517    5.6320    7.3172  4.97e+01
   4.4735    4.1056    1.8349  4.97e+01
   4.7810    3.9847    1.6507  4.97e+01
   4.5321    3.7726    1.5708  4.97e+01
   5.5635    8.0982    5.0675  4.97e+01
   5.0085    7.8594    5.1673  4.97e+01
   5.1740    7.6129    5.2417  4.97e+01
   6.0457    3.1582    2.0944  4.97e+01
   6.0779    3.6326    2.0727  4.97e+01
   5.8143    3.4297    1.9589  4.97e+01
   6.1566    6.5168    1.7161  4.97e+01
   6.0095    6.2769    1.5916  4.97e+01
   5.9937    6.3865    1.5955  4.97e+01
   6.0755    6.3787    1.8404  4.97e+01
   5.7626    4.2069    5.5086  4.97e+01
   5.8530    4.2517    5.5344  4.97e+01
   6.2318    3.7899    5.6170  4.97e+01
   5.8685    3.1800    1.7964  4.97e+01
   5.7519    3.2053    1.8265  4.97e+01
   6.0077    3.4298    1.7911  4.97e+01
   4.1889    6.7659    5.7283  4.97e+01
   3.8780    6.4934    5.6863  4.97e+01
   4.2914    6.4038    5.8320  4.97e+01
   5.5651    9.3662    9.2042  4.97e+01
   5.1807    8.8794    9.3607  4.97e+01
   5.3936    9.0738    9.1674  4.97e+01
   6.2291    8.3816    1.6516  4.76e+01
   5.7350    7.7489    1.2896  4.76e+01
   5.5774    7.5978    1.5396  4.76e+01
   3.7597    6.1226    5.4504  4.97e+01
   4.0688    5.9912    5.6089  4.97e+01
   4.2707    6.1766    5.3931  4.97e+01
   6.2477    6.7633    2.4945  4.97e+01
   5.6499    6.7072    2.4301  4.97e+01
   6.0345    6.8696    2.2694  4.97e+01
   5.8211    6.7842    2.3325  4.97e+01
   5.3090    3.3414    2.8891  4.97e+01
   5.2530    3.2953    3.1100  4.97e+01
   5.5189    3.3377    2.9988  4.97e+01
   6.2105    9.9939    4.6141  4.76e+01
   6.0433    9.1734    4.9127  4.76e+01
   5.4820    8.8684    4.8408  4.76e+01
   5.0608    7.1266    3.4947  4.97e+01
   5.1655    7.1002    3.5259  4.97e+01
   5.3836    7.0234    3.7064  4.97e+01
   5.7914    7.0465    8.4475  4.97e+01
   5.6719    7.1734    8.6666  4.97e+01
   6.0834    7.1471    8.6655  4.97e+01
   4.6521    4.0745    4.9156  4.97e+01
   4.6768    4.1897    4.9674  4.97e+01
   4.5195    3.9691    4.9974  4.97e+01
   4.5090    8.9634    9.5510  4.97e+01
   4.9706    8.7877    9.6306  4.97e+01
   4.9102    8.9424    9.3867  4.97e+01
   4.5701    8.7707    7.0887  4.97e+01
   4.4837    9.2687    6.9533  4.97e+01
   4.7501    9.0075    7.1173  4.97e+01
   5.3669    4.3485    6.4077  4.97e+01
   5.6220    3.8624    6.3143  4.97e+01
   5.5367    3.8741    6.4088  4.97e+01
   5.6392    3.3806    2.6874  4.97e+01
   5.9538    3.6879    2.7999  4.97e+01
   5.9963    3.7402    2.7011  4.97e+01
   5.4888    8.8268    7.2250  4.97e+01
   5.0265    8.8054    7.3235  4.97e+01
   5.5257    9.2055    7.4167  4.97e+01
   5.8438    8.0389    8.3233  4.97e+01
   5.7234    7.9707    8.4119  4.97e+01
   5.9548    8.1154    8.2750  4.97e+01
   5.6773    4.8151    6.9914  4.97e+01
   6.2098    4.9433    7.1513  4.97e+01
   5.9362    4.5003    6.9405  4.97e+01
   4.5881    5.9389    1.3194  4.97e+01
   4.3833    6.2413    1.2714  4.97e+01
   4.4008    5.7245    1.4993  4.97e+01
   4.0415    8.3984    8.1702  4.97e+01
   4.3383    8.7053    8.2233  4.97e+01
   3.8227    8.4270    8.3423  4.97e+01
   5.4688    3.7312    1.6009  4.97e+01
   5.3028    3.2167    1.5794  4.97e+01
   5.1834    3.6887    1.6874  4.97e+01
   6.0152    2.0915    4.9238  4.76e+01
   5.0557    1.9201    4.8276  4.76e+01
   6.0961    2.4644    4.9510  4.76e+01
   5.6575    6.9040    4.4640  4.97e+01
   5.8892    7.4420    4.5213  4.97e+01
   6.1072    7.0078    4.6838  4.97e+01
   5.2254    4.7716    8.0952  4.96e+01
   5.4091    4.4972    8.0746  4.96e+01
   5.3446    4.6792    7.9997  4.96e+01
   4.5479    6.5619    2.3489  4.96e+01
   4.8676    6.7437    2.3223  4.96e+01
   4.6773    6.3080    2.2349  4.96e+01
   6.1075    5.1124    7.8227  4.96e+01
   6.2086    5.1414    7.9162  4.96e+01
   5.7768    5.4065    8.0800  4.96e+01
   5.3467    6.3535    1.2535  4.96e+01
   5.3437    6.8042    1.4156  4.96e+01
   5.1566    6.6775    1.3764  4.96e+01
   6.3221    4.1312    1.8527  4.96e+01
   6.8047    4.0968    1.7800  4.96e+01
   6.8447    1.8147    2.9243  4.76e+01
   7.2789    2.0537    2.5768  4.76e+01
   7.4749    2.1267    3.0592  4.76e+01
   4.8296    8.1557    9.9654  4.96e+01
   4.7213    8.4939    9.7583  4.96e+01
   4.7696    8.5056    9.9183  4.96e+01
   3.6410    6.1819    5.2207  4.75e+01
   3.3150    5.4213    5.6124  4.75e+01
   3.6583    5.8409    5.4174  4.75e+01
   4.9181    6.2781    9.5351  4.96e+01
   4.7183    6.5756    9.6681  4.96e+01
   4.3996    6.3189    9.5387  4.96e+01
   5.1538    3.7346    3.5864  4.96e+01
   5.1488    3.6607    3.4481  4.96e+01
   5.3431    8.0062    9.7052  4.96e+01
   5.2911    7.6365    9.9422  4.96e+01
   6.7571    5.3144    3.7702  4.96e+01
   6.3402    5.5582    3.8069  4.96e+01
   6.6133    5.0375    3.9333  4.96e+01
   6.7928    5.3118    4.6460  4.96e+01
   6.5344    5.0645    4.6599  4.96e+01
   6.4918    5.1764    4.6617  4.96e+01
   4.9605    9.9984    8.4422  4.96e+01
   4.6503    9.4546    8.7421  4.96e+01
   4.5222    9.5566    8.7113  4.96e+01
   6.1979    3.3873    3.1392  4.96e+01
   5.6602    3.2839    3.3967  4.96e+01
   3.8492    7.2780    6.1229  4.96e+01
   4.2401    7.4394    5.9457  4.96e+01
   5.3678    8.6897    6.2238  4.96e+01
   5.3400    8.5448    6.0746  4.96e+01
   6.4053    5.7892    1.7288  4.96e+01
   6.4060    5.9554    1.6325  4.96e+01
   6.4216    5.7886    1.6660  4.96e+01
   3.3873    8.3876    8.9375  4.75e+01
   2.8577    8.1552    8.9178  4.75e+01
   3.3693    7.9305    8.9160  4.75e+01
   4.3636    8.4279    7.7972  4.96e+01
   4.0404    8.2906    7.8118  4.96e+01
   3.8638    8.3327    7.6735  4.96e+01
   6.8468    5.0360    3.3465  4.96e+01
   6.6324    5.3468    3.2823  4.96e+01
   5.7595    7.9940    5.9819  4.96e+01
   6.0086    7.7059    5.9767  4.96e+01
   6.2604    3.6331    7.0882  4.75e+01
   6.5638    3.1556    6.9483  4.75e+01
   6.8342    4.9603    3.0029  4.96e+01
   6.2758    4.7235    3.0570  4.96e+01
   6.3501    4.7364    2.8514  4.96e+01
   6.3993    4.4713    2.1887  4.96e+01
   6.4079    4.8082    2.2705  4.96e+01
   3.9779    5.5554    5.8368  4.96e+01
   4.0038    5.6032    5.8612  4.96e+01
   4.2484    5.2899    5.7408  4.96e+01
   4.7215    4.1168    5.4160  4.96e+01
   4.4558    3.7999    5.3177  4.96e+01
   6.5823    1.5504    1.4896  4.75e+01
   6.8082    1.7979    1.5063  4.75e+01
   6.4258    2.0980    1.3425  4.75e+01
   6.5350    5.3686    5.0249  4.96e+01
   6.3186    5.1642    5.2696  4.96e+01
   6.6877    5.1080    5.0456  4.96e+01
   6.2690    6.1033    4.9389  4.96e+01
   6.2594    5.8718    4.9783  4.96e+01
   6.6306    5.7902    4.8144  4.96e+01
   6.9507    8.7514    6.4546  4.75e+01
   7.3544    9.7896    6.6615  4.75e+01
   2.6229    5.3989   11.8679  4.54e+01
   2.6252    5.4789   11.9722  4.54e+01
   6.1264    6.0448    8.4503  4.96e+01
   5.8079    5.9416    8.4709  4.96e+01
   6.1538    6.1257    8.4651  4.96e+01
   6.6287    4.9083    3.4848  4.96e+01
   6.3287    4.6757    3.5428  4.96e+01
   6.4327    5.2050    2.7268  4.96e+01
   6.7146    5.3412    2.7744  4.96e+01
   6.7229    5.8161    5.5176  4.96e+01
   6.5126    5.6800    5.3446  4.96e+01
   6.4079    6.0666    5.5093  4.96e+01
   4.8682    7.1561    3.8062  4.96e+01
   4.9662    7.2444    3.8662  4.96e+01
   4.5898    7.0677    3.9040  4.96e+01
   4.6051    7.1456    9.7183  4.96e+01
   4.5200    7.2354    9.7717  4.96e+01
   4.7750    7.2153    9.8082  4.96e+01
   2.5179    5.3517    7.9852  4.75e+01
   2.9627    5.3115    7.5216  4.75e+01
   4.4400    5.6343    9.2341  4.96e+01
   4.5122    6.0696    9.1483  4.96e+01
   5.7001    3.1603    1.0544  4.95e+01
   6.0361    3.3164    1.2397  4.95e+01
   3.9980    7.4246    9.0125  4.95e+01
   4.2294    6.9176    8.9247  4.95e+01
   3.8944    7.3929    8.8650  4.95e+01
   3.9037    5.2605    6.3103  4.95e+01
   3.8806    5.2272    6.3823  4.95e+01
   3.8229    5.2408    6.4552  4.95e+01
   4.1177    5.4758    5.1627  4.95e+01
   3.9715    5.3855    5.2734  4.95e+01
   3.9185    5.5075    5.1000  4.95e+01
   3.8016    5.7284    4.7625  4.95e+01
   4.0081    6.0529    4.7359  4.95e+01
   3.7814    5.9857    4.8938  4.95e+01
   6.4044    5.9397    4.1994  4.95e+01
   6.7618    5.8977    4.1065  4.95e+01
   6.4288    5.6457    4.2392  4.95e+01
   4.6047    4.8577    0.1881  4.75e+01
   4.6817    4.3533    0.0642  4.75e+01
   6.7119    4.7920    4.2548  4.95e+01
   6.6226    4.5567    4.3497  4.95e+01
   6.4016    5.5054    2.1773  4.95e+01
   6.3855    5.5426    2.0542  4.95e+01
   6.8660    5.2324    2.0621  4.95e+01
   5.4394    3.1665    4.3031  4.95e+01
   5.5474    3.2016    4.3369  4.95e+01
   5.5356    3.4526    4.1214  4.95e+01
   3.9707    6.8305    8.6284  4.95e+01
   4.2637    6.3882    8.5455  4.95e+01
   4.2545    6.6456    8.5600  4.95e+01
   6.1264    3.9317    6.1440  4.95e+01
   5.8186    4.1765    6.2314  4.95e+01
   5.7377    4.0138    6.2047  4.95e+01
   4.1215    8.2888    8.7596  4.95e+01
   3.9129    8.4527    8.7666  4.95e+01
   4.2398    8.4650    8.8136  4.95e+01
   5.7318    3.2680    3.8413  4.95e+01
   5.9471    3.4805    3.7820  4.95e+01
   5.9379    3.1816    4.0074  4.95e+01
   4.9600    9.4431    7.9106  4.95e+01
   4.4517    9.4833    7.9170  4.95e+01
   4.7934    9.5862    7.9828  4.95e+01
   5.5662    3.5295    1.4855  4.95e+01
   5.0359    3.1890    1.4764  4.95e+01
   5.0885    3.6084    1.2993  4.95e+01
   5.0630    7.2148    3.0853  4.95e+01
   5.2999    6.9254    3.0901  4.95e+01
   4.8161    4.5304    7.6274  4.95e+01
   4.6243    4.4961    7.7703  4.95e+01
   4.4796    4.4044    7.7125  4.95e+01
   5.5294    1.6060    5.5748  4.74e+01
   5.3380    2.1370    5.4150  4.74e+01
   6.1790    6.6389    8.7505  4.95e+01
   5.9483    6.6969    8.8336  4.95e+01
   5.6817    6.8238    9.0362  4.95e+01
   6.5148    5.7611    6.1660  4.95e+01
   6.7197    6.2349    6.0739  4.95e+01
   6.4228    4.1863    0.3627  4.95e+01
   6.4288    4.3106    0.5586  4.95e+01
   6.0884    3.7091    0.4051  4.95e+01
   5.7899    3.3397    0.4946  4.95e+01
   4.3117    3.0665    0.8198  4.74e+01
   4.6245    3.1815    1.0724  4.74e+01
   4.5881    3.4264    0.9314  4.74e+01
   6.7997    5.6233    5.9104  4.95e+01
   6.6458    5.3997    5.7183  4.95e+01
   6.3206    5.7006    3.6200  4.95e+01
   6.3802    6.2095    3.5557  4.95e+01
   6.3546    5.9647    3.7454  4.95e+01
   5.8808    7.1775    3.8524  4.95e+01
   5.8578    7.3730    3.9034  4.95e+01
   6.8796    1.7563    4.0740  4.74e+01
   7.1886    2.0548    3.9925  4.74e+01
   7.2668    1.8293    4.3584  4.74e+01
   5.4007    6.1177    9.4141  4.95e+01
   5.2393    6.1610    9.4276  4.95e+01
   4.5286    9.5190    9.3303  4.95e+01
   4.5359    9.7471    9.0659  4.95e+01
   3.9307    6.2796    5.2940  4.95e+01
   4.3482    6.8253    5.2409  4.95e+01
   6.5030    4.8401    4.8055  4.95e+01
   6.4449    4.4813    4.8724  4.95e+01
   3.8572    5.0271    4.5491  4.95e+01
   3.9757    5.5094    4.4993  4.95e+01
   3.9749    5.4892    4.4453  4.95e+01
   6.1860    3.8728    0.1460  4.95e+01
   5.8757    3.9728    0.0072  4.95e+01
   6.2257    4.3234    0.2668  4.95e+01
   7.3919    8.0550    3.7272  4.74e+01
   7.1193    8.0305    3.5236  4.74e+01
   4.6412    7.8979    4.6888  4.95e+01
   4.8579    7.7060    4.7195  4.95e+01
   4.6868    8.0190    4.8751  4.95e+01
   6.5742    6.3203    5.8601  4.94e+01
   6.7050    6.2792    5.8093  4.94e+01
   3.7519   11.0146   10.6630  4.74e+01
   3.7559   11.0158   10.6442  4.74e+01
   6.7973    4.2621    1.9659  4.94e+01
   6.2876    3.7762    1.9345  4.94e+01
   4.5678    9.0694    9.9666  4.94e+01
   4.5325    9.1082    9.7356  4.94e+01
   5.0852    6.4372    9.7100  4.94e+01
   5.4418    6.2880    9.9206  4.94e+01
   5.0122    4.3592    7.0072  4.94e+01
   5.5038    3.7987    7.1559  4.94e+01
   5.4868    4.1433    7.0916  4.94e+01
   6.5603    6.7265    5.0110  4.94e+01
   6.5257    6.5265    5.0289  4.94e+01
   3.3897    6.7426    5.9330  4.74e+01
   2.9749    6.7354    5.8401  4.74e+01
   4.3075    7.6056    9.1118  4.94e+01
   4.3529    7.7827    9.2899  4.94e+01
   4.3791    4.0018    6.0024  4.94e+01
