NLLOC "./loc/vinti.19950422.151153_001.grid0" "LOCATED" "Location completed."
SIGNATURE "Anthony Lomax - Geosciences Azur   NLLoc:v4.10.6 07Jul2008 16h19m57"
COMMENT "1995 Vintimiglia Sequence (NonLinLoc Sample Location)"
GRID  101 101 21  -50.000000 -50.000000 0.000000  1.000000 1.000000 1.000000 PROB_DENSITY
SEARCH OCTREE nInitial 400 nEvaluated 10016 smallestNodeSide 0.312500/0.312500/0.156250
HYPOCENTER  x 5.156250 y 4.218750 z 5.703125  OT 50.843329  ix -1 iy -1 iz -1
GEOGRAPHIC  OT 1995 04 22  15 11 50.843329  Lat 43.787956 Long 7.564064 Depth 5.703125
QUALITY  Pmax 1.345e+36 MFmin 17.499244 MFmax 17.557444 RMS 0.227342 Nphs 15 Gap 188 Dist 10.730155 Mamp -9.90 0 Mdur -9.90 0
VPVSRATIO  VpVsRatio 1.617e+00  Npair 4  Diff 1.910e+00
STATISTICS  ExpectX 5.1322e+00 Y 3.5823e+00 Z 4.7182e+00  CovXX 2.97e-01 XY -1.50e-01 XZ 2.08e-01 YY 3.31e+00 YZ 1.61e+00 ZZ 5.91e+00 EllAz1  85.4 Dip1  -3.4 Len1  9.81e-01 Az2  353.7 Dip2  -25.2 Len2  3.01e+00 Len3  4.86e+00
STAT_GEOG  ExpectLat 43.782227 Long 7.563759 Depth 4.718156
TRANSFORM  LAMBERT RefEllipsoid Clarke-1880  LatOrig 43.750000  LongOrig 7.500000  FirstStdParal 43.199300  SecondStdParal 44.996100  RotCW 0.000000
FOCALMECH  Hyp  43.787956 7.564064 5.703125 Mech  0.0 0.0 0.0 mf  0.00 nObs 0
PHASE ID Ins Cmp On Pha  FM Date     HrMn   Sec     Err  ErrMag    Coda      Amp       Per  >   TTpred    Res       Weight    StaLoc(X  Y         Z)        SDist    SAzim  RAz  RDip RQual    Tcorr 
RONE   ?    ?    ? P      ? 19950422 1511   53.6300 GAU  1.00e-01 -1.00e+00 -1.00e+00 -1.00e+00 >    2.9099   -0.1232    1.0584    7.8887   14.5952   -0.3000   10.7302  14.75  14.8 116.3  9     0.0000
RONE   ?    ?    ? S      ? 19950422 1511   55.7000 GAU  1.00e-01 -1.00e+00 -1.00e+00 -1.00e+00 >    4.8886   -0.0319    1.0584    7.8887   14.5952   -0.3000   10.7302  14.75  14.8 116.3  9     0.0000
NEGI   ?    ?    ? P      ? 19950422 1511   54.1300 GAU  1.00e-01 -1.00e+00 -1.00e+00 -1.00e+00 >    3.2659   -0.0193    1.0584   16.3893   10.8705   -0.6400   13.0548  59.37  59.4 111.6  9     0.0400
NEGI   ?    ?    ? S      ? 19950422 1511   56.4200 GAU  1.00e-01 -1.00e+00 -1.00e+00 -1.00e+00 >    5.4868    0.0499    1.0584   16.3893   10.8705   -0.6400   13.0548  59.37  59.4 111.6  9     0.0400
SBF    ?    ?    P G      ? 19950422 1511   54.3200 GAU  1.00e-01 -1.00e+00 -1.00e+00 -1.00e+00 >    3.3136    0.1630    1.0584   -5.2384   12.6113   -0.8470   13.3598 308.92 308.9 111.1  9     0.0000
REVF   ?    ?    P G      ? 19950422 1511   53.8700 GAU  1.00e-01 -1.00e+00 -1.00e+00 -1.00e+00 >    3.8420   -0.8153    1.0584  -10.6730   -1.1024   -0.7000   16.6997 251.42 251.4 107.1  9     0.0000
CEPP   ?    ?    ? P      ? 19950422 1511   55.3200 GAU  1.00e-01 -1.00e+00 -1.00e+00 -1.00e+00 >    4.4474    0.0293    1.0584   19.7971   18.5085   -1.0800   20.4585  45.70  45.7 104.1  9     0.0000
CEPP   ?    ?    ? S      ? 19950422 1511   58.3400 GAU  1.00e-01 -1.00e+00 -1.00e+00 -1.00e+00 >    7.4716    0.0251    1.0584   19.7971   18.5085   -1.0800   20.4585  45.70  45.7 104.1  9     0.0000
AURF   ?    ?    P G      ? 19950422 1511   55.5400 GAU  1.00e-01 -1.00e+00 -1.00e+00 -1.00e+00 >    4.6969   -0.0002    1.0584  -13.8607   15.2716   -1.0400   21.9957 300.17 300.2 103.2  9     0.0000
AURF   ?    ?    ? p      ? 19950422 1511   55.5700 GAU  5.00e-01 -1.00e+00 -1.00e+00 -1.00e+00 >    4.6969    0.0298    0.1825  -13.8607   15.2716   -1.0400   21.9957 300.17 300.2 103.2  9     0.0000
AUTN   ?    ?    P G      ? 19950422 1511   56.0300 GAU  1.00e-01 -1.00e+00 -1.00e+00 -1.00e+00 >    5.2743   -0.0876    1.0584   -5.8149   27.2765   -2.0690   25.5348 334.55 334.6 101.5  9     0.0000
AUTN   ?    ?    i p      u 19950422 1511   56.1800 GAU  1.00e-01 -1.00e+00 -1.00e+00 -1.00e+00 >    5.2743    0.0624    1.0584   -5.8149   27.2765   -2.0690   25.5348 334.55 334.6 101.5  9     0.0000
IMI    ?    ?    ? P      ? 19950422 1511   56.8700 GAU  1.00e-01 -1.00e+00 -1.00e+00 -1.00e+00 >    5.9669    0.0597    1.0584   31.5793   17.9062   -0.8400   29.7578  62.62  62.6  99.9  9     0.0000
IMI    ?    ?    ? S      ? 19950422 1512    0.8500 GAU  1.00e-01 -1.00e+00 -1.00e+00 -1.00e+00 >   10.0244   -0.0178    1.0584   31.5793   17.9062   -0.8400   29.7578  62.62  62.6  99.9  9     0.0000
MVIF   ?    ?    P G      ? 19950422 1511   57.6400 GAU  1.00e-01 -1.00e+00 -1.00e+00 -1.00e+00 >    6.8671   -0.0705    1.0584  -27.9180   16.3343   -1.4800   35.2234 290.12 290.1  98.5  9     0.0000
0666   ?    ?    e p      d 19950422 1511   53.0400 GAU  1.00e-01 -1.00e+00 -1.00e+00 -1.00e+00 >    0.0000    0.0000    0.0000 -100000000000000000000.0000 -100000000000000000000.0000 -100000000000000000000.0000    0.0000   0.00   0.0   0.0  0     0.0000
0665   ?    ?    e p      d 19950422 1511   53.0800 GAU  1.00e-01 -1.00e+00 -1.00e+00 -1.00e+00 >    0.0000    0.0000    0.0000 -100000000000000000000.0000 -100000000000000000000.0000 -100000000000000000000.0000    0.0000   0.00   0.0   0.0  0     0.0000
.obs   ?    ?    i p      d 19950422 1511   54.5200 GAU  1.00e-01 -1.00e+00 -1.00e+00 -1.00e+00 >    0.0000    0.0000    0.0000 -100000000000000000000.0000 -100000000000000000000.0000 -100000000000000000000.0000    0.0000   0.00   0.0   0.0  0     0.0000
ENR    ?    ?    ? P      ? 19950422 1512    0.0800 GAU  1.00e-01 -1.00e+00 -1.00e+00 -1.00e+00 >    0.0000    0.0000    0.0000 -100000000000000000000.0000 -100000000000000000000.0000 -100000000000000000000.0000    0.0000   0.00   0.0   0.0  0     0.0000
STV    ?    ?    ? P      ? 19950422 1512    0.5800 GAU  1.00e-01 -1.00e+00 -1.00e+00 -1.00e+00 >    0.0000    0.0000    0.0000 -100000000000000000000.0000 -100000000000000000000.0000 -100000000000000000000.0000    0.0000   0.00   0.0   0.0  0     0.0000
ROB    ?    ?    ? P      ? 19950422 1512    1.7800 GAU  5.00e-01 -1.00e+00 -1.00e+00 -1.00e+00 >    0.0000    0.0000    0.0000 -100000000000000000000.0000 -100000000000000000000.0000 -100000000000000000000.0000    0.0000   0.00   0.0   0.0  0     0.0000
FIN    ?    ?    ? P      ? 19950422 1512    3.3300 GAU  5.00e-01 -1.00e+00 -1.00e+00 -1.00e+00 >    0.0000    0.0000    0.0000 -100000000000000000000.0000 -100000000000000000000.0000 -100000000000000000000.0000    0.0000   0.00   0.0   0.0  0     0.0000
FRF    ?    ?    ? G      ? 19950422 1512    4.7000 GAU  1.00e-01 -1.00e+00 -1.00e+00 -1.00e+00 >    0.0000    0.0000    0.0000 -100000000000000000000.0000 -100000000000000000000.0000 -100000000000000000000.0000    0.0000   0.00   0.0   0.0  0     0.0000
PZZ    ?    ?    ? P      ? 19950422 1512    5.7900 GAU  1.00e+00 -1.00e+00 -1.00e+00 -1.00e+00 >    0.0000    0.0000    0.0000 -100000000000000000000.0000 -100000000000000000000.0000 -100000000000000000000.0000    0.0000   0.00   0.0   0.0  0     0.0000
ENR    ?    ?    ? S      ? 19950422 1512    5.8000 GAU  1.00e-01 -1.00e+00 -1.00e+00 -1.00e+00 >    0.0000    0.0000    0.0000 -100000000000000000000.0000 -100000000000000000000.0000 -100000000000000000000.0000    0.0000   0.00   0.0   0.0  0     0.0000
STV    ?    ?    ? S      ? 19950422 1512    6.7100 GAU  1.00e-01 -1.00e+00 -1.00e+00 -1.00e+00 >    0.0000    0.0000    0.0000 -100000000000000000000.0000 -100000000000000000000.0000 -100000000000000000000.0000    0.0000   0.00   0.0   0.0  0     0.0400
LMR    ?    ?    ? G      ? 19950422 1512    7.4000 GAU  1.00e-01 -1.00e+00 -1.00e+00 -1.00e+00 >    0.0000    0.0000    0.0000 -100000000000000000000.0000 -100000000000000000000.0000 -100000000000000000000.0000    0.0000   0.00   0.0   0.0  0     0.0000
LRG    ?    ?    ? G      ? 19950422 1512    8.9000 GAU  1.00e-01 -1.00e+00 -1.00e+00 -1.00e+00 >    0.0000    0.0000    0.0000 -100000000000000000000.0000 -100000000000000000000.0000 -100000000000000000000.0000    0.0000   0.00   0.0   0.0  0     0.0000
ROB    ?    ?    ? S      ? 19950422 1512    9.1100 GAU  5.00e-01 -1.00e+00 -1.00e+00 -1.00e+00 >    0.0000    0.0000    0.0000 -100000000000000000000.0000 -100000000000000000000.0000 -100000000000000000000.0000    0.0000   0.00   0.0   0.0  0     0.0000
FIN    ?    ?    ? S      ? 19950422 1512   11.5100 GAU  5.00e-01 -1.00e+00 -1.00e+00 -1.00e+00 >    0.0000    0.0000    0.0000 -100000000000000000000.0000 -100000000000000000000.0000 -100000000000000000000.0000    0.0000   0.00   0.0   0.0  0     0.0000
PZZ    ?    ?    ? S      ? 19950422 1512   15.4000 GAU  1.00e+00 -1.00e+00 -1.00e+00 -1.00e+00 >    0.0000    0.0000    0.0000 -100000000000000000000.0000 -100000000000000000000.0000 -100000000000000000000.0000    0.0000   0.00   0.0   0.0  0     0.0000
END_PHASE
SCATTER Nsamples 4954
   4.1940    7.8718    6.7004  8.48e+01
   4.3082    8.4922    6.4191  8.48e+01
   4.8839    8.0397    6.6554  8.48e+01
   5.6062    0.1633    4.4395  8.69e+01
   5.1493    0.5770    4.5804  8.69e+01
   5.4986    0.2561    4.5177  8.69e+01
   5.6317    3.2854    8.0417  8.69e+01
   5.6359    3.6295    8.1098  8.69e+01
   5.7663    3.6182    7.8471  8.69e+01
   4.3576    3.1036    3.7244  8.69e+01
   4.2837    3.0926    3.5853  8.69e+01
   5.6590    2.0430    5.1381  8.69e+01
   5.7841    2.0799    5.0180  8.69e+01
   4.4415    6.2378    3.2395  8.69e+01
   4.7646    6.1578    3.3544  8.69e+01
   4.7648    5.9821    3.2014  8.69e+01
   6.0157    3.0040    4.3448  8.69e+01
   5.8763    3.1118    4.2627  8.69e+01
   5.9519    3.0510    4.3638  8.69e+01
   5.9061    2.1790    4.4790  8.69e+01
   5.9869    2.1568    4.5538  8.69e+01
   6.0486    2.2674    4.4062  8.69e+01
   6.1021    2.2762    1.6020  8.69e+01
   5.8879    1.8930    1.6016  8.69e+01
   5.6519    2.2181    1.6197  8.69e+01
   5.5696    4.3470    9.1283  8.69e+01
   5.3122    3.8162    9.3230  8.69e+01
   5.5770    3.8598    9.2448  8.69e+01
   4.3712    2.0469    2.8038  8.69e+01
   4.2936    2.0198    2.5827  8.69e+01
   3.8326    2.4651    2.7676  8.69e+01
   6.9369   -2.9093   11.5482  8.06e+01
   8.6667   -1.9887   11.2977  8.06e+01
   5.7788    2.0875    5.6859  8.69e+01
   5.9220    1.8983    5.9082  8.69e+01
   6.1542    2.2029    5.9299  8.69e+01
   6.0096    1.5549    1.3214  8.69e+01
   5.9909    1.4702    1.4758  8.69e+01
   6.1239    1.5687    1.2513  8.69e+01
   5.7455    3.2130    4.4029  8.69e+01
   6.1045    3.5162    4.4821  8.69e+01
   5.9873    3.4778    4.5574  8.69e+01
   5.3392    6.8477    5.5012  8.69e+01
   5.4904    6.4850    5.5809  8.69e+01
   4.8866    7.0959    7.8752  8.69e+01
   4.6121    7.0869    7.9503  8.69e+01
   4.3231    3.3090    3.8158  8.69e+01
   4.3533    3.3812    3.7630  8.69e+01
   5.3725    5.2527    1.8495  8.69e+01
   5.1865    5.5795    1.6642  8.69e+01
   5.0613    5.1802    1.8466  8.69e+01
   5.7871    1.9880    4.0538  8.68e+01
   6.0145    2.2050    3.8122  8.68e+01
   5.6659    1.4511    0.7440  8.68e+01
   5.8412    1.3814    0.8678  8.68e+01
   4.9760    0.8469    4.5274  8.68e+01
   4.8870    1.1043    4.6496  8.68e+01
   4.8082    0.7962    4.4722  8.68e+01
   4.3698    3.0437    4.0243  8.68e+01
   4.0731    2.8046    3.8723  8.68e+01
   4.1601    2.8783    3.9314  8.68e+01
   4.3950    7.4321    6.6341  8.68e+01
   4.9216    7.1966    6.8324  8.68e+01
   4.6700    6.9695    6.6565  8.68e+01
   5.3566    6.1944    4.3450  8.68e+01
   5.0943    6.2216    4.2609  8.68e+01
   4.6284    2.2854    0.6215  8.68e+01
   4.7720    1.8781    0.5040  8.68e+01
   4.9142    2.4933    0.5202  8.68e+01
   6.1672    5.7237    7.9110  8.68e+01
   5.8057    6.1346    7.8923  8.68e+01
   4.3239    2.6359    1.7561  8.68e+01
   4.3242    3.0374    1.8445  8.68e+01
   4.0304    4.3339    2.2126  8.68e+01
   3.9363    3.7978    2.3270  8.68e+01
   3.8554    4.0549    2.3469  8.68e+01
   5.2166    3.2775    9.0109  8.68e+01
   5.4561    3.1826    8.8141  8.68e+01
   5.9321    2.0971    3.2182  8.68e+01
   6.0340    2.2339    3.2521  8.68e+01
   5.6661    2.3467    3.3973  8.68e+01
   6.0619    5.0878    8.9928  8.68e+01
   5.9676    5.0130    8.9125  8.68e+01
   6.0962    5.1044    8.9023  8.68e+01
   4.0990    4.2359    2.9797  8.68e+01
   3.9043    4.0600    2.8821  8.68e+01
   4.0647    4.0037    3.0150  8.68e+01
   5.3875    4.9819    9.5338  8.68e+01
   5.1293    4.8145    9.3794  8.68e+01
   5.6669    2.2911    6.4757  8.68e+01
   5.7689    2.0845    6.3501  8.68e+01
   6.2206    2.6950    3.4580  8.68e+01
   6.0804    3.0219    3.7077  8.68e+01
   5.7252    2.8395    3.6662  8.68e+01
   5.4058    0.7748    0.8946  8.68e+01
   5.2008    0.8641    0.7326  8.68e+01
   5.1201    0.7062    0.6690  8.68e+01
   3.9827    3.7294    4.3523  8.68e+01
   3.8610    3.4252    4.1697  8.68e+01
   5.7109    1.8471    3.4838  8.68e+01
   6.1242    1.6700    3.4872  8.68e+01
   5.8325    1.8478    3.5544  8.68e+01
   5.1308    5.4887    2.2490  8.68e+01
   5.2469    5.5240    2.2300  8.68e+01
   5.3449    5.2544    2.2630  8.68e+01
   5.9587    1.6369    4.1513  8.68e+01
   6.2132    1.6079    4.2427  8.68e+01
   4.5341    6.6834    4.7673  8.68e+01
   4.5804    6.7217    4.8642  8.68e+01
   6.1619    1.3994    3.3977  8.68e+01
   6.1855    1.5641    3.3428  8.68e+01
   6.1356    2.2201    3.0345  8.68e+01
   5.6295    2.1056    3.0306  8.68e+01
   4.9038    6.1145    2.9074  8.68e+01
   4.7697    5.8714    3.0306  8.68e+01
   5.6279    1.7349    2.7974  8.68e+01
   6.2132    1.3397    2.6158  8.68e+01
   3.8502    3.7680    3.6431  8.68e+01
   3.9750    3.9736    3.6224  8.68e+01
   6.0901    2.8376    7.7343  8.68e+01
   6.1034    2.5597    7.6022  8.68e+01
   6.0219    3.0193    7.5963  8.68e+01
   5.7800   -0.2926    8.0602  8.47e+01
   5.0483   -0.7088    7.8891  8.47e+01
   5.1459   -0.6738    8.0135  8.47e+01
   5.1617    4.0717    5.6392  8.88e+01
   5.0953    4.3077    5.6587  8.88e+01
   5.0492    4.1507    5.7585  8.88e+01
   5.9409    1.4864    4.8895  8.68e+01
   5.9365    1.3699    4.8682  8.68e+01
   5.0585    4.1397    5.5508  8.88e+01
   5.2621    4.1555    5.5812  8.88e+01
   5.2197    4.1294    5.5286  8.88e+01
   5.0873    4.6370    6.0507  8.88e+01
   5.0022    4.6175    6.0161  8.88e+01
   5.0512    4.4638    6.0884  8.88e+01
   5.1575    4.2508    5.8793  8.88e+01
   5.2531    4.0962    5.8311  8.88e+01
   6.0757    1.8334    1.9198  8.68e+01
   5.6880    1.8497    2.0880  8.68e+01
   6.1775    1.4743    2.1447  8.68e+01
   5.0592    4.5173    6.1547  8.88e+01
   5.0743    4.5949    6.1436  8.88e+01
   5.2632    4.5893    5.9208  8.88e+01
   5.1098    4.4551    5.9278  8.88e+01
   5.0820    4.1768    5.4290  8.88e+01
   5.3036    4.0723    5.3137  8.88e+01
   5.2007    4.3672    5.3602  8.88e+01
   5.1080    4.3129    5.9869  8.88e+01
   5.0761    4.1279    6.0576  8.88e+01
   5.1264    4.3231    5.9811  8.88e+01
   6.0073    1.4149    0.0045  8.67e+01
   5.8744    1.5187    0.0684  8.67e+01
   5.7936    1.7998    0.1792  8.67e+01
   5.1989    4.5228    5.6845  8.88e+01
   5.2357    4.5432    5.6987  8.88e+01
   5.8174    5.8499    8.5347  8.67e+01
   5.7260    5.9708    8.6035  8.67e+01
   5.0087    4.3858    6.2667  8.88e+01
   5.2053    4.6350    6.2724  8.88e+01
   5.8315    2.3620    2.3276  8.67e+01
   6.1020    2.2738    2.3768  8.67e+01
   3.8397    2.3676    3.1427  8.67e+01
   4.1437    1.9731    3.2645  8.67e+01
   4.0100    1.8984    3.3777  8.67e+01
   5.1113    3.9624    5.2989  8.88e+01
   5.1651    3.8182    5.1627  8.88e+01
   5.0020    3.8469    5.1935  8.88e+01
   5.1280    3.8879    5.4535  8.88e+01
   5.2057    3.8460    5.3675  8.88e+01
   5.1771    4.1257    5.2827  8.88e+01
   5.0018    4.3177    5.2327  8.88e+01
   5.0796    4.3440    5.2639  8.88e+01
   3.9371    3.8925    3.9084  8.67e+01
   4.2732    3.7822    4.0508  8.67e+01
   5.6499    4.0123    4.9183  8.67e+01
   6.1486    4.2510    4.6941  8.67e+01
   6.1947    3.9795    4.8807  8.67e+01
   5.1881    3.7674    5.1458  8.88e+01
   5.0531    3.7584    5.0848  8.88e+01
   5.0876    3.9107    5.5945  8.88e+01
   5.0748    3.7865    5.5911  8.88e+01
   5.8354    0.1648   12.1848  8.26e+01
   5.4590    1.8354   12.0550  8.26e+01
   5.4247    0.4302    5.0275  8.67e+01
   5.0723    0.0646    5.2663  8.67e+01
   5.2089    4.1526    6.1070  8.88e+01
   5.0492    4.3477    6.1813  8.88e+01
   5.0596    4.6436    5.6106  8.88e+01
   5.1616    4.4131    5.6065  8.88e+01
   5.0693    4.6240    5.4719  8.88e+01
   5.0245    3.7689    4.9282  8.88e+01
   5.1732    3.7715    4.8935  8.88e+01
   5.0510    4.9973    6.3924  8.88e+01
   5.1849    4.7700    6.3098  8.88e+01
   5.2056    4.4789    6.5229  8.88e+01
   5.1596    4.4820    6.5246  8.88e+01
   5.1512    3.8360    5.6968  8.88e+01
   5.1626    4.0219    5.6800  8.88e+01
   5.2199    4.9315    6.2124  8.88e+01
   5.1211    4.8871    6.2005  8.88e+01
   5.1663    4.9697    6.4256  8.88e+01
   5.2064    4.9387    6.5396  8.88e+01
   5.6846    0.7819    1.6730  8.67e+01
   6.1192    1.1997    1.7536  8.67e+01
   5.1018    4.2104    5.0545  8.88e+01
   5.1168    4.1006    5.1392  8.88e+01
   6.2008    5.5204    6.2829  8.67e+01
   6.0318    5.5518    6.4802  8.67e+01
   4.9405    1.4998    6.1413  8.67e+01
   4.7296    1.5584    5.9514  8.67e+01
   4.5949    2.6132    0.2092  8.67e+01
   4.9599    3.0027    0.0047  8.67e+01
   5.2139    3.8915    4.7266  8.88e+01
   5.1128    3.8850    4.8399  8.88e+01
   5.2164    4.9286    6.0615  8.88e+01
   5.2492    4.6938    5.9994  8.88e+01
   5.8368    1.2558    5.4448  8.67e+01
   5.7351    1.4963    5.5372  8.67e+01
   5.2889    4.9828    6.6389  8.88e+01
   5.2840    4.7168    6.6080  8.88e+01
   5.0098    4.7316    6.6265  8.88e+01
   5.1023    3.9293    5.9344  8.88e+01
   5.2037    4.0579    5.8976  8.88e+01
   5.1997    4.4153    5.3767  8.88e+01
   5.1103    4.5558    5.3461  8.88e+01
   6.2121    3.5772    0.5780  8.67e+01
   5.9553    3.5297    0.4157  8.67e+01
   5.9869    3.1627    0.4976  8.67e+01
   5.1922    4.3431    6.2742  8.88e+01
   5.3010    4.1768    6.3949  8.88e+01
   5.0549    4.2248    6.2751  8.88e+01
   6.1295    1.2413    2.3319  8.67e+01
   5.9936    1.2474    2.3282  8.67e+01
   5.6428    1.2194    2.2607  8.67e+01
   5.1146    3.5358    4.9044  8.88e+01
   5.2147    3.7203    4.9167  8.88e+01
   5.0777    3.5553    4.9160  8.88e+01
   6.1174    2.9238    0.1652  8.67e+01
   5.9456    2.6296    0.0602  8.67e+01
   5.0663    3.5542    4.7564  8.88e+01
   5.0365    3.6117    4.7990  8.88e+01
   5.1144    3.8928    4.6651  8.88e+01
   5.1407    4.0104    4.5373  8.88e+01
   5.0432    4.1610    4.9784  8.88e+01
   5.2331    4.1509    4.8795  8.88e+01
   5.1393    4.0699    4.9293  8.88e+01
   5.0625    3.6220    5.1417  8.88e+01
   5.1543    3.6386    5.0836  8.88e+01
   5.0468    3.4604    4.6537  8.88e+01
   5.0588    3.7015    4.6162  8.88e+01
   5.1598    4.3943    6.6839  8.88e+01
   5.2818    4.4087    6.6743  8.88e+01
   6.1321    4.1659    8.9974  8.67e+01
   6.0674    4.3197    9.0355  8.67e+01
   5.7834    3.4249    3.9834  8.67e+01
   5.8173    3.1915    3.8415  8.67e+01
   5.9445    0.8774    3.1228  8.67e+01
   6.1342    0.7079    2.9135  8.67e+01
   5.8878    2.7896    3.0021  8.67e+01
   5.6284    3.0292    3.0549  8.67e+01
   5.6414    2.9773    2.9589  8.67e+01
   5.2825    4.9339    5.8804  8.88e+01
   5.1624    4.9944    5.8547  8.88e+01
   5.9683    5.9499    7.4693  8.67e+01
   6.1016    5.6891    7.2270  8.67e+01
   5.1452    3.5200    4.5155  8.88e+01
   5.1398    3.4402    4.4732  8.88e+01
   5.0163    3.6172    5.1713  8.88e+01
   5.0578    3.7309    5.1801  8.88e+01
   5.2960    4.7227    6.7344  8.88e+01
   5.1287    4.8583    6.8394  8.88e+01
   5.0169    4.0006    5.9910  8.88e+01
   5.0609    4.0192    6.0173  8.88e+01
   5.1799    7.1634    6.2816  8.67e+01
   5.1165    7.0566    6.3962  8.67e+01
   6.0513    4.0511    0.7260  8.67e+01
   6.1423    4.1196    0.9219  8.67e+01
   5.2750    4.0456    4.5172  8.88e+01
   5.2683    3.9603    4.4129  8.88e+01
   5.2079    2.5529    8.7403  8.67e+01
   5.4579    3.0795    8.5449  8.67e+01
   5.0274    3.6542    4.2479  8.88e+01
   5.1968    3.7243    4.2591  8.88e+01
   5.2241    3.5234    4.2459  8.88e+01
