NLLOC "./loc/vinti.19950422.151153.grid0" "LOCATED" "Location completed."
SIGNATURE "Anthony Lomax - Geosciences Azur   NLLoc:v4.40.1 20Aug2008 13h05m52"
COMMENT "1995 Vintimiglia Sequence (NonLinLoc Sample Location)"
GRID  101 101 21  -50.000000 -50.000000 0.000000  1.000000 1.000000 1.000000 PROB_DENSITY
SEARCH OCTREE nInitial 400 nEvaluated 10016 smallestNodeSide 0.312500/0.312500/0.156250 oct_tree_integral 5.622830e+01 scatter_volume 5.622830e+01
HYPOCENTER  x 4.375000 y 1.875000 z 7.812500  OT 50.854284  ix -1 iy -1 iz -1
GEOGRAPHIC  OT 1995 04 22  15 11 50.854284  Lat 43.766865 Long 7.554338 Depth 7.812500
QUALITY  Pmax 6.568e+35 MFmin 17.500166 MFmax 17.562626 RMS 0.151093 Nphs 15 Gap 199 Dist 13.196539 Mamp -9.90 0 Mdur -9.90 0
VPVSRATIO  VpVsRatio 1.617e+00  Npair 4  Diff 1.910e+00
STATISTICS  ExpectX 4.4902e+00 Y 2.7551e+00 Z 7.5563e+00  CovXX 4.53e-01 XY -1.96e-01 XZ 3.75e-01 YY 5.31e+00 YZ 4.47e+00 ZZ 1.28e+01 EllAz1  84.3 Dip1  -3.8 Len1  1.20e+00 Az2  352.5 Dip2  -24.6 Len2  3.40e+00 Len3  7.26e+00
STAT_GEOG  ExpectLat 43.774786 Long 7.555776 Depth 7.556254
TRANSFORM  LAMBERT RefEllipsoid Clarke-1880  LatOrig 43.750000  LongOrig 7.500000  FirstStdParal 43.199300  SecondStdParal 44.996100  RotCW 0.000000
FOCALMECH  Hyp  43.766865 7.554338 7.812500 Mech  0.0 0.0 0.0 mf  0.00 nObs 0
PHASE ID Ins Cmp On Pha  FM Date     HrMn   Sec     Err  ErrMag    Coda      Amp       Per  >   TTpred    Res       Weight    StaLoc(X  Y         Z)        SDist    SAzim  RAz  RDip RQual    Tcorr 
RONE   ?    ?    ? P      ? 19950422 1511   53.6300 GAU  1.00e-01 -1.00e+00 -1.00e+00 -1.00e+00 >    2.8874   -0.1117    1.0812    7.8887   14.5952   -0.3000   13.1965  15.44  15.4 115.9  9     0.0000
RONE   ?    ?    ? S      ? 19950422 1511   55.7000 GAU  1.00e-01 -1.00e+00 -1.00e+00 -1.00e+00 >    4.8509   -0.0051    1.1330    7.8887   14.5952   -0.3000   13.1965  15.44  15.4 115.9  9     0.0000
SBF    ?    ?    P G      ? 19950422 1511   54.3200 GAU  1.00e-01 -1.00e+00 -1.00e+00 -1.00e+00 >    3.1800    0.2858    0.7946   -5.2384   12.6113   -0.8470   14.4113 318.16 318.2 114.6  9     0.0000
NEGI   ?    ?    ? P      ? 19950422 1511   54.1300 GAU  1.00e-01 -1.00e+00 -1.00e+00 -1.00e+00 >    3.2303    0.0054    1.1325   16.3893   10.8705   -0.6400   15.0088  53.18  53.2 113.5  9     0.0400
NEGI   ?    ?    ? S      ? 19950422 1511   56.4200 GAU  1.00e-01 -1.00e+00 -1.00e+00 -1.00e+00 >    5.4270    0.0987    1.0835   16.3893   10.8705   -0.6400   15.0088  53.18  53.2 113.5  9     0.0400
REVF   ?    ?    P G      ? 19950422 1511   53.8700 GAU  1.00e-01 -1.00e+00 -1.00e+00 -1.00e+00 >    3.2931   -0.2774    0.8318  -10.6730   -1.1024   -0.7000   15.3397 258.81 258.8 113.2  9     0.0000
AURF   ?    ?    P G      ? 19950422 1511   55.5400 GAU  1.00e-01 -1.00e+00 -1.00e+00 -1.00e+00 >    4.5082    0.1775    0.9863  -13.8607   15.2716   -1.0400   22.6276 306.30 306.3 106.7  9     0.0000
AURF   ?    ?    ? p      ? 19950422 1511   55.5700 GAU  5.00e-01 -1.00e+00 -1.00e+00 -1.00e+00 >    4.5082    0.2075    0.6506  -13.8607   15.2716   -1.0400   22.6276 306.30 306.3 106.7  9     0.0000
CEPP   ?    ?    ? P      ? 19950422 1511   55.3200 GAU  1.00e-01 -1.00e+00 -1.00e+00 -1.00e+00 >    4.5246   -0.0588    1.1197   19.7971   18.5085   -1.0800   22.6829  42.84  42.8 106.7  9     0.0000
CEPP   ?    ?    ? S      ? 19950422 1511   58.3400 GAU  1.00e-01 -1.00e+00 -1.00e+00 -1.00e+00 >    7.6012   -0.1155    1.0775   19.7971   18.5085   -1.0800   22.6829  42.84  42.8 106.7  9     0.0000
AUTN   ?    ?    P G      ? 19950422 1511   56.0300 GAU  1.00e-01 -1.00e+00 -1.00e+00 -1.00e+00 >    5.4683   -0.2925    0.8025   -5.8149   27.2765   -2.0690   27.3692 338.14 338.1 104.6  9     0.0000
AUTN   ?    ?    i p      u 19950422 1511   56.1800 GAU  1.00e-01 -1.00e+00 -1.00e+00 -1.00e+00 >    5.4683   -0.1425    1.0481   -5.8149   27.2765   -2.0690   27.3692 338.14 338.1 104.6  9     0.0000
IMI    ?    ?    ? P      ? 19950422 1511   56.8700 GAU  1.00e-01 -1.00e+00 -1.00e+00 -1.00e+00 >    5.9181    0.0976    1.0845   31.5793   17.9062   -0.8400   31.5765  59.49  59.5 102.4  9     0.0000
IMI    ?    ?    ? S      ? 19950422 1512    0.8500 GAU  1.00e-01 -1.00e+00 -1.00e+00 -1.00e+00 >    9.9425    0.0532    1.1171   31.5793   17.9062   -0.8400   31.5765  59.49  59.5 102.4  9     0.0000
MVIF   ?    ?    P G      ? 19950422 1511   57.6400 GAU  1.00e-01 -1.00e+00 -1.00e+00 -1.00e+00 >    6.6615    0.1242    1.0571  -27.9180   16.3343   -1.4800   35.3823 294.12 294.1 101.4  9     0.0000
0666   ?    ?    e p      d 19950422 1511   53.0400 GAU  1.00e-01 -1.00e+00 -1.00e+00 -1.00e+00 >    0.0000    0.0000    0.0000 -100000000000000000000.0000 -100000000000000000000.0000 -100000000000000000000.0000    0.0000   0.00   0.0   0.0  0     0.0000
0665   ?    ?    e p      d 19950422 1511   53.0800 GAU  1.00e-01 -1.00e+00 -1.00e+00 -1.00e+00 >    0.0000    0.0000    0.0000 -100000000000000000000.0000 -100000000000000000000.0000 -100000000000000000000.0000    0.0000   0.00   0.0   0.0  0     0.0000
.obs   ?    ?    i p      d 19950422 1511   54.5200 GAU  1.00e-01 -1.00e+00 -1.00e+00 -1.00e+00 >    0.0000    0.0000    0.0000 -100000000000000000000.0000 -100000000000000000000.0000 -100000000000000000000.0000    0.0000   0.00   0.0   0.0  0     0.0000
ENR    ?    ?    ? P      ? 19950422 1512    0.0800 GAU  1.00e-01 -1.00e+00 -1.00e+00 -1.00e+00 >    0.0000    0.0000    0.0000 -100000000000000000000.0000 -100000000000000000000.0000 -100000000000000000000.0000    0.0000   0.00   0.0   0.0  0     0.0000
STV    ?    ?    ? P      ? 19950422 1512    0.5800 GAU  1.00e-01 -1.00e+00 -1.00e+00 -1.00e+00 >    0.0000    0.0000    0.0000 -100000000000000000000.0000 -100000000000000000000.0000 -100000000000000000000.0000    0.0000   0.00   0.0   0.0  0     0.0000
ROB    ?    ?    ? P      ? 19950422 1512    1.7800 GAU  5.00e-01 -1.00e+00 -1.00e+00 -1.00e+00 >    0.0000    0.0000    0.0000 -100000000000000000000.0000 -100000000000000000000.0000 -100000000000000000000.0000    0.0000   0.00   0.0   0.0  0     0.0000
FIN    ?    ?    ? P      ? 19950422 1512    3.3300 GAU  5.00e-01 -1.00e+00 -1.00e+00 -1.00e+00 >    0.0000    0.0000    0.0000 -100000000000000000000.0000 -100000000000000000000.0000 -100000000000000000000.0000    0.0000   0.00   0.0   0.0  0     0.0000
FRF    ?    ?    ? G      ? 19950422 1512    4.7000 GAU  1.00e-01 -1.00e+00 -1.00e+00 -1.00e+00 >    0.0000    0.0000    0.0000 -100000000000000000000.0000 -100000000000000000000.0000 -100000000000000000000.0000    0.0000   0.00   0.0   0.0  0     0.0000
PZZ    ?    ?    ? P      ? 19950422 1512    5.7900 GAU  1.00e+00 -1.00e+00 -1.00e+00 -1.00e+00 >    0.0000    0.0000    0.0000 -100000000000000000000.0000 -100000000000000000000.0000 -100000000000000000000.0000    0.0000   0.00   0.0   0.0  0     0.0000
ENR    ?    ?    ? S      ? 19950422 1512    5.8000 GAU  1.00e-01 -1.00e+00 -1.00e+00 -1.00e+00 >    0.0000    0.0000    0.0000 -100000000000000000000.0000 -100000000000000000000.0000 -100000000000000000000.0000    0.0000   0.00   0.0   0.0  0     0.0000
STV    ?    ?    ? S      ? 19950422 1512    6.7100 GAU  1.00e-01 -1.00e+00 -1.00e+00 -1.00e+00 >    0.0000    0.0000    0.0000 -100000000000000000000.0000 -100000000000000000000.0000 -100000000000000000000.0000    0.0000   0.00   0.0   0.0  0     0.0400
LMR    ?    ?    ? G      ? 19950422 1512    7.4000 GAU  1.00e-01 -1.00e+00 -1.00e+00 -1.00e+00 >    0.0000    0.0000    0.0000 -100000000000000000000.0000 -100000000000000000000.0000 -100000000000000000000.0000    0.0000   0.00   0.0   0.0  0     0.0000
LRG    ?    ?    ? G      ? 19950422 1512    8.9000 GAU  1.00e-01 -1.00e+00 -1.00e+00 -1.00e+00 >    0.0000    0.0000    0.0000 -100000000000000000000.0000 -100000000000000000000.0000 -100000000000000000000.0000    0.0000   0.00   0.0   0.0  0     0.0000
ROB    ?    ?    ? S      ? 19950422 1512    9.1100 GAU  5.00e-01 -1.00e+00 -1.00e+00 -1.00e+00 >    0.0000    0.0000    0.0000 -100000000000000000000.0000 -100000000000000000000.0000 -100000000000000000000.0000    0.0000   0.00   0.0   0.0  0     0.0000
FIN    ?    ?    ? S      ? 19950422 1512   11.5100 GAU  5.00e-01 -1.00e+00 -1.00e+00 -1.00e+00 >    0.0000    0.0000    0.0000 -100000000000000000000.0000 -100000000000000000000.0000 -100000000000000000000.0000    0.0000   0.00   0.0   0.0  0     0.0000
PZZ    ?    ?    ? S      ? 19950422 1512   15.4000 GAU  1.00e+00 -1.00e+00 -1.00e+00 -1.00e+00 >    0.0000    0.0000    0.0000 -100000000000000000000.0000 -100000000000000000000.0000 -100000000000000000000.0000    0.0000   0.00   0.0   0.0  0     0.0000
END_PHASE
SCATTER Nsamples 4953
   4.6121   -0.4131    2.0128  8.70e+01
   4.8477   -0.0519    1.9670  8.70e+01
   4.5066   -0.0217    2.0031  8.70e+01
   4.8843   -0.2525    2.0013  8.70e+01
   4.9489   -0.4385    5.2897  8.70e+01
   4.5784   -0.3696    5.0306  8.70e+01
   4.5552   -0.0567    5.0811  8.70e+01
   4.9827   -0.2355    5.1650  8.70e+01
   3.8743    0.3664    5.6455  8.70e+01
   3.9511    0.2380    5.7331  8.70e+01
   3.8814    0.4855    5.8999  8.70e+01
   3.3469    2.1799    7.1310  8.70e+01
   3.6043    2.4243    6.9287  8.70e+01
   3.5582    2.0462    6.9722  8.70e+01
   4.2937    4.2985   11.4116  8.70e+01
   4.0546    3.9946   11.3090  8.70e+01
   4.1601    4.1283   11.4314  8.70e+01
   4.3071    3.8932   11.5233  8.70e+01
   5.3216    3.6649   10.1259  8.69e+01
   5.2950    3.2195   10.0940  8.69e+01
   5.3566    3.6944   10.2825  8.69e+01
   5.5966    3.5218   10.1646  8.69e+01
   4.0034    2.2854    2.4965  8.69e+01
   4.1470    1.8781    2.3790  8.69e+01
   3.9601    2.4142    2.4966  8.69e+01
   4.9172    2.5987   11.6610  8.69e+01
   4.5557    3.0096   11.6423  8.69e+01
   4.7960    3.0739   11.6305  8.69e+01
   4.9492    3.0374   11.8445  8.69e+01
   3.6404    2.1554    6.5419  8.69e+01
   3.1752    2.0613    6.2739  8.69e+01
   3.4041    2.1728    6.3027  8.69e+01
   3.4437    2.0916    6.3262  8.69e+01
   3.6467    2.3311    7.5288  8.69e+01
   3.2531    2.3522    7.6536  8.69e+01
   3.3471    2.0614    7.7045  8.69e+01
   3.3792    2.0363    7.5205  8.69e+01
   3.4433    4.8390    7.3119  8.49e+01
   2.6755    4.7210    7.2176  8.49e+01
   2.5260    4.4001    7.0103  8.49e+01
   5.1044    3.4295   11.1120  8.69e+01
   5.4859    3.4594   11.0146  8.69e+01
   5.3100    3.2643   11.0512  8.69e+01
   5.2537    3.5300   11.1313  8.69e+01
   4.9819   -0.3074    5.6897  8.69e+01
   4.8145   -0.6162    5.8067  8.69e+01
   4.4169   -0.2089    5.8507  8.69e+01
   4.5845   -0.4248    5.8090  8.69e+01
   6.1911   -2.1101    2.5411  8.49e+01
   5.9108   -1.4562    3.0405  8.49e+01
   5.1551   -2.2996    2.8395  8.49e+01
   4.7808   -0.4752    1.8321  8.69e+01
   4.5758   -0.3859    1.6701  8.69e+01
   4.3942   -0.5049    1.6031  8.69e+01
   4.6077   -0.0206    1.8523  8.69e+01
   5.2220   -1.8995    2.0894  8.49e+01
   6.0499   -2.3281    2.4721  8.49e+01
   5.1853   -1.5016    2.2950  8.49e+01
   5.2402   -2.0851    2.4728  8.49e+01
   5.4675   -2.2384    4.2387  8.49e+01
   5.2458   -2.0062    4.2740  8.49e+01
   5.1700   -2.0414    4.0949  8.49e+01
   5.3019   -1.8327    4.1369  8.49e+01
   4.5525    2.4632    5.1789  8.69e+01
   4.7353    2.2056    5.0795  8.69e+01
   4.8084    2.0346    5.1027  8.69e+01
   4.7284    4.0823    8.0810  8.69e+01
   4.5244    4.2954    8.0928  8.69e+01
   4.6891    4.1856    7.9644  8.69e+01
   5.3451    2.9441   10.3147  8.69e+01
   5.2306    2.9362   10.6031  8.69e+01
   5.5288    2.9895   10.4074  8.69e+01
   3.9964    2.9361    1.2410  8.69e+01
   3.7529    2.9849    1.2349  8.69e+01
   4.3382    2.5897    1.0533  8.69e+01
   3.8502    6.2680   10.2056  8.69e+01
   3.9750    6.4736   10.1849  8.69e+01
   4.1581    6.7151   10.1688  8.69e+01
   5.4784    5.0597   11.3522  8.69e+01
   5.0487    5.3969   11.5097  8.69e+01
   5.1927    5.3900   11.4894  8.69e+01
   5.0241    2.7706    9.8820  8.69e+01
   5.1737    2.5729    9.8316  8.69e+01
   5.5135    2.8234    9.6967  8.69e+01
   5.1906    2.9904    9.7549  8.69e+01
   4.4204    1.3483    2.9007  8.69e+01
   4.9088    1.5659    2.9307  8.69e+01
   4.7790    1.5615    2.8724  8.69e+01
   4.1522    1.9919    1.9522  8.69e+01
   4.0781    2.3992    1.9680  8.69e+01
   4.1999    1.9737    2.0947  8.69e+01
   3.9894    2.0497    2.1370  8.69e+01
   4.2028    0.0043    6.4925  8.69e+01
   4.0644    0.1671    6.3012  8.69e+01
   3.9277    0.6034    6.4075  8.69e+01
   5.7847   -1.4875    5.0673  8.48e+01
   5.3992   -1.8697    5.4507  8.48e+01
   6.1668   -2.3206    5.0630  8.48e+01
   4.8009    4.5808   12.7763  8.69e+01
   4.5993    4.9144   12.5592  8.69e+01
   4.6596    4.6186   12.5743  8.69e+01
   5.1992    5.4008   12.1382  8.69e+01
   5.4287    5.5581   11.9848  8.69e+01
   5.1602    5.5861   12.0937  8.69e+01
   5.2286    5.4659   12.1786  8.69e+01
   3.7892    0.0094   11.9774  8.48e+01
   4.5530    1.2189   12.0659  8.48e+01
   4.1820    1.0016   12.0724  8.48e+01
   4.0117    0.9608   12.0170  8.48e+01
   4.0027    2.3962   10.7123  8.69e+01
   4.1323    2.0399   10.6295  8.69e+01
   3.9994    2.1437   10.6934  8.69e+01
   3.9186    2.4248   10.8042  8.69e+01
   3.5229    2.1706    5.7441  8.69e+01
   3.5964    2.2113    5.7725  8.69e+01
   3.6167    2.0674    5.7375  8.69e+01
   3.2260    2.2208    5.7910  8.69e+01
   4.1504    2.5173   10.9483  8.69e+01
   3.8168    2.9106   11.1975  8.69e+01
   3.8397    3.0508   11.0407  8.69e+01
   6.1205    1.9081   14.5476  8.27e+01
   6.5148    1.4757   13.9294  8.27e+01
   6.9705    0.1413   14.5375  8.27e+01
   6.1163    0.4668   14.2699  8.27e+01
   3.1484    3.0053    7.9238  8.69e+01
   3.5499    3.0704    7.9776  8.69e+01
   3.2615    2.5257    7.9118  8.69e+01
   3.3189    2.6489    7.9405  8.69e+01
   5.2758    2.4389    9.5807  8.69e+01
   5.1920    2.0950    9.5703  8.69e+01
   5.3543    2.0014    9.6279  8.69e+01
   5.5103    2.1809    9.4488  8.69e+01
   4.5341    5.5631    8.9652  8.69e+01
   4.5621    5.1425    8.9084  8.69e+01
   4.8982    5.0322    9.0508  8.69e+01
   3.7999   -0.7255    9.8366  8.48e+01
   4.7971   -0.2480    9.3882  8.48e+01
   4.0557   -0.1106    9.6045  8.48e+01
   3.5012    2.5348    7.4791  8.69e+01
   3.2312    2.5167    7.3570  8.69e+01
   3.5680    2.6752    7.3482  8.69e+01
   3.8995    0.6979    9.3072  8.69e+01
   4.2692    0.8339    9.0831  8.69e+01
   4.2174    0.7398    9.2919  8.69e+01
   4.8873   -0.2003    6.4651  8.69e+01
   4.4299   -0.5527    6.2823  8.69e+01
   4.9077   -0.4235    6.4589  8.69e+01
   4.4278   -0.5267    6.5352  8.69e+01
   5.3502    2.4214   10.0596  8.69e+01
   5.5371    2.4423   10.1616  8.69e+01
   5.0762    2.4260   10.0224  8.69e+01
   5.4981    1.8877   10.0245  8.69e+01
   3.7879    4.7127   11.7357  8.69e+01
   3.7930    4.5741   11.8268  8.69e+01
   3.8520    4.9947   11.8473  8.69e+01
   5.1651    1.4891    8.9606  8.69e+01
   5.4111    1.4578    8.9832  8.69e+01
   5.3192    1.4639    8.9867  8.69e+01
   3.4274    2.0469    8.2686  8.69e+01
   3.4501    2.4188    8.2351  8.69e+01
   3.6316    2.3147    8.3690  8.69e+01
   4.6171    0.3993    9.2760  8.69e+01
   4.9657    0.3327    9.3447  8.69e+01
   4.4523    0.4128    9.3137  8.69e+01
   5.2815    1.3096    9.4534  8.68e+01
   5.2211    1.7442    9.6624  8.68e+01
   5.3821    1.6352    9.4768  8.68e+01
   4.5930    6.4835    9.7256  8.68e+01
   4.9318    6.7455    9.9754  8.68e+01
   4.8954    6.3158    9.8909  8.68e+01
   5.4604    2.2188    9.3452  8.68e+01
   5.2498    2.2825    9.2398  8.68e+01
   5.3084    1.9028    9.2393  8.68e+01
   4.4882    1.6684    2.4800  8.68e+01
   4.8777    1.2594    2.2948  8.68e+01
   4.8029    1.5330    2.2657  8.68e+01
   3.3950    3.1094    8.5489  8.68e+01
   3.5579    2.9822    8.6854  8.68e+01
   3.6233    2.5126    8.5613  8.68e+01
   4.5868    6.8808   12.6323  8.68e+01
   4.4851    7.1213   12.7247  8.68e+01
   4.8365    7.4528   12.7953  8.68e+01
   5.5681    0.6836    8.5284  8.68e+01
   5.1471    0.6447    8.4816  8.68e+01
   5.2559    0.8296    8.6168  8.68e+01
   5.4074    1.2409    0.5453  8.68e+01
   5.5590    1.0244    0.3528  8.68e+01
   5.2568    0.8456    0.4933  8.68e+01
   5.6366   -1.3258    6.7022  8.47e+01
   6.0619   -1.8394    6.6547  8.47e+01
   5.4127   -2.2548    6.6119  8.47e+01
   5.7403   -1.7312    6.8112  8.47e+01
   5.0969    4.9770   10.4268  8.68e+01
   5.5796    4.4901   10.3674  8.68e+01
   5.3245    4.4752   10.5647  8.68e+01
   4.0388    5.3686    8.7487  8.68e+01
   4.0314    5.0233    8.4464  8.68e+01
   4.3444    5.1464    8.5521  8.68e+01
   3.3677    2.9295    6.8453  8.68e+01
   3.4169    2.5612    6.6402  8.68e+01
   3.3606    2.7888    6.8087  8.68e+01
   5.3304    4.0706   11.9398  8.68e+01
   5.1204    4.1688   11.9413  8.68e+01
   5.2333    4.0257   11.9115  8.68e+01
   4.1962    4.5572    7.9269  8.68e+01
   4.0357    4.9105    7.9532  8.68e+01
   4.2709    4.3991    7.9946  8.68e+01
   3.9469    4.9135    8.0456  8.68e+01
   3.9267    2.6429    4.4180  8.68e+01
   4.0286    2.5149    4.5460  8.68e+01
   3.8750    2.8691    4.6585  8.68e+01
   5.4023    1.5845    9.8381  8.68e+01
   5.0937    1.2958    9.9323  8.68e+01
   5.1177    1.7781    9.8573  8.68e+01
   3.4446    1.9137    5.2428  8.68e+01
   3.6886    1.9423    5.2236  8.68e+01
   3.2989    2.3821    5.2080  8.68e+01
   4.1924    0.5697    7.1605  8.68e+01
   4.1357    0.1584    7.0249  8.68e+01
   4.2168    0.1923    6.9082  8.68e+01
   5.5248    0.9445    7.9387  8.68e+01
   5.6206    1.1342    7.8539  8.68e+01
   5.2020    0.8860    7.9439  8.68e+01
   4.7542    1.2534    2.1396  8.68e+01
   4.8599    1.3484    1.8832  8.68e+01
   4.8523    1.5428    2.1575  8.68e+01
   5.3964    2.8247   11.2444  8.68e+01
   5.2938    2.9978   11.1092  8.68e+01
   5.3249    3.0637   11.1758  8.68e+01
   5.0789    3.0431   11.0827  8.68e+01
   3.9150    3.6870    6.0773  8.68e+01
   3.7555    3.5178    6.0139  8.68e+01
   3.7825    3.4844    5.9675  8.68e+01
   3.7118    1.9704    8.5454  8.68e+01
   3.7169    1.9454    8.4687  8.68e+01
   3.3824    2.2166    8.6788  8.68e+01
   3.7839    6.7513    9.7945  8.68e+01
   3.8717    6.7885    9.8471  8.68e+01
   4.3159    6.4299    9.8317  8.68e+01
   5.1165    1.4316    8.2712  8.68e+01
   5.4444    1.6763    8.2756  8.68e+01
   5.2019    1.7673    8.3098  8.68e+01
   5.1802    4.9250   12.4831  8.68e+01
   5.5688    4.9116   12.3978  8.68e+01
   5.1515    4.7862   12.2915  8.68e+01
   4.9806   -0.1671    7.1648  8.68e+01
   4.5897   -0.0200    6.9024  8.68e+01
   4.8084   -0.5084    7.0718  8.68e+01
   5.1616    0.6888    9.2866  8.68e+01
   5.1717    0.7336    9.1013  8.68e+01
   5.1437    0.8152    9.3070  8.68e+01
   4.2860    7.2778   11.1703  8.68e+01
   4.3161    7.4460   11.1571  8.68e+01
   3.7726    7.1706   11.0926  8.68e+01
   4.3939    0.9476   10.5176  8.68e+01
   4.4454    1.0318   10.5618  8.68e+01
   4.5626    1.0125   10.4010  8.68e+01
   5.5125    5.7593   11.6387  8.68e+01
   5.4371    5.8348   11.8498  8.68e+01
   5.2586    6.1066   11.8473  8.68e+01
   4.8459    6.4696   12.9658  8.68e+01
   4.7576    6.7528   13.0255  8.68e+01
   4.4161    6.4174   12.8590  8.68e+01
   4.4284    2.9273    6.0537  8.68e+01
   4.6010    2.7916    5.9402  8.68e+01
   4.4526    2.6302    6.0204  8.68e+01
   5.4677    3.2552   11.7846  8.68e+01
   5.3924    3.1697   11.7726  8.68e+01
   5.1956    3.2612   11.6233  8.68e+01
   4.7978    3.7268    6.9751  8.67e+01
   4.7964    3.1483    6.9119  8.67e+01
   4.6334    3.4902    7.1007  8.67e+01
   6.1756   -1.9198    7.1371  8.47e+01
   6.0298   -2.3783    7.2128  8.47e+01
   6.2429   -1.6597    7.0047  8.47e+01
   5.6225    1.2622    0.0316  8.67e+01
   5.1090    1.6648    0.0191  8.67e+01
   5.1508    1.8377    0.1159  8.67e+01
   5.2999    3.0366    9.1019  8.67e+01
   5.2157    2.8684    9.1145  8.67e+01
   5.2730    2.8745    9.2070  8.67e+01
   5.2984    0.4817    0.5869  8.67e+01
   5.2810    0.5118    0.4198  8.67e+01
   5.0698    0.3818    0.6215  8.67e+01
