NLLOC "./loc/vinti.19950422.154718_003.grid0" "LOCATED" "Location completed."
SIGNATURE "Anthony Lomax - Geosciences Azur   NLLoc:v4.10.6 07Jul2008 16h19m57"
COMMENT "1995 Vintimiglia Sequence (NonLinLoc Sample Location)"
GRID  101 101 21  -50.000000 -50.000000 0.000000  1.000000 1.000000 1.000000 PROB_DENSITY
SEARCH OCTREE nInitial 400 nEvaluated 10008 smallestNodeSide 0.312500/0.312500/0.156250
HYPOCENTER  x 4.843750 y 4.843750 z 4.765625  OT 16.501081  ix -1 iy -1 iz -1
GEOGRAPHIC  OT 1995 04 22  15 47 16.501081  Lat 43.793584 Long 7.560187 Depth 4.765625
QUALITY  Pmax 6.409e+28 MFmin 15.541182 MFmax 15.611472 RMS 0.396193 Nphs 13 Gap 225 Dist 10.215761 Mamp -9.90 0 Mdur -9.90 0
VPVSRATIO  VpVsRatio 1.767e+00  Npair 4  Diff 2.350e+00
STATISTICS  ExpectX 4.9062e+00 Y 4.5557e+00 Z 4.7757e+00  CovXX 4.11e-01 XY 6.33e-02 XZ 2.74e-01 YY 3.35e+00 YZ 1.13e+00 ZZ 5.33e+00 EllAz1  270.0 Dip1  3.2 Len1  1.18e+00 Az2  178.6 Dip2  24.3 Len2  3.17e+00 Len3  4.55e+00
STAT_GEOG  ExpectLat 43.790991 Long 7.560960 Depth 4.775705
TRANSFORM  LAMBERT RefEllipsoid Clarke-1880  LatOrig 43.750000  LongOrig 7.500000  FirstStdParal 43.199300  SecondStdParal 44.996100  RotCW 0.000000
FOCALMECH  Hyp  43.793584 7.560187 4.765625 Mech  0.0 0.0 0.0 mf  0.00 nObs 0
PHASE ID Ins Cmp On Pha  FM Date     HrMn   Sec     Err  ErrMag    Coda      Amp       Per  >   TTpred    Res       Weight    StaLoc(X  Y         Z)        SDist    SAzim  RAz  RDip RQual    Tcorr 
RONE   ?    ?    ? P      ? 19950422 1547   19.2900 GAU  1.00e-01 -1.00e+00 -1.00e+00 -1.00e+00 >    2.7659    0.0231    1.0000    7.8887   14.5952   -0.3000   10.2158  17.34  17.3 112.6  9     0.0000
RONE   ?    ?    ? S      ? 19950422 1547   21.0200 GAU  1.00e-01 -1.00e+00 -1.00e+00 -1.00e+00 >    4.6466   -0.1277    1.0000    7.8887   14.5952   -0.3000   10.2158  17.34  17.3 112.6  9     0.0000
SBF    ?    ?    P G      ? 19950422 1547   19.8900 GAU  1.00e-01 -1.00e+00 -1.00e+00 -1.00e+00 >    3.1607    0.2282    1.0000   -5.2384   12.6113   -0.8470   12.7273 307.61 307.6 108.2  9     0.0000
NEGI   ?    ?    ? P      ? 19950422 1547   19.8000 GAU  1.00e-01 -1.00e+00 -1.00e+00 -1.00e+00 >    3.2079    0.0510    1.0000   16.3893   10.8705   -0.6400   13.0239  62.44  62.4 107.8  9     0.0400
NEGI   ?    ?    ? S      ? 19950422 1547   21.9400 GAU  1.00e-01 -1.00e+00 -1.00e+00 -1.00e+00 >    5.3892    0.0097    1.0000   16.3893   10.8705   -0.6400   13.0239  62.44  62.4 107.8  9     0.0400
CEPP   ?    ?    ? P      ? 19950422 1547   20.9600 GAU  1.00e-01 -1.00e+00 -1.00e+00 -1.00e+00 >    4.3793    0.0796    1.0000   19.7971   18.5085   -1.0800   20.2565  47.58  47.6 101.7  9     0.0000
CEPP   ?    ?    ? S      ? 19950422 1547   23.9700 GAU  1.00e-01 -1.00e+00 -1.00e+00 -1.00e+00 >    7.3573    0.1117    1.0000   19.7971   18.5085   -1.0800   20.2565  47.58  47.6 101.7  9     0.0000
AURF   ?    ?    P G      ? 19950422 1547   20.6300 GAU  1.00e-01 -1.00e+00 -1.00e+00 -1.00e+00 >    4.5690   -0.4400    1.0000  -13.8607   15.2716   -1.0400   21.4149 299.14 299.1 101.1  9     0.0000
AUTN   ?    ?    P G      ? 19950422 1547   21.7300 GAU  1.00e-01 -1.00e+00 -1.00e+00 -1.00e+00 >    5.1308    0.0981    1.0000   -5.8149   27.2765   -2.0690   24.8362 334.59 334.6  99.6  9     0.0000
IMI    ?    ?    ? P      ? 19950422 1547   22.3300 GAU  1.00e-01 -1.00e+00 -1.00e+00 -1.00e+00 >    5.9419   -0.1130    1.0000   31.5793   17.9062   -0.8400   29.7560  63.96  64.0  98.1  9     0.0000
IMI    ?    ?    ? S      ? 19950422 1547   26.4100 GAU  1.00e-01 -1.00e+00 -1.00e+00 -1.00e+00 >    9.9824   -0.0735    1.0000   31.5793   17.9062   -0.8400   29.7560  63.96  64.0  98.1  9     0.0000
MVIF   ?    ?    P G      ? 19950422 1547   21.9500 GAU  1.00e-01 -1.00e+00 -1.00e+00 -1.00e+00 >    6.7624   -1.3135    1.0000  -27.9180   16.3343   -1.4800   34.7183 289.33 289.3  97.1  9     0.0000
TOUF   ?    ?    P G      ? 19950422 1547   23.2500 GAU  1.00e-01 -1.00e+00 -1.00e+00 -1.00e+00 >    6.8078   -0.0589    1.0000  -20.1791   29.3046   -1.8500   34.9925 314.35 314.3  97.0  9     0.0000
0666   ?    ?    e p      u 19950422 1547   18.7700 GAU  1.00e-01 -1.00e+00 -1.00e+00 -1.00e+00 >    0.0000    0.0000    0.0000 -100000000000000000000.0000 -100000000000000000000.0000 -100000000000000000000.0000    0.0000   0.00   0.0   0.0  0     0.0000
0665   ?    ?    e p      u 19950422 1547   18.8200 GAU  1.00e-01 -1.00e+00 -1.00e+00 -1.00e+00 >    0.0000    0.0000    0.0000 -100000000000000000000.0000 -100000000000000000000.0000 -100000000000000000000.0000    0.0000   0.00   0.0   0.0  0     0.0400
.obs   ?    ?    i p      u 19950422 1547   20.2100 GAU  1.00e-01 -1.00e+00 -1.00e+00 -1.00e+00 >    0.0000    0.0000    0.0000 -100000000000000000000.0000 -100000000000000000000.0000 -100000000000000000000.0000    0.0000   0.00   0.0   0.0  0     0.0000
ENR    ?    ?    ? P      ? 19950422 1547   25.4700 GAU  1.00e-01 -1.00e+00 -1.00e+00 -1.00e+00 >    0.0000    0.0000    0.0000 -100000000000000000000.0000 -100000000000000000000.0000 -100000000000000000000.0000    0.0000   0.00   0.0   0.0  0     0.0400
STV    ?    ?    ? P      ? 19950422 1547   26.1300 GAU  1.00e-01 -1.00e+00 -1.00e+00 -1.00e+00 >    0.0000    0.0000    0.0000 -100000000000000000000.0000 -100000000000000000000.0000 -100000000000000000000.0000    0.0000   0.00   0.0   0.0  0     0.0000
FIN    ?    ?    ? P      ? 19950422 1547   29.0300 GAU  1.00e+00 -1.00e+00 -1.00e+00 -1.00e+00 >    0.0000    0.0000    0.0000 -100000000000000000000.0000 -100000000000000000000.0000 -100000000000000000000.0000    0.0000   0.00   0.0   0.0  0     0.0000
FRF    ?    ?    ? G      ? 19950422 1547   30.4000 GAU  1.00e-01 -1.00e+00 -1.00e+00 -1.00e+00 >    0.0000    0.0000    0.0000 -100000000000000000000.0000 -100000000000000000000.0000 -100000000000000000000.0000    0.0000   0.00   0.0   0.0  0     0.0000
PZZ    ?    ?    ? P      ? 19950422 1547   31.3900 GAU  1.00e+00 -1.00e+00 -1.00e+00 -1.00e+00 >    0.0000    0.0000    0.0000 -100000000000000000000.0000 -100000000000000000000.0000 -100000000000000000000.0000    0.0000   0.00   0.0   0.0  0     0.0400
ENR    ?    ?    ? S      ? 19950422 1547   31.4900 GAU  1.00e-01 -1.00e+00 -1.00e+00 -1.00e+00 >    0.0000    0.0000    0.0000 -100000000000000000000.0000 -100000000000000000000.0000 -100000000000000000000.0000    0.0000   0.00   0.0   0.0  0     0.0000
STV    ?    ?    ? S      ? 19950422 1547   32.4500 GAU  1.00e-01 -1.00e+00 -1.00e+00 -1.00e+00 >    0.0000    0.0000    0.0000 -100000000000000000000.0000 -100000000000000000000.0000 -100000000000000000000.0000    0.0000   0.00   0.0   0.0  0     0.0400
LMR    ?    ?    ? G      ? 19950422 1547   33.8000 GAU  1.00e-01 -1.00e+00 -1.00e+00 -1.00e+00 >    0.0000    0.0000    0.0000 -100000000000000000000.0000 -100000000000000000000.0000 -100000000000000000000.0000    0.0000   0.00   0.0   0.0  0     0.0000
LRG    ?    ?    ? G      ? 19950422 1547   34.4000 GAU  1.00e-01 -1.00e+00 -1.00e+00 -1.00e+00 >    0.0000    0.0000    0.0000 -100000000000000000000.0000 -100000000000000000000.0000 -100000000000000000000.0000    0.0000   0.00   0.0   0.0  0     0.0000
FIN    ?    ?    ? S      ? 19950422 1547   37.3200 GAU  1.00e+00 -1.00e+00 -1.00e+00 -1.00e+00 >    0.0000    0.0000    0.0000 -100000000000000000000.0000 -100000000000000000000.0000 -100000000000000000000.0000    0.0000   0.00   0.0   0.0  0     0.0000
PZZ    ?    ?    ? S      ? 19950422 1547   41.6400 GAU  1.00e+00 -1.00e+00 -1.00e+00 -1.00e+00 >    0.0000    0.0000    0.0000 -100000000000000000000.0000 -100000000000000000000.0000 -100000000000000000000.0000    0.0000   0.00   0.0   0.0  0     0.0000
END_PHASE
SCATTER Nsamples 5004
   5.3858    7.3758    4.4120  7.02e+01
   5.0039    7.4286    4.5272  7.02e+01
   5.5961    7.0066    4.5082  7.02e+01
   5.5808    3.6585    8.1252  7.01e+01
   5.3150    3.5717    8.2826  7.01e+01
   5.3969    3.1327    8.3680  7.01e+01
   5.9248    6.1044    5.9875  7.01e+01
   5.8246    6.0800    6.1230  7.01e+01
   5.0083    4.0758   10.7573  6.80e+01
   6.0639    4.8553   10.6617  6.80e+01
   5.4295    4.0381   10.8906  6.80e+01
   3.7662    2.1659    3.2532  7.01e+01
   3.9625    2.2723    3.2001  7.01e+01
   5.9848    3.7915    1.0808  7.01e+01
   6.1504    4.2978    1.0036  7.01e+01
   5.7885    4.1085    1.1915  7.01e+01
   5.8769    5.0536    6.3965  7.01e+01
   6.1034    5.3005    6.4156  7.01e+01
   5.7242    5.3117    6.4297  7.01e+01
   4.3670    3.7611    0.9811  7.01e+01
   3.9126    3.9219    1.0617  7.01e+01
   4.6798    6.2347    8.4805  7.01e+01
   4.7192    5.6490    8.4909  7.01e+01
   4.8114    5.8579    8.6643  7.01e+01
   4.0351    7.7672    4.1818  6.80e+01
   4.6954    8.1799    4.0433  6.80e+01
   4.9118    1.8628    4.5119  7.01e+01
   4.6249    1.3203    4.5683  7.01e+01
   4.7899    1.6627    4.6307  7.01e+01
   5.8925    5.0497    5.7197  7.01e+01
   6.0148    5.3494    5.7373  7.01e+01
   5.6707    4.7394    1.2904  7.01e+01
   5.6387    4.6830    1.3956  7.01e+01
   5.7271    4.9959    1.3598  7.01e+01
   5.1243    2.4646    6.2613  7.01e+01
   5.6201    2.4476    6.2786  7.01e+01
   5.1294    2.1927    6.2854  7.01e+01
   4.4443    3.7576    8.1510  7.01e+01
   4.7199    3.8664    8.2656  7.01e+01
   4.5671    4.2091    8.2722  7.01e+01
   5.8947    6.2701    7.1655  7.01e+01
   5.9102    6.2545    7.0861  7.01e+01
   3.9327    5.7297    2.1499  7.01e+01
   4.2504    6.1010    1.9502  7.01e+01
   4.0891    5.7156    1.9487  7.01e+01
   5.9067    4.4464    0.9225  7.01e+01
   6.2022    4.4548    0.7754  7.01e+01
   6.2258    4.6392    0.8820  7.01e+01
   6.0468    6.8682    6.3751  7.01e+01
   5.7374    6.4570    6.4070  7.01e+01
   6.2377    6.6883    6.2637  7.01e+01
   5.2731    2.0983    1.4560  7.01e+01
   5.1127    2.1473    1.4165  7.01e+01
   5.0322    2.1912    1.4842  7.01e+01
   7.4237   -0.6288    4.4425  6.59e+01
   6.8621   -0.8522    4.6693  6.59e+01
   5.3663   -0.6121    4.5637  6.59e+01
   5.1455    4.5150    0.4496  7.01e+01
   5.4076    4.6536    0.5357  7.01e+01
   7.3798   -2.4070    6.0594  6.59e+01
   5.4641   -1.4230    5.1131  6.59e+01
   5.1327   -2.0487    5.3023  6.59e+01
   5.6337    5.7520    7.4936  7.01e+01
   6.1266    5.9680    7.4545  7.01e+01
   6.0297    5.9211    7.3920  7.01e+01
   5.8729    5.0486    7.0915  7.01e+01
   5.7386    5.5816    7.0507  7.01e+01
   3.7528    5.9437    7.1620  7.01e+01
   3.9203    6.1798    6.9009  7.01e+01
   3.8944    6.1089    7.0060  7.01e+01
   5.4527   -0.8853    2.8587  6.59e+01
   5.5315   -1.4585    3.1547  6.59e+01
   5.8919   -1.2110    3.0337  6.59e+01
   4.4754    6.8211    1.9590  7.00e+01
   4.5868    6.6452    2.1080  7.00e+01
   4.6315    6.6284    1.9242  7.00e+01
   4.8500    2.5288    0.7997  7.00e+01
   4.8553    2.5209    0.7789  7.00e+01
   4.6040    2.9992    0.6915  7.00e+01
   3.7756    6.6717    6.1965  7.00e+01
   4.3226    6.7675    6.2328  7.00e+01
   4.6902    4.9690    8.6999  7.00e+01
   4.7179    4.5628    8.4653  7.00e+01
   4.6960    4.6378    8.7492  7.00e+01
   3.7965    6.5586    5.5346  7.00e+01
   3.8453    6.2639    5.5694  7.00e+01
   4.0120    6.6106    5.3242  7.00e+01
   5.0140    7.6800    5.5812  7.00e+01
   5.3526    7.9209    5.4768  7.00e+01
   5.3497    7.8260    5.5770  7.00e+01
   4.6233    3.6650    7.9156  7.00e+01
   4.4066    3.2812    7.9979  7.00e+01
   4.7589    3.4922    7.9042  7.00e+01
   6.1679    5.7776    5.4076  7.00e+01
   5.8910    5.7148    5.6243  7.00e+01
   6.1478    5.7028    5.4650  7.00e+01
   4.9264    7.3038    4.0908  7.00e+01
   4.9473    7.3259    4.3129  7.00e+01
   3.7801    4.4971    6.9782  7.00e+01
   4.0505    4.6499    6.9414  7.00e+01
   3.8980    4.5840    7.0859  7.00e+01
   5.7248    5.2697    5.0715  7.00e+01
   6.2300    5.1275    5.0967  7.00e+01
   6.0217    5.0900    5.0514  7.00e+01
   4.9262    7.9244    7.5574  7.00e+01
   4.9422    7.7261    7.8024  7.00e+01
   4.4726    7.9168    7.5562  7.00e+01
   5.5141    6.6445    2.9917  7.00e+01
   5.3369    6.5512    3.1117  7.00e+01
   5.4746    6.6000    2.8866  7.00e+01
   5.6296    4.8827    6.1929  7.00e+01
   5.9359    4.6461    6.2129  7.00e+01
   4.0538   -0.6241    3.4893  6.79e+01
   4.6773   -1.1149    3.6005  6.79e+01
   5.2941    8.2636    6.9968  7.00e+01
   5.3457    8.4759    6.9396  7.00e+01
   4.9637    7.7857    5.9296  7.00e+01
   4.8323    7.5613    5.7984  7.00e+01
   4.4241    7.7916    5.6452  7.00e+01
   3.8669    2.1451    4.0121  7.00e+01
   4.1809    2.1776    4.0095  7.00e+01
   5.4895    2.6784    8.0046  7.00e+01
   5.1181    2.8894    7.8255  7.00e+01
   4.0672    3.9291    6.7340  7.00e+01
   4.0886    3.8709    6.8377  7.00e+01
   3.9674    3.8157    6.6113  7.00e+01
   5.7355    5.0273    0.9568  7.00e+01
   5.8117    5.2705    1.0809  7.00e+01
   6.1076    4.6632    5.6215  7.00e+01
   5.8108    4.8046    5.5556  7.00e+01
   6.0116    4.9020    6.7354  7.00e+01
   6.0079    4.8066    6.8584  7.00e+01
   4.7103    1.8138    5.1555  7.00e+01
   4.7997    1.6233    5.1609  7.00e+01
   5.6035    5.0546    9.3246  6.99e+01
   5.0316    5.0617    9.1696  6.99e+01
   5.7989    4.0252    1.3243  6.99e+01
   5.6632    4.0337    1.5218  6.99e+01
   5.6333    4.3536    1.2615  6.99e+01
   5.0518    1.5889    2.3557  6.99e+01
   5.2685    1.7987    2.3539  6.99e+01
   5.2198    1.6517    3.0292  6.99e+01
   5.6030    1.4717    2.9313  6.99e+01
   5.4930    1.7769    3.0950  6.99e+01
   4.2267    6.6740    4.8244  6.99e+01
   3.9775    6.4581    4.8825  6.99e+01
   3.7552    6.6311    4.8846  6.99e+01
   5.1827    2.1592    7.0975  6.99e+01
   5.5473    2.0188    7.0031  6.99e+01
   5.0837    2.2352    7.0761  6.99e+01
   5.6130    1.4728    3.6832  6.99e+01
   5.1891    1.4223    3.5434  6.99e+01
   5.3947    1.2845    3.5801  6.99e+01
   4.3112    6.5948    6.6133  6.99e+01
   4.0734    6.3180    6.8206  6.99e+01
   4.2053    6.3317    6.6287  6.99e+01
   6.1369    6.3414    7.6320  6.99e+01
   6.1912    6.7046    7.5734  6.99e+01
   3.8872    0.3993    7.4543  6.78e+01
   4.5500    0.4551    7.3828  6.78e+01
   4.1827    1.1301    7.4389  6.78e+01
   6.0943    6.7120    5.7542  6.99e+01
   5.9118    6.5057    5.8982  6.99e+01
   4.9085    5.9067    1.1762  6.99e+01
   4.7980    6.0374    1.0157  6.99e+01
   5.5133    1.8713    4.2707  6.99e+01
   5.1175    1.7401    4.1254  6.99e+01
   4.6476    2.0505    6.7472  6.99e+01
   4.5605    1.9636    6.8050  6.99e+01
   4.5236    2.9236    9.8856  6.78e+01
   3.7579    3.1441    9.6213  6.78e+01
   3.8240    2.7210    9.6155  6.78e+01
   4.0187    3.0574    5.4009  6.99e+01
   3.7860    3.1005    5.4468  6.99e+01
   5.6430    5.3996    7.7358  6.99e+01
   6.0245    5.2777    7.5126  6.99e+01
   5.8496    5.4034    7.6734  6.99e+01
   3.9665    5.1555    7.4897  6.99e+01
   3.7628    5.5685    7.3509  6.99e+01
   6.1615    4.5954    4.8727  6.99e+01
   6.0021    4.4654    4.7099  6.99e+01
   6.1776    4.7337    4.8871  6.99e+01
   5.7774    7.2901    6.8552  6.99e+01
   5.7545    7.2449    6.5972  6.99e+01
   5.4621    8.5548    7.6833  6.99e+01
   5.3211    8.6608    7.5351  6.99e+01
   5.7908   -0.7856    2.0287  6.78e+01
   5.5090   -0.1768    2.4908  6.78e+01
   5.0508   -0.4198    2.1952  6.78e+01
   5.2953    1.5857    4.9910  6.99e+01
   5.3503    1.3344    4.8340  6.99e+01
   4.3402   -0.2655    3.8975  6.78e+01
   4.4809   -0.3983    4.2814  6.78e+01
   6.1277    7.3594    7.3367  6.99e+01
   6.0359    7.3354    7.4568  6.99e+01
   6.2041    4.7601    7.2076  6.99e+01
   5.6824    4.6122    7.3498  6.99e+01
   6.0428    4.8573    7.4713  6.99e+01
   4.0236    8.7704    6.8884  6.78e+01
   4.1148    8.9647    7.4037  6.78e+01
   3.9697    1.8692    0.3699  6.78e+01
   3.9044    2.3829    0.5730  6.78e+01
   4.6718    0.8913    2.2503  6.99e+01
   4.8758    0.9001    2.3504  6.99e+01
   6.1552    5.0444    4.4620  6.99e+01
   6.2216    5.4712    4.4016  6.99e+01
   4.5885    5.0299    8.9398  6.98e+01
   4.4563    5.3849    8.8298  6.98e+01
   4.7601    2.7145    7.7646  6.98e+01
   4.8133    3.0613    7.7230  6.98e+01
   6.1748    5.7654    7.8659  6.98e+01
   6.1793    6.1871    7.8578  6.98e+01
   4.3500    3.6025    6.4001  6.98e+01
   4.2391    3.5057    6.5521  6.98e+01
   5.6059    8.4302    6.2561  6.98e+01
   5.1912    8.3293    6.4188  6.98e+01
   5.1514    2.9995    8.3180  6.98e+01
   5.2465    2.5102    8.2640  6.98e+01
   5.8068    5.1413    1.4585  6.98e+01
   5.7061    5.4374    1.4499  6.98e+01
   4.9083    4.8799    4.8002  7.19e+01
   4.7575    4.8264    4.8429  7.19e+01
   4.8894    4.9765    4.5444  7.19e+01
   4.9120    4.9884    4.6509  7.19e+01
   4.9823    4.7666    4.8949  7.19e+01
   4.7126    4.9607    4.9266  7.19e+01
   4.4847    1.1626    3.1140  6.98e+01
   4.9203    1.0528    3.0039  6.98e+01
   4.9370    4.9653    4.4229  7.19e+01
   4.8768    4.8789    4.4204  7.19e+01
   4.9590    4.8742    5.0678  7.19e+01
   4.9932    4.9011    5.0459  7.19e+01
   5.2153    1.4838    5.3943  6.98e+01
   5.4468    1.5858    5.5210  6.98e+01
   5.7949    5.9590    4.9124  6.98e+01
   5.6285    6.1821    4.9411  6.98e+01
   4.7261    4.7423    4.3241  7.19e+01
   4.8123    4.9436    4.2411  7.19e+01
   4.9552    5.2999    5.0196  7.19e+01
   4.9738    5.1067    5.1098  7.19e+01
   5.2892    1.3066    1.6074  6.98e+01
   5.5101    1.3118    1.8553  6.98e+01
   4.8602    5.0272    4.8448  7.19e+01
   4.7982    5.1586    4.9439  7.19e+01
   5.9995    4.1174    5.9172  6.98e+01
   5.6832    4.2154    5.7627  6.98e+01
   4.5406    3.3984    8.4175  6.98e+01
   4.7744    3.5654    8.1992  6.98e+01
   4.8115    5.0526    5.2659  7.19e+01
   4.6929    5.2150    5.2425  7.19e+01
   4.9630    4.6328    4.3175  7.19e+01
   4.8423    4.4456    4.3062  7.19e+01
   4.8563    4.6011    4.4968  7.19e+01
   4.9676    4.6495    4.4870  7.19e+01
   4.8165    5.2549    4.7700  7.19e+01
   4.7188    5.1727    4.8387  7.19e+01
   5.3965    4.2532    9.2172  6.98e+01
   5.2656    4.1246    9.1041  6.98e+01
   4.9284    4.9212    5.1684  7.19e+01
   4.8048    4.9357    5.1718  7.19e+01
   4.9408    4.4660    4.1359  7.19e+01
   4.8172    4.6458    4.2177  7.19e+01
   4.6928    4.5443    4.5785  7.19e+01
   4.9393    4.4624    4.5587  7.19e+01
   5.0646    6.5539    2.2547  6.98e+01
   5.4227    6.7734    2.3675  6.98e+01
   5.6964    4.2540    6.5247  6.98e+01
   5.7667    3.7861    6.3121  6.98e+01
   4.2848    6.2924    4.3055  6.98e+01
   3.8821    6.5457    4.3059  6.98e+01
   4.8918    4.7140    4.1308  7.19e+01
   4.9750    4.7338    4.0737  7.19e+01
   5.9476    4.8850    4.3614  6.98e+01
   5.7302    4.4929    4.3065  6.98e+01
   4.8896    5.0437    5.3341  7.19e+01
   4.9754    5.0755    5.4357  7.19e+01
   4.9709    4.5465    3.9827  7.19e+01
   4.8361    4.6540    3.9442  7.19e+01
   4.9558    4.5902    4.8041  7.19e+01
   4.8835    4.4857    4.7083  7.19e+01
   4.7786    5.1003    4.6352  7.19e+01
   4.7438    5.2235    4.5921  7.19e+01
   4.4112    1.8841    0.9446  6.98e+01
   4.5280    2.1371    1.0720  6.98e+01
   3.7870    2.1388    4.5275  6.98e+01
   4.1238    2.4287    4.4848  6.98e+01
   4.9513    4.5764    3.9033  7.19e+01
   4.7941    4.4188    3.8196  7.19e+01
   4.7890    4.3996    4.9614  7.19e+01
   4.8729    4.4136    4.8770  7.19e+01
   4.9530    4.8598    5.4650  7.19e+01
   4.8857    4.8449    5.4374  7.19e+01
   4.8845    4.8433    3.9860  7.19e+01
   4.7304    4.8855    3.9994  7.19e+01
   4.7992    1.3274    5.9067  6.98e+01
   4.3953    1.8121    5.7216  6.98e+01
   5.4006    3.3014    8.8552  6.98e+01
   5.4455    3.3451    9.0208  6.98e+01
   4.7124    5.2372    5.6229  7.19e+01
   4.8224    5.0034    5.5390  7.19e+01
   4.9316    5.0380    4.4356  7.18e+01
   4.9211    4.4809    3.7229  7.18e+01
   4.9300    4.6349    3.6112  7.18e+01
   3.9400    8.1117    3.5347  6.77e+01
   5.8583    4.1776    5.2158  6.98e+01
   5.7111    4.1515    5.2732  6.98e+01
   4.8340    4.4840    5.1395  7.18e+01
   4.9150    4.6226    5.0079  7.18e+01
