NLLOC "./loc/vinti.19950422.151153.grid0" "LOCATED" "Location completed."
SIGNATURE "Anthony Lomax - Geosciences Azur   NLLoc:v4.40.1 20Aug2008 13h05m52"
COMMENT "1995 Vintimiglia Sequence (NonLinLoc Sample Location)"
GRID  101 101 21  -50.000000 -50.000000 0.000000  1.000000 1.000000 1.000000 PROB_DENSITY
SEARCH OCTREE nInitial 400 nEvaluated 10016 smallestNodeSide 0.312500/0.312500/0.156250 oct_tree_integral 5.622830e+01 scatter_volume 5.622830e+01
HYPOCENTER  x 4.375000 y 1.875000 z 7.812500  OT 50.854284  ix -1 iy -1 iz -1
GEOGRAPHIC  OT 1995 04 22  15 11 50.854284  Lat 43.766865 Long 7.554338 Depth 7.812500
QUALITY  Pmax 6.568e+35 MFmin 17.500166 MFmax 17.562626 RMS 0.151093 Nphs 15 Gap 199 Dist 13.196539 Mamp -9.90 0 Mdur -9.90 0
VPVSRATIO  VpVsRatio 1.617e+00  Npair 4  Diff 1.910e+00
STATISTICS  ExpectX 4.4902e+00 Y 2.7551e+00 Z 7.5563e+00  CovXX 4.53e-01 XY -1.96e-01 XZ 3.75e-01 YY 5.31e+00 YZ 4.47e+00 ZZ 1.28e+01 EllAz1  84.3 Dip1  -3.8 Len1  1.20e+00 Az2  352.5 Dip2  -24.6 Len2  3.40e+00 Len3  7.26e+00
STAT_GEOG  ExpectLat 43.774786 Long 7.555776 Depth 7.556254
TRANSFORM  LAMBERT RefEllipsoid Clarke-1880  LatOrig 43.750000  LongOrig 7.500000  FirstStdParal 43.199300  SecondStdParal 44.996100  RotCW 0.000000
FOCALMECH  Hyp  43.766865 7.554338 7.812500 Mech  0.0 0.0 0.0 mf  0.00 nObs 0
PHASE ID Ins Cmp On Pha  FM Date     HrMn   Sec     Err  ErrMag    Coda      Amp       Per  >   TTpred    Res       Weight    StaLoc(X  Y         Z)        SDist    SAzim  RAz  RDip RQual    Tcorr 
RONE   ?    ?    ? P      ? 19950422 1511   53.6300 GAU  1.00e-01 -1.00e+00 -1.00e+00 -1.00e+00 >    2.8874   -0.1117    1.0812    7.8887   14.5952   -0.3000   13.1965  15.44  15.4 115.9  9     0.0000
RONE   ?    ?    ? S      ? 19950422 1511   55.7000 GAU  1.00e-01 -1.00e+00 -1.00e+00 -1.00e+00 >    4.8509   -0.0051    1.1330    7.8887   14.5952   -0.3000   13.1965  15.44  15.4 115.9  9     0.0000
SBF    ?    ?    P G      ? 19950422 1511   54.3200 GAU  1.00e-01 -1.00e+00 -1.00e+00 -1.00e+00 >    3.1800    0.2858    0.7946   -5.2384   12.6113   -0.8470   14.4113 318.16 318.2 114.6  9     0.0000
NEGI   ?    ?    ? P      ? 19950422 1511   54.1300 GAU  1.00e-01 -1.00e+00 -1.00e+00 -1.00e+00 >    3.2303    0.0054    1.1325   16.3893   10.8705   -0.6400   15.0088  53.18  53.2 113.5  9     0.0400
NEGI   ?    ?    ? S      ? 19950422 1511   56.4200 GAU  1.00e-01 -1.00e+00 -1.00e+00 -1.00e+00 >    5.4270    0.0987    1.0835   16.3893   10.8705   -0.6400   15.0088  53.18  53.2 113.5  9     0.0400
REVF   ?    ?    P G      ? 19950422 1511   53.8700 GAU  1.00e-01 -1.00e+00 -1.00e+00 -1.00e+00 >    3.2931   -0.2774    0.8318  -10.6730   -1.1024   -0.7000   15.3397 258.81 258.8 113.2  9     0.0000
AURF   ?    ?    P G      ? 19950422 1511   55.5400 GAU  1.00e-01 -1.00e+00 -1.00e+00 -1.00e+00 >    4.5082    0.1775    0.9863  -13.8607   15.2716   -1.0400   22.6276 306.30 306.3 106.7  9     0.0000
AURF   ?    ?    ? p      ? 19950422 1511   55.5700 GAU  5.00e-01 -1.00e+00 -1.00e+00 -1.00e+00 >    4.5082    0.2075    0.6506  -13.8607   15.2716   -1.0400   22.6276 306.30 306.3 106.7  9     0.0000
CEPP   ?    ?    ? P      ? 19950422 1511   55.3200 GAU  1.00e-01 -1.00e+00 -1.00e+00 -1.00e+00 >    4.5246   -0.0588    1.1197   19.7971   18.5085   -1.0800   22.6829  42.84  42.8 106.7  9     0.0000
CEPP   ?    ?    ? S      ? 19950422 1511   58.3400 GAU  1.00e-01 -1.00e+00 -1.00e+00 -1.00e+00 >    7.6012   -0.1155    1.0775   19.7971   18.5085   -1.0800   22.6829  42.84  42.8 106.7  9     0.0000
AUTN   ?    ?    P G      ? 19950422 1511   56.0300 GAU  1.00e-01 -1.00e+00 -1.00e+00 -1.00e+00 >    5.4683   -0.2925    0.8025   -5.8149   27.2765   -2.0690   27.3692 338.14 338.1 104.6  9     0.0000
AUTN   ?    ?    i p      u 19950422 1511   56.1800 GAU  1.00e-01 -1.00e+00 -1.00e+00 -1.00e+00 >    5.4683   -0.1425    1.0481   -5.8149   27.2765   -2.0690   27.3692 338.14 338.1 104.6  9     0.0000
IMI    ?    ?    ? P      ? 19950422 1511   56.8700 GAU  1.00e-01 -1.00e+00 -1.00e+00 -1.00e+00 >    5.9181    0.0976    1.0845   31.5793   17.9062   -0.8400   31.5765  59.49  59.5 102.4  9     0.0000
IMI    ?    ?    ? S      ? 19950422 1512    0.8500 GAU  1.00e-01 -1.00e+00 -1.00e+00 -1.00e+00 >    9.9425    0.0532    1.1171   31.5793   17.9062   -0.8400   31.5765  59.49  59.5 102.4  9     0.0000
MVIF   ?    ?    P G      ? 19950422 1511   57.6400 GAU  1.00e-01 -1.00e+00 -1.00e+00 -1.00e+00 >    6.6615    0.1242    1.0571  -27.9180   16.3343   -1.4800   35.3823 294.12 294.1 101.4  9     0.0000
0666   ?    ?    e p      d 19950422 1511   53.0400 GAU  1.00e-01 -1.00e+00 -1.00e+00 -1.00e+00 >    0.0000    0.0000    0.0000 -100000000000000000000.0000 -100000000000000000000.0000 -100000000000000000000.0000    0.0000   0.00   0.0   0.0  0     0.0000
0665   ?    ?    e p      d 19950422 1511   53.0800 GAU  1.00e-01 -1.00e+00 -1.00e+00 -1.00e+00 >    0.0000    0.0000    0.0000 -100000000000000000000.0000 -100000000000000000000.0000 -100000000000000000000.0000    0.0000   0.00   0.0   0.0  0     0.0000
.obs   ?    ?    i p      d 19950422 1511   54.5200 GAU  1.00e-01 -1.00e+00 -1.00e+00 -1.00e+00 >    0.0000    0.0000    0.0000 -100000000000000000000.0000 -100000000000000000000.0000 -100000000000000000000.0000    0.0000   0.00   0.0   0.0  0     0.0000
ENR    ?    ?    ? P      ? 19950422 1512    0.0800 GAU  1.00e-01 -1.00e+00 -1.00e+00 -1.00e+00 >    0.0000    0.0000    0.0000 -100000000000000000000.0000 -100000000000000000000.0000 -100000000000000000000.0000    0.0000   0.00   0.0   0.0  0     0.0000
STV    ?    ?    ? P      ? 19950422 1512    0.5800 GAU  1.00e-01 -1.00e+00 -1.00e+00 -1.00e+00 >    0.0000    0.0000    0.0000 -100000000000000000000.0000 -100000000000000000000.0000 -100000000000000000000.0000    0.0000   0.00   0.0   0.0  0     0.0000
ROB    ?    ?    ? P      ? 19950422 1512    1.7800 GAU  5.00e-01 -1.00e+00 -1.00e+00 -1.00e+00 >    0.0000    0.0000    0.0000 -100000000000000000000.0000 -100000000000000000000.0000 -100000000000000000000.0000    0.0000   0.00   0.0   0.0  0     0.0000
FIN    ?    ?    ? P      ? 19950422 1512    3.3300 GAU  5.00e-01 -1.00e+00 -1.00e+00 -1.00e+00 >    0.0000    0.0000    0.0000 -100000000000000000000.0000 -100000000000000000000.0000 -100000000000000000000.0000    0.0000   0.00   0.0   0.0  0     0.0000
FRF    ?    ?    ? G      ? 19950422 1512    4.7000 GAU  1.00e-01 -1.00e+00 -1.00e+00 -1.00e+00 >    0.0000    0.0000    0.0000 -100000000000000000000.0000 -100000000000000000000.0000 -100000000000000000000.0000    0.0000   0.00   0.0   0.0  0     0.0000
PZZ    ?    ?    ? P      ? 19950422 1512    5.7900 GAU  1.00e+00 -1.00e+00 -1.00e+00 -1.00e+00 >    0.0000    0.0000    0.0000 -100000000000000000000.0000 -100000000000000000000.0000 -100000000000000000000.0000    0.0000   0.00   0.0   0.0  0     0.0000
ENR    ?    ?    ? S      ? 19950422 1512    5.8000 GAU  1.00e-01 -1.00e+00 -1.00e+00 -1.00e+00 >    0.0000    0.0000    0.0000 -100000000000000000000.0000 -100000000000000000000.0000 -100000000000000000000.0000    0.0000   0.00   0.0   0.0  0     0.0000
STV    ?    ?    ? S      ? 19950422 1512    6.7100 GAU  1.00e-01 -1.00e+00 -1.00e+00 -1.00e+00 >    0.0000    0.0000    0.0000 -100000000000000000000.0000 -100000000000000000000.0000 -100000000000000000000.0000    0.0000   0.00   0.0   0.0  0     0.0400
LMR    ?    ?    ? G      ? 19950422 1512    7.4000 GAU  1.00e-01 -1.00e+00 -1.00e+00 -1.00e+00 >    0.0000    0.0000    0.0000 -100000000000000000000.0000 -100000000000000000000.0000 -100000000000000000000.0000    0.0000   0.00   0.0   0.0  0     0.0000
LRG    ?    ?    ? G      ? 19950422 1512    8.9000 GAU  1.00e-01 -1.00e+00 -1.00e+00 -1.00e+00 >    0.0000    0.0000    0.0000 -100000000000000000000.0000 -100000000000000000000.0000 -100000000000000000000.0000    0.0000   0.00   0.0   0.0  0     0.0000
ROB    ?    ?    ? S      ? 19950422 1512    9.1100 GAU  5.00e-01 -1.00e+00 -1.00e+00 -1.00e+00 >    0.0000    0.0000    0.0000 -100000000000000000000.0000 -100000000000000000000.0000 -100000000000000000000.0000    0.0000   0.00   0.0   0.0  0     0.0000
FIN    ?    ?    ? S      ? 19950422 1512   11.5100 GAU  5.00e-01 -1.00e+00 -1.00e+00 -1.00e+00 >    0.0000    0.0000    0.0000 -100000000000000000000.0000 -100000000000000000000.0000 -100000000000000000000.0000    0.0000   0.00   0.0   0.0  0     0.0000
PZZ    ?    ?    ? S      ? 19950422 1512   15.4000 GAU  1.00e+00 -1.00e+00 -1.00e+00 -1.00e+00 >    0.0000    0.0000    0.0000 -100000000000000000000.0000 -100000000000000000000.0000 -100000000000000000000.0000    0.0000   0.00   0.0   0.0  0     0.0000
END_PHASE
END_NLLOC

