NLLOC "./loc/vinti.19950423.012763_004.grid0" "LOCATED" "Location completed."
SIGNATURE "Anthony Lomax - Geosciences Azur   NLLoc:v4.10.6 07Jul2008 16h19m58"
COMMENT "1995 Vintimiglia Sequence (NonLinLoc Sample Location)"
GRID  101 101 21  -50.000000 -50.000000 0.000000  1.000000 1.000000 1.000000 PROB_DENSITY
SEARCH OCTREE nInitial 400 nEvaluated 10016 smallestNodeSide 0.312500/0.312500/0.156250
HYPOCENTER  x 5.156250 y 6.718750 z 7.109375  OT 6.776349  ix -1 iy -1 iz -1
GEOGRAPHIC  OT 1995 04 23  01 28  6.776349  Lat 43.810460 Long 7.564088 Depth 7.109375
QUALITY  Pmax 9.374e+19 MFmin 9.184955 MFmax 9.292893 RMS 0.289395 Nphs 11 Gap 229 Dist 8.336915 Mamp -9.90 0 Mdur -9.90 0
VPVSRATIO  VpVsRatio 1.670e+00  Npair 3  Diff 1.110e+00
STATISTICS  ExpectX 5.3544e+00 Y 6.1072e+00 Z 5.5799e+00  CovXX 1.12e+00 XY -5.36e-01 XZ -3.88e-01 YY 3.98e+00 YZ 2.45e+00 ZZ 7.33e+00 EllAz1  79.1 Dip1  -0.7 Len1  1.90e+00 Az2  168.7 Dip2  28.4 Len2  3.11e+00 Len3  5.53e+00
STAT_GEOG  ExpectLat 43.804954 Long 7.566544 Depth 5.579914
TRANSFORM  LAMBERT RefEllipsoid Clarke-1880  LatOrig 43.750000  LongOrig 7.500000  FirstStdParal 43.199300  SecondStdParal 44.996100  RotCW 0.000000
FOCALMECH  Hyp  43.810460 7.564088 7.109375 Mech  0.0 0.0 0.0 mf  0.00 nObs 0
PHASE ID Ins Cmp On Pha  FM Date     HrMn   Sec     Err  ErrMag    Coda      Amp       Per      >   TTpred    Res       Weight    StaLoc(X  Y         Z)        SDist    SAzim  RAz   RDip  RQual    Tcorr 
RONE   ?    ?    ? P      ? 19950423 0128    9.4100 GAU  1.00e-01 -1.00e+00 -1.00e+00 -1.00e+00 >    2.7058   -0.0722    1.3750    7.8887   14.5952   -0.3000    8.3369  19.13  19.1 132.1  9     0.0000
RONE   ?    ?    ? S      ? 19950423 0128   11.3000 GAU  1.00e-01 -1.00e+00 -1.00e+00 -1.00e+00 >    4.5458   -0.0221    1.3750    7.8887   14.5952   -0.3000    8.3369  19.13  19.1 132.1  9     0.0000
SBF    ?    ?    i p      d 19950423 0128    9.9800 GAU  1.00e-01 -1.00e+00 -1.00e+00 -1.00e+00 >    3.1996    0.0041    1.3750   -5.2384   12.6113   -0.8470   11.9487 299.55 299.5 119.5  9     0.0000
NEGI   ?    ?    ? P      ? 19950423 0128    9.9700 GAU  1.00e-01 -1.00e+00 -1.00e+00 -1.00e+00 >    3.2035   -0.0499    1.3750   16.3893   10.8705   -0.6400   11.9758  69.72  69.7 119.4  9     0.0400
NEGI   ?    ?    ? S      ? 19950423 0128   12.2800 GAU  1.00e-01 -1.00e+00 -1.00e+00 -1.00e+00 >    5.3819    0.0818    1.3750   16.3893   10.8705   -0.6400   11.9758  69.72  69.7 119.4  9     0.0400
CEPP   ?    ?    ? P      ? 19950423 0128   11.0000 GAU  1.00e-01 -1.00e+00 -1.00e+00 -1.00e+00 >    4.2484   -0.0247    1.3750   19.7971   18.5085   -1.0800   18.7977  51.16  51.2 109.3  9     0.0000
CEPP   ?    ?    ? S      ? 19950423 0128   14.0000 GAU  1.00e-01 -1.00e+00 -1.00e+00 -1.00e+00 >    7.1373    0.0464    1.3750   19.7971   18.5085   -1.0800   18.7977  51.16  51.2 109.3  9     0.0400
AURF   ?    ?    ? p      ? 19950423 0128   12.1100 GAU  1.00e+05 -1.00e+00 -1.00e+00 -1.00e+00 >    4.5743    0.7193    0.0000  -13.8607   15.2716   -1.0400   20.8518 294.22 294.2 107.5  9     0.0400
AUTN   ?    ?    ? p      ? 19950423 0128    8.4000 GAU  1.00e+05 -1.00e+00 -1.00e+00 -1.00e+00 >    4.9667   -3.3431    0.0000   -5.8149   27.2765   -2.0690   23.3021 331.91 331.9 105.8  9     0.0000
TOUF   ?    ?    P G      ? 19950423 0128   14.2800 GAU  1.00e-01 -1.00e+00 -1.00e+00 -1.00e+00 >    6.6960    0.8077    1.3750  -20.1791   29.3046   -1.8500   33.9411 311.72 311.7 101.1  9     0.0000
MVIF   ?    ?    ? p      ? 19950423 0128   15.0500 GAU  1.00e+05 -1.00e+00 -1.00e+00 -1.00e+00 >    6.7783    1.4954    0.0000  -27.9180   16.3343   -1.4800   34.4436 286.21 286.2 100.9  9     0.0000
0522   ?    ?    i p      d 19950423 0127   63.7200 GAU  1.00e+05 -1.00e+00 -1.00e+00 -1.00e+00 >    0.0000    0.0000    0.0000 -100000000000000000000.0000 -100000000000000000000.0000 -100000000000000000000.0000    0.0000   0.00   0.0   0.0  0     0.0000
0665   ?    ?    e p      . 19950423 0127   66.7400 GAU  1.00e+05 -1.00e+00 -1.00e+00 -1.00e+00 >    0.0000    0.0000    0.0000 -100000000000000000000.0000 -100000000000000000000.0000 -100000000000000000000.0000    0.0000   0.00   0.0   0.0  0     0.0000
0669   ?    ?    ? p      ? 19950423 0127   67.3300 GAU  1.00e+05 -1.00e+00 -1.00e+00 -1.00e+00 >    0.0000    0.0000    0.0000 -100000000000000000000.0000 -100000000000000000000.0000 -100000000000000000000.0000    0.0000   0.00   0.0   0.0  0     0.0000
0666   ?    ?    i p      u 19950423 0127   68.8200 GAU  1.00e-01 -1.00e+00 -1.00e+00 -1.00e+00 >    0.0000    0.0000    0.0000 -100000000000000000000.0000 -100000000000000000000.0000 -100000000000000000000.0000    0.0000   0.00   0.0   0.0  0     0.0400
.obs   ?    ?    i p      d 19950423 0127   70.3400 GAU  1.00e-01 -1.00e+00 -1.00e+00 -1.00e+00 >    0.0000    0.0000    0.0000 -100000000000000000000.0000 -100000000000000000000.0000 -100000000000000000000.0000    0.0000   0.00   0.0   0.0  0     0.0400
0667   ?    ?    e p      . 19950423 0127   72.5600 GAU  1.00e+05 -1.00e+00 -1.00e+00 -1.00e+00 >    0.0000    0.0000    0.0000 -100000000000000000000.0000 -100000000000000000000.0000 -100000000000000000000.0000    0.0000   0.00   0.0   0.0  0     0.0000
PGF    ?    ?    ? p      ? 19950423 0127   78.1000 GAU  1.00e+05 -1.00e+00 -1.00e+00 -1.00e+00 >    0.0000    0.0000    0.0000 -100000000000000000000.0000 -100000000000000000000.0000 -100000000000000000000.0000    0.0000   0.00   0.0   0.0  0     0.0000
FRF    ?    ?    ? G      ? 19950423 0128   20.4000 GAU  1.00e-01 -1.00e+00 -1.00e+00 -1.00e+00 >    0.0000    0.0000    0.0000 -100000000000000000000.0000 -100000000000000000000.0000 -100000000000000000000.0000    0.0000   0.00   0.0   0.0  0     0.0000
LMR    ?    ?    ? G      ? 19950423 0128   23.5000 GAU  1.00e-01 -1.00e+00 -1.00e+00 -1.00e+00 >    0.0000    0.0000    0.0000 -100000000000000000000.0000 -100000000000000000000.0000 -100000000000000000000.0000    0.0000   0.00   0.0   0.0  0     0.0400
LRG    ?    ?    ? G      ? 19950423 0128   24.5000 GAU  1.00e-01 -1.00e+00 -1.00e+00 -1.00e+00 >    0.0000    0.0000    0.0000 -100000000000000000000.0000 -100000000000000000000.0000 -100000000000000000000.0000    0.0000   0.00   0.0   0.0  0     0.0000
END_PHASE
END_NLLOC

