 HYPOINVERSE 2000
 1/2008 VERSION 1.2 (f77/g77 compiler)                                 
 RUN ON Tue May 27 14:25:58 2008
     RUN LABEL= 
 PROCESSING DOMAIN=NC  PROCESSING VERSION=01


 TEST PARAMETERS:
   -ITERATION AND CONVERGENCE-     -WEIGHTING AND ERRORS-     -MISCELLANEOUS-
       20=ITRLIM   0.900=DAMP    15.000=DISCUT   0.100=RMSCUT       4=MINSTA
    0.040=DQUIT    0.001=DRQT     3.500=DISW1    2.000=RMSW1        2=NET
    7.000=DXFIX    0.012=EIGTOL   7.000=DISW2    3.000=RMSW2 
   30.000=DZMAX    0.020=RBACK        4=ITRDIS       4=ITRRES   5.000=ZTR
    0.500=DZAIR    0.600=BACFAC   1.000=SWT      0.100=RDERR    1.780=POS
                                                 1.000=ERCOF

      ------DURATION MAG CONSTANTS------       -DELAYS & MISC-    -STATIONS-
   -0.810=FMA1     0.000=FMA2   -1.0300=DMA0         T=LMULT        F=ATTEN
    2.220=FMB1     0.000=FMB2    2.1000=DMA1         T=CODAWT       5=SITE-LET
    0.000=FMZ1     0.000=FMZ2    0.0000=DMA2         T=LJUNK        2=NET-LET
    0.001=FMD1     0.000=FMD2    0.0000=DMZ                         3=COMP-LET
    0.000=FMF1     0.000=FMF2    1.0000=DMGN  
    1.000=FMGN  9999.000=FMBRK   0.0027=DMLIN 
   0.0050=DCOF1   40.000=DBRK1        1=LOGA0 
   0.0006=DCOF2  350.000=DBRK2 
   0.0140=ZCOF    10.000=ZBRK  

    DUR MAG COMPONENT CORRECTIONS:  ELZ=-.06  ELE=-.30  ELN=-.30
    AMP MAG COMPONENT CORRECTIONS:  EHZ=0.33  VLZ=0.20  SHZ=0.33

    --- MAGNITUDE LABELS & COMPONENTS ---
    FMAG1: LABEL=D      COMPS= EHZ SHZ HHZ BHZ
    FMAG2: LABEL=Z      COMPS= ELZ
    XMAG1: LABEL=X       TYPE=MX   COMPS= EHZ ELZ ELE ELN EHN EHE SHZ
    XMAG2: LABEL=L       TYPE=ML   COMPS= WLN WLE HHN HHE
    FMAG1 MAGSEL=1  FMAG2 MAGSEL=3

 INPUT FILES:
 COMMANDS:    caltest.hyp                                                 
              multtest.hyp                                                
 STATIONS:    allseed.sta                                                 STATION FORMAT CODE= 3
 DELAYS:       bar3.del                                                    
 ATTENUATIONS:                                                             
 CAL FACTORS:  all2000seed.cal                                             
 FMAG CORRECT: all2000seed.fmc                                             
 XMAG CORRECT: all2000seed.xmc                                             

 PHASES:       test3.arc                                                   
        PHASE FORMAT CODE= 5, TERMINATOR FORMAT CODE=1
 LINEAR  GRADIENT  CRUST 1:  ncg.crt                                                     
 LINEAR  GRADIENT  CRUST 2:  lew.crt                                                     
 LINEAR  GRADIENT  CRUST 3:  coa.crt                                                     
 LINEAR  GRADIENT  CRUST 4:  sim.crt                                                     
 LINEAR  GRADIENT  CRUST 5:  gab.crt                                                     
 LINEAR  GRADIENT  CRUST 6:  dia.crt                                                     
 LINEAR  GRADIENT  CRUST 7:  coy.crt                                                     
 LINEAR  GRADIENT  CRUST 8:  mor.crt                                                     
 LINEAR  GRADIENT  CRUST 9:  con.crt                                                     
 LINEAR  GRADIENT  CRUST10:  pen.crt                                                     
 LINEAR  GRADIENT  CRUST11:  mam.crt                                                     
 LINEAR  GRADIENT  CRUST12:  gey.crt                                                     
 LINEAR  GRADIENT  CRUST13:  nby.crt                                                     
 LINEAR  GRADIENT  CRUST14:  aub.crt                                                     
 LINEAR  GRADIENT  CRUST15:  las.crt                                                     
 LINEAR  GRADIENT  CRUST16:  maa.crt                                                     
 LINEAR  GRADIENT  CRUST17:  men.crt                                                     
 LINEAR  GRADIENT  CRUST18:  lom.crt                                                     
 LINEAR  GRADIENT  CRUST19:  tre.crt                                                     
 LINEAR  GRADIENT  CRUST20:  wal.crt                                                     
 LINEAR  GRADIENT  CRUST21:  sha.crt                                                     
 LINEAR  GRADIENT  CRUST22:  tra.crt                                                     
 LINEAR  GRADIENT  CRUST23:  sca.crt                                                     
 LINEAR  GRADIENT  CRUST24:  bas.crt                                                     
 LINEAR  GRADIENT  CRUST25:  lon.crt                                                     
 LINEAR  GRADIENT  CRUST26:  hay.crt                                                     
 LINEAR  GRADIENT  CRUST27:  pmm.crt                                                     
 LINEAR  GRADIENT  CRUST28:  pgh.crt                                                     
 LINEAR  GRADIENT  CRUST29:  psm.crt                                                     
 LINEAR  GRADIENT  CRUST30:  liv.crt                                                     
 LINEAR  GRADIENT  CRUST31:  man.crt                                                     
 LINEAR  GRADIENT  CRUST32:  pta.crt                                                     
 LINEAR  GRADIENT  CRUST33:  bae.crt                                                     
 LINEAR  GRADIENT  CRUST34:  bar.crt                                                     
 LINEAR  GRADIENT  CRUST35:  pes.crt                                                     

 OUTPUT FILES: (T IF APPENDED TO)
 (F) PRINTOUT:    test3.prt                                                   
 (F) SUMMARY:     test3.sum                                                   FORMAT CODE=1
 (F) ARCHIVE:     test3out.arc                                                ARCHIVE FORMAT CODE= 3
 
 ####################################################################################
   1 MAR 2007, 16:57  SEQUENCE NO.    1, ID NO.  40194032
                                                        ADJUSTMENTS (KM)
  I ORIGIN   LAT N     LON W     Z   NWR  RMS    DT    DLAT   DLON    DZ    RR NF MOD
 BEGIN FIRST DISTANCE WEIGHTING
  1 59.95  37 20.82  121 38.82  5.00   7 0.84  0.279 -1.528  4.672  0.000 4.916 3 MOR
 FREE DEPTH
  2 60.23  37 20.00  121 41.99  5.00   7 0.21 -0.239  0.545  0.494  2.636 2.737 4 MOR
  3 59.99  37 20.29  121 42.33  7.64   7 0.06 -0.076  0.040 -0.005  0.430 0.432 4 MOR
 BEGIN MAIN DISTANCE WEIGHTING
 BEGIN RESIDUAL WEIGHTING
  4 59.91  37 20.31  121 42.32  8.07   7 0.02 -0.013 -0.026 -0.003  0.117 0.120 4 MOR
  5 59.90  37 20.30  121 42.32  8.18   7 0.02  0.002  0.023  0.034 -0.061 0.074 4 MOR
  6 59.90  37 20.31  121 42.34  8.12   7 0.02 -0.003 -0.033 -0.041  0.080 0.095 4 MOR
  7 59.90  37 20.29  121 42.32  8.20   7 0.02  0.003  0.023  0.035 -0.061 0.074 4 MOR
  8 59.90  37 20.30  121 42.34  8.14   7 0.02 -0.003 -0.032 -0.041  0.079 0.094 4 MOR
  9 59.90  37 20.29  121 42.31  8.22   7 0.02  0.003  0.035  0.043 -0.068 0.088 4 MOR
 ERROR ELLIPSE: <SERR AZ DIP>-<   0.84 116 70>-<   0.59 338 15>-<   0.24 244 12>
 ------------------------------------------------------------------------------------
 YEAR MO DA  --ORIGIN--  --LAT N-  --LON W--  DEPTH   RMS   ERH   ERZ  XMAG  FMAG  PMAG
 2007-03-01  1657 59.90  37 20.29  121 42.31   8.22  0.02  0.57  0.79        0.96  0.96D
                                                                                          SOURCE
 NSTA NPHS  DMIN MODEL GAP ITR NFM NWR NWS NVR REMRKS-AVH  N.XMG-XMMAD-T   N.FMG-FMMAD-T  L F X
    7    7   5.6  MOR  119   9   7   7   0   7 ALU    B1A      0  0.00 X       5  0.25 D  W W  

 XMAG2-N.XMG2-XMMAD-T-S  FMAG2-N.FMG2-FMMAD-T-S  PREF.MAG-N.PMAG-PRMAD-T
                                                     0.96      5  0.25 D
 REGION= Alum Rock                  MODELS USED:  MOR=1.00

 STA NET COM L CR DIST AZM  AN P/S WT   SEC (TOBS -TCAL -DLY  =RES)  WT   SR  INFO  CAL DUR-W-FMAG-T -AMP-U-PER-W-XMAG-T DEV
 MHC  BK HHZ -- C  5.6  85 141  PU    61.95  2.05  1.90 0.16 -0.01  1.75  I  0.890 0.00   5 2 0.58 D                         
 CHR  NC EHZ -- C  6.8 305 135  PD 2  62.13  2.23  2.04 0.08  0.11  0.35  W  0.176 4.64   5 2 0.72 D                         
 CCO  NC EHZ -- C  9.2 162 125  PD 3  62.83  2.93  2.35 0.40  0.18  0.17  W  0.013 0.20   5 2 0.70XD                         
 CAL  NC EHZ -- C 15.0 326 108  PU 2  63.08  3.18  3.24-0.01 -0.05  0.35  W  0.203 4.64   5 2 0.88 D                         
 CAO  NC EHZ -- C 15.2  85 108  PU    63.06  3.16  3.25-0.10  0.01  1.75  W  0.961 5.62   7 1 1.02 D                         
 JST  NC EHZ -- J 16.9 210 104  PD    63.67  3.77  3.54 0.23  0.00  1.75  W  0.970 5.62   9   1.26 D                         
 JFP  NC EHZ -- J 43.0 274  78  PD 1  67.77  7.87  7.95-0.07 -0.01  0.88  W  0.784 4.64   3 4 0.47XD                         
 ####################################################################################
