   1 MAR 2007, 17:07  SEQUENCE NO.    3, ID NO.  40194034
                                                        ADJUSTMENTS (KM)
  I ORIGIN   LAT N     LON W     Z   NWR  RMS    DT    DLAT   DLON    DZ    RR NF MOD
 BEGIN FIRST DISTANCE WEIGHTING
  1 13.74  37 20.82  121 38.82  5.00  95 0.71 -0.018 -0.730  5.098  0.000 5.150 3 MOR
 FREE DEPTH
  2 13.72  37 20.43  121 42.28  5.00  95 0.28  0.008 -0.036  0.435  1.430 1.495 4 MOR
  3 13.73  37 20.41  121 42.57  6.43  95 0.26 -0.017 -0.010  0.078 -0.181 0.198 4 MOR
 BEGIN MAIN DISTANCE WEIGHTING
 BEGIN RESIDUAL WEIGHTING
  4 13.71  37 20.40  121 42.63  6.25  68 0.09 -0.020  0.156 -0.061  0.733 0.752 4 MOR
  5 13.69  37 20.49  121 42.59  6.98  67 0.07 -0.008  0.097 -0.077  0.539 0.553 4 MOR
  6 13.69  37 20.54  121 42.53  7.52  67 0.06 -0.006  0.044 -0.072  0.392 0.401 4 MOR
  7 13.68  37 20.56  121 42.49  7.91  66 0.05 -0.003 -0.003 -0.019  0.059 0.062 4 MOR
  8 13.68  37 20.56  121 42.47  7.97  66 0.05  0.000  0.003 -0.008  0.023 0.024 4 MOR
  9 13.68  37 20.56  121 42.47  7.99  66 0.05  0.000  0.005 -0.004  0.024 0.025 4 MOR
 ERROR ELLIPSE: <SERR AZ DIP>-<   0.29  50 81>-<   0.11 259  7>-<   0.10 168  4>
 ------------------------------------------------------------------------------------
 YEAR MO DA  --ORIGIN--  --LAT N-  --LON W--  DEPTH   RMS   ERH   ERZ  XMAG  FMAG  PMAG
 2007-03-01  1707 13.68  37 20.56  121 42.47   7.99  0.05  0.11  0.29        2.41  2.41D
                                                                                          SOURCE
 NSTA NPHS  DMIN MODEL GAP ITR NFM NWR NWS NVR REMRKS-AVH  N.XMG-XMMAD-T   N.FMG-FMMAD-T  L F X
   97   97   5.8  MOR   39   9  87  66   0  97 ALU    B1A      0  0.00 X      73  0.13 D  W W  

 XMAG2-N.XMG2-XMMAD-T-S  FMAG2-N.FMG2-FMMAD-T-S  PREF.MAG-N.PMAG-PRMAD-T
                                                     2.41     73  0.13 D
 REGION= Alum Rock                  MODELS USED:  MOR=1.00

 STA NET COM L CR DIST AZM  AN P/S WT   SEC (TOBS -TCAL -DLY  =RES)  WT   SR  INFO  CAL DUR-W-FMAG-T -AMP-U-PER-W-XMAG-T DEV
 MHC  BK HHZ -- C  5.8  90 139  PU    15.74  2.06  1.89 0.16  0.01  1.64  I  0.312 0.00  43   2.65 D                         
 CHR  NC EHZ -- C  6.4 302 136  PU    15.83  2.15  1.95 0.08  0.12  1.64  W  0.326 4.64  25   2.27 D                         
 CCO  NC EHZ -- C  9.8 161 122  PU 3  16.50  2.82  2.41 0.40  0.01  0.16  W  0.002 0.20  19   1.99XD                         
 CAL  NC EHZ -- C 14.5 326 109  PD    16.74  3.06  3.13-0.01 -0.06  1.64  W  0.138 4.64  23   2.35 D                         
 CAO  NC EHZ -- C 15.4  87 107  PU    16.86  3.18  3.28-0.10  0.00  1.64  W  0.150 5.62  25   2.24 D                         
 CML  NC EHZ -- C 15.7  17 106  PD    17.09  3.41  3.34 0.10 -0.03  1.64  W  0.145 2.82  15   2.14 D                         
 JST  NC EHZ -- J 17.2 208 103  PD    17.45  3.77  3.58 0.23 -0.04  1.64  W  0.108 5.62  29   2.39 D                         
 JLAB NC EHZ -- J 21.0 187  98  PD    18.06  4.38  4.22 0.22 -0.06  1.64  W  0.080 4.64  29   2.57 D                         
 CADB NC EHZ -- C 21.2 160  97  PD    18.29  4.61  4.24 0.39 -0.02  1.64  W  0.086 4.64  11   2.14 D                         
 CMM  NC EHZ -- C 22.7  56  95  PU    18.15  4.47  4.51-0.02 -0.02  1.64  W  0.156 5.62  21   2.19 D                         
 JAL  NC EHZ -- J 24.0 212  93  PD    18.56  4.88  4.73 0.17 -0.02  1.64  W  0.069 2.82  23   2.51 D                         
 CMJ  NC EHZ -- C 24.5 324  93  PU    18.53  4.85  4.82 0.02  0.01  1.64  W  0.103 5.62  28   2.47 D                         
 JUM  NC EHZ -- J 26.4 221  92  PD 1  18.99  5.31  5.13 0.16  0.02  0.82  W  0.015 0.20  25   3.55 D                         
 JSS  NC EHZ -- J 27.7 227  90  PD    19.15  5.47  5.35 0.10  0.02  1.64  W  0.062 2.82  19   2.31 D                         
 JHL  NC EHZ -- J 28.3 204  89  PD    19.26  5.58  5.45 0.15 -0.02  1.64  W  0.058 2.82  21   2.51 D                         
 JJO  NC EHZ -- J 28.3 238  88  P  2  19.33  5.65  5.46-0.04  0.23  0.25  W  0.001 4.64  11   1.61 D                         
 HSP  NC EHZ -- H 30.4 146  89  PU    19.46  5.78  5.82 0.06 -0.10  1.64  W  0.088 5.62  27   2.29 D                         
 JSGB NC EHZ -- J 31.0 258  88  PU    20.07  6.39  5.93 0.51 -0.05  1.64  W  0.066 1.33  31   2.38 D                         
 JBR  NC EHZ -- J 32.9 235  85  PU 1  20.21  6.53  6.25 0.07  0.21  0.78  W  0.013 4.64  30   2.43 D                         
 JECB NC EHZ -- J 33.7 196  84  PD    20.17  6.49  6.39 0.18 -0.08  1.64  W  0.054 4.64  13   1.88 D                         
 JSJ  NC EHZ -- J 34.1 269  84  PU    20.48  6.80  6.45 0.41 -0.06  1.64  W  0.069 1.41  25   2.80 D                         
 HLP  NC EHZ -- H 34.1 168  84  PD    20.25  6.57  6.45 0.10  0.02  1.64  W  0.069 1.41  23   2.53 D                         
 CMP  NC EHZ 03 C 34.5  87  84  PU    20.04  6.36  6.53-0.18  0.01  1.64  W  0.170 2.82  15   2.12 D                         
 COS  NC EHZ 02 C 34.7  57  83  PU 1  20.19  6.51  6.55-0.05  0.01  0.82  W  0.046 2.82  15   2.10 D                         
 HGS  NC EHZ 02 H 35.8 139  83  PU 3  20.29  6.61  6.74-0.16  0.03  0.16  W  0.001 5.62  25   2.44 D                         
 CSA  NC EHZ -- C 36.6   0  82  PU    20.89  7.21  6.87 0.32  0.02  1.64  W  0.156 1.41   5 4 1.00XD                         
 CNI  NC EHZ -- C 37.2 323  82  PD 2  20.59  6.91  6.97 0.01 -0.07  0.33  W  0.004 2.82  21   2.38 D                         
 JBZ  NC EHZ -- J 37.4 196  82  PD    21.11  7.43  7.01 0.42  0.00  1.64  W  0.055 2.82  55   3.06 D                         
 JSC  NC EHZ -- J 37.5 261  82  PU 1  20.68  7.00  7.02-0.01 -0.01  0.82  W  0.016 2.82  19   2.28 D                         
 JTG  NC EHZ -- J 38.0 204  81  PD    21.21  7.53  7.11 0.41  0.01  1.64  W  0.053 2.82  35   2.65 D                         
 JBMB NC EHZ -- J 39.6 267  80  PU    21.06  7.38  7.38 0.02 -0.02  1.64  W  0.070 4.64  19   2.38 D                         
 HCA  NC EHZ -- H 40.4 150  79  PD    21.61  7.93  7.52 0.05  0.36  0.00  W  0.000 5.62  25   2.30 D                         
 JRG  NC EHZ -- J 40.9 215  79  PD    21.52  7.84  7.59 0.23  0.02  1.64  W  0.053 2.82  33   2.56 D                         
 JSFB NC EHZ -- J 42.0 280  78  PU    21.39  7.71  7.79-0.02 -0.06  1.64  W  0.080 4.64  56   2.76 D                         
 JPL  NC EHZ -- J 42.0 196  78  PD 1  21.95  8.27  7.79 0.48  0.00  0.82  W  0.014 2.82  33   2.41 D                         
 JFP  NC EHZ -- J 42.8 273  78  PU    21.48  7.80  7.91-0.07 -0.04  1.64  W  0.076 4.64  25   2.51 D                         
 JHU  NC EHZ -- J 43.5 252  77  PU    21.89  8.21  8.04 0.14  0.03  1.64  W  0.064 4.64  31   2.41 D                         
 JJR  NC EHZ -- J 43.9 271  77  PU 1  21.72  8.04  8.10-0.02 -0.04  0.82  W  0.019 2.82  25   2.43 D                         
 CDOB NC EHZ -- C 44.3 346  77  PU 2  21.75  8.07  8.17 0.81 -0.91* 0.00  W  0.000 4.64  29   2.32 D                         
 JPC  NC EHZ -- J 45.5 261  76  P  3  22.18  8.50  8.37 0.12  0.01  0.16  W  0.000 4.64  63 2 2.99 D                         
 HCB  NC EHZ -- H 45.8 174  76  PD    22.40  8.72  8.43 0.24  0.05  1.64  W  0.074 2.82  23   2.33 D                         
 JBN  NC EHZ -- J 46.7 239  76  PU 3  22.18  8.50  8.57-0.09  0.02  0.16  W  0.000 0.20  17   1.64XD                         
 JELB NC EHZ -- J 47.3 194  75  PD    22.83  9.15  8.67 0.00  0.48  0.00  W  0.000 1.73  66   2.97 D                         
 JRSC BK HHZ -- J 47.4 279  75  P  2  22.59  8.91  8.69 0.00  0.22  0.29  I  0.002 0.00  24 1 2.31 D                         
 HFE  NC EHZ 02 H 48.2 145  75  PD 1  22.46  8.78  8.82-0.18  0.14  0.82  W  0.028 2.82  19   2.34 D                         
 JUC  NC EHZ 02 J 48.5 219  75  PD    22.65  8.97  8.87 0.05  0.05  1.64  W  0.057 5.62  23   2.41 D                         
 HPC  NC EHZ -- H 49.5 129  75  PU 1  22.45  8.77  9.04-0.25 -0.02  0.82  W  0.035 2.82   3 4 0.63XD                         
 HOR  NC EHZ -- H 50.0 159  75  PD 1  22.90  9.22  9.12 0.08  0.02  0.82  W  0.023 2.82  23   2.14 D                         
 HAZ  NC EHZ -- H 51.9 168  75  PD 1  23.45  9.77  9.42 0.33  0.02  0.82  W  0.021 2.82   5 4 1.08XD                         
 CMOB NC EHZ -- C 52.6 351  75  PU    24.45 10.77  9.54 0.90  0.33  0.00  W  0.000 4.64  21   2.19 D                         
 CBS  NC EHZ -- C 53.1   6  75  PD    23.96 10.28  9.62 0.67 -0.01  1.64  W  0.193 2.82  31   2.62 D                         
 JHP  NC EHZ -- J 54.0 283  75  PU    23.24  9.56  9.77-0.20 -0.01  1.63  W  0.090 2.82  23   2.42 D                         
 CLCB NC EHZ -- C 54.0 325  75  P  1  23.63  9.95  9.78 0.16  0.01  0.82  W  0.034 4.64  29   2.55 D                         
 JBG  NC EHZ -- J 56.0 271  74  PU    23.93 10.25 10.11 0.07  0.07  1.62  W  0.079 4.64  31   2.28 D                         
 HBT  NC EHZ -- H 56.4 165  74  PD 1  24.33 10.65 10.17 0.48  0.00  0.81  W  0.021 1.41   3 4 0.75XD                         
 JPSB NC EHZ -- J 58.9 255  74  PD 1  24.30 10.62 10.58-0.03  0.07  0.79  W  0.016 4.64  25   2.18 D                         
 HER  NC EHZ -- H 60.4 181  74  PU 2  24.51 10.83 10.84 0.22 -0.23  0.26  W  0.001 1.41  17   2.12 D                         
 HSF  NC EHZ 02 H 61.3 162  74  PD 2  25.54 11.86 10.97 0.84  0.05  0.31  W  0.003 2.82  19 2 2.11 D                         
 HJG  NC EHZ -- H 61.6 168  74  PD    24.91 11.23 11.02 0.18  0.03  1.52  W  0.073 5.62  19   2.32 D                         
 HLT  NC EHZ -- H 62.0 145  74  PD 2  24.82 11.14 11.09-0.24  0.29  0.00  W  0.000 2.82  21   2.32 D                         
 OXMT BK EP1 --   65.8 286  75  PD 3  24.76 11.08 11.72 0.00 -0.64* 0.00  I  0.000 0.00   3 4                                
 HFP  NC EHZ -- H 68.2 163  75  PD    26.01 12.33 12.11 0.24 -0.02  1.30  W  0.05711.22  23   2.33 D                         
 SAO  BK HHZ -- B 68.3 160  75  PD    26.35 12.67 12.13 0.27  0.27  0.22  I  0.001 0.00  35 2 2.69 D                         
 JSA  NC EHZ -- J 68.4 294  75  PD 1  25.49 11.81 12.15-0.50  0.16  0.65  W  0.015 4.64  21   2.38 D                         
 HJS  NC EHZ -- H 68.8 147  75  PD 2  26.02 12.34 12.21-0.09  0.22  0.22  W  0.002 5.62  25   2.36 D                         
 JGR  NC EHZ -- J 69.1 287  75  PD 1  25.34 11.66 12.27-0.41 -0.20  0.63  W  0.013 4.64  23   2.50 D                         
 BVY  NC EHZ -- B 71.1 158  74  PD    26.88 13.20 12.60 0.55  0.05  1.18  W  0.05011.22  29   2.45 D                         
 SBRN BK EP1 -- J 72.9 302  74  PU 2  26.03 12.35 12.90 0.00 -0.55* 0.00  I  0.000 0.00   5 4                                
 CBW  NC EHZ -- C 73.6 332  74  PU 1  28.39 14.71 13.00 0.29  1.42* 0.00  W  0.000 2.82   3 4 0.45XD                         
 JMGB NC EHZ -- J 75.3 296  75  PD 3  26.68 13.00 13.29-0.44  0.15  0.10  W  0.000 4.64  23   2.58 D                         
 JSP  NC EHZ -- J 75.3 292  75  PU    27.06 13.38 13.29-0.57  0.66* 0.00  W  0.000 4.64  25   2.56 D                         
 BSR  NC EHZ -- B 76.8 167  75  PD 1  27.05 13.37 13.53-0.08 -0.08  0.46  W  0.006 5.62  31   2.69 D                         
 BCG  NC EHZ -- B 77.4 155  75  PU 2  28.10 14.42 13.64 0.46  0.32  0.00  W  0.000 2.82   3 4 0.50XD                         
 BLR  NC EHZ 02 B 84.4 152  74  PD 2  29.26 15.58 14.79 0.61  0.18  0.11  W  0.000 5.62  35   2.57 D                         
 HMOB NC EHZ -- H 84.6 193  74  PD    28.31 14.63 14.82-0.23  0.04  0.54  W  0.007 2.82  21 2 2.77 D                         
 CAG  NC EHZ -- C 85.1 313  74  PU    28.28 14.60 14.91-0.28 -0.03  0.51  W  0.012 4.64  27   2.50 D                         
 BPC  NC EHZ -- B 85.7 175  74  PD    28.65 14.97 15.00 0.03 -0.06  0.49  W  0.006 5.62  31   2.51 D                         
 BJO  NC EHZ -- B 88.4 156  74  PU 2  28.87 15.19 15.46 0.00 -0.27  0.02  W  0.000 5.62  29   2.64 D                         
 BJC  NC EHZ 02 B 92.6 162  75  PD 2  29.32 15.64 16.15-0.29 -0.22  0.04  W  0.00011.22  27   2.48 D                         
 BEM  NC EHZ -- B 93.2 144  74  PD 2  29.72 16.04 16.24-0.21  0.01  0.04  W  0.000 5.62   9 4 1.35XD                         
 BRM  NC EHZ -- B 96.0 124  74  P  1  31.17 17.49 16.71 0.26  0.52* 0.00  W  0.000 2.82   5 4 0.73XD                         
 BVL  NC EHZ -- B 96.9 151  74  PU 2  30.73 17.05 16.85 0.10  0.10  0.02  W  0.00011.22  27   2.17 D                         
 BAV  NC EHZ -- B 98.1 141  73  PD 2  30.93 17.25 17.04-0.31  0.52* 0.00  W  0.000 5.62   3 4 0.50XD                         
 NCC  NC EHZ -- N 99.7 318  73  PD    30.66 16.98 17.31 0.00 -0.33  0.00  W  0.000 0.00  11 4 1.61XD                         
 NTAC NC EHZ -- N101.5 310  73  PU 2  30.47 16.79 17.62 0.00 -0.83* 0.00  W  0.000 4.64   9 4 1.78XD                         
 BPR  NC EHZ -- B103.8 182  65  PD 1  31.43 17.75 18.01-0.17 -0.09  0.00  W  0.000 5.62   3 4 0.44XD                         
 BPI  NC EHZ -- B106.1 152  55  PU 3  31.21 17.53 18.34-0.41 -0.40  0.00  W  0.00011.22  27   2.41 D                         
 HAST BK HHZ --  106.8 172  53  PD    31.60 17.92 18.44 0.00 -0.52* 0.00  I  0.000 0.00  41 2 2.89 D                         
 BMS  NC EHZ -- B111.0 132  50  PD 2  32.52 18.84 18.98-0.05 -0.09  0.00  W  0.000 5.62  37   2.63 D                         
 BPO  NC SHZ -- B123.8 183  50  PD 2  34.66 20.98 20.66-0.67  0.99* 0.00  W  0.000 5.62   7 4 1.44XD                         
 NHV  NC EHZ -- N127.2 317  50  P  1  34.82 21.14 21.11 0.00  0.03  0.00  W  0.000 4.64   3 4 0.63XD                         
 BAP  NC SHZ -- B129.1 177  50  P  1  35.90 22.22 21.36-0.46  1.32* 0.00  W  0.000 2.82   5 4 1.07XD                         
 NEA  NC EHZ -- N152.8 316  50  P  1  39.66 25.98 24.48 0.00  1.50* 0.00  W  0.000 4.64   3 4 0.64XD                         
 MHD  NC EHZ -- M162.8  98  50  PD 1  39.83 26.15 25.79-0.46  0.82* 0.00  W  0.000 5.62   3 4 0.43XD                         
 AOH  NC EHZ -- A229.1   9  50  P  1  50.94 37.26 34.51 0.00  2.75* 0.00  W  0.000 2.82   3 4 0.72XD                         
 KPK  WR EHZ -- O251.2   7  50  PU 2  52.35 38.67 37.41 0.00  1.26* 0.00  W  0.000 0.00   3 4 0.25XD                         
 FLV  NN SHZ -- U339.7  79  50  P  3  58.63 44.95 49.05 0.00 -4.10* 0.00  W  0.00011.22   3 4 0.28XD                         
