   1 MAR 2007, 17:04  SEQUENCE NO.    2, ID NO.  40194033
                                                        ADJUSTMENTS (KM)
  I ORIGIN   LAT N     LON W     Z   NWR  RMS    DT    DLAT   DLON    DZ    RR NF MOD
 BEGIN FIRST DISTANCE WEIGHTING
  1 44.70  37 20.82  121 38.82  5.00 116 0.72 -0.032 -0.510  5.198  0.000 5.222 3 MOR
 FREE DEPTH
  2 44.67  37 20.54  121 42.35  5.00 116 0.27 -0.006 -0.046  0.431  0.983 1.074 4 MOR
  3 44.66  37 20.52  121 42.64  5.98 116 0.25 -0.005 -0.001  0.054  0.102 0.115 4 MOR
 BEGIN MAIN DISTANCE WEIGHTING
 BEGIN RESIDUAL WEIGHTING
  4 44.66  37 20.52  121 42.68  6.08  88 0.11 -0.014 -0.040 -0.240  1.197 1.222 4 MOR
  5 44.64  37 20.50  121 42.51  7.28  83 0.08 -0.009 -0.061 -0.144  0.541 0.563 4 MOR
  6 44.63  37 20.46  121 42.42  7.82  83 0.07 -0.004 -0.033 -0.090  0.317 0.332 4 MOR
  7 44.63  37 20.45  121 42.36  8.14  81 0.06 -0.003  0.001 -0.024  0.085 0.088 4 MOR
  8 44.63  37 20.45  121 42.34  8.22  80 0.06  0.000 -0.008  0.001  0.009 0.012 4 MOR
 ERROR ELLIPSE: <SERR AZ DIP>-<   0.28  71 83>-<   0.10 261  6>-<   0.09 171  1>
 ------------------------------------------------------------------------------------
 YEAR MO DA  --ORIGIN--  --LAT N-  --LON W--  DEPTH   RMS   ERH   ERZ  XMAG  FMAG  PMAG
 2007-03-01  1704 44.63  37 20.45  121 42.34   8.22  0.06  0.10  0.28        2.52  2.52D
                                                                                          SOURCE
 NSTA NPHS  DMIN MODEL GAP ITR NFM NWR NWS NVR REMRKS-AVH  N.XMG-XMMAD-T   N.FMG-FMMAD-T  L F X
  116  116   5.6  MOR   34   8 107  80   0 116 ALU    B1A      0  0.00 X      83  0.12 D  W W  

 XMAG2-N.XMG2-XMMAD-T-S  FMAG2-N.FMG2-FMMAD-T-S  PREF.MAG-N.PMAG-PRMAD-T
                                                     2.52     83  0.12 D
 REGION= Alum Rock                  MODELS USED:  MOR=1.00

 STA NET COM L CR DIST AZM  AN P/S WT   SEC (TOBS -TCAL -DLY  =RES)  WT   SR  INFO  CAL DUR-W-FMAG-T -AMP-U-PER-W-XMAG-T DEV
 MHC  BK HHZ -- C  5.6  88 141  PU    46.70  2.07  1.90 0.16  0.01  1.70  I  0.314 0.00  31   2.34 D                         
 CHR  NC EHZ -- C  6.6 303 136  PU    46.83  2.20  2.01 0.08  0.11  1.70  W  0.311 4.64  25   2.27 D                         
 CCO  NC EHZ -- C  9.5 162 124  PU 3  47.42  2.79  2.39 0.40  0.00  0.17  W  0.002 0.20  21   2.08XD                         
 CAL  NC EHZ -- C 14.8 326 109  PD    47.75  3.12  3.19-0.01 -0.06  1.70  W  0.122 4.64  27   2.51 D                         
 CAO  NC EHZ -- C 15.2  86 108  PU    47.79  3.16  3.26-0.10  0.00  1.70  W  0.139 5.62  31   2.45 D                         
 CML  NC EHZ -- C 15.9  17 107  PD    48.08  3.45  3.37 0.10 -0.02  1.70  W  0.119 2.82  21   2.47 D                         
 JST  NC EHZ -- J 17.1 209 104  PD    48.39  3.76  3.58 0.23 -0.05  1.70  W  0.101 5.62  33   2.51 D                         
 JLAB NC EHZ -- J 20.9 188  98  PD 1  48.99  4.36  4.20 0.22 -0.06  0.85  W  0.019 4.64  33   2.70 D                         
 CADB NC EHZ -- C 20.9 160  98  PD    49.21  4.58  4.20 0.39 -0.01  1.70  W  0.084 4.64  15   2.44 D                         
 CMM  NC EHZ -- C 22.7  55  96  PU    49.12  4.49  4.51-0.02  0.00  1.70  W  0.120 5.62  21   2.19 D                         
 JAL  NC EHZ -- J 23.9 212  94  PD    49.50  4.87  4.72 0.17 -0.02  1.70  W  0.066 2.82  25   2.59 D                         
 CMJ  NC EHZ -- C 24.8 324  93  PD    49.50  4.87  4.87 0.02 -0.02  1.70  W  0.071 5.62  34   2.66 D                         
 JUM  NC EHZ -- J 26.3 221  93  PD 1  49.93  5.30  5.13 0.16  0.01  0.85  W  0.015 0.20  29   3.69 D                         
 JSS  NC EHZ -- J 27.6 227  90  PD    50.09  5.46  5.35 0.10  0.01  1.70  W  0.058 2.82  23   2.50 D                         
 JHL  NC EHZ -- J 28.1 205  90  PD    50.19  5.56  5.43 0.15 -0.02  1.70  W  0.056 2.82  23   2.60 D                         
 JJO  NC EHZ -- J 28.3 239  91  PD 2  50.31  5.68  5.47-0.04  0.25  0.15  W  0.000 4.64  11   1.61 D                         
 HSP  NC EHZ -- H 30.1 146  89  PU    50.37  5.74  5.77 0.06 -0.09  1.70  W  0.084 5.62  33   2.48 D                         
 JSGB NC EHZ -- J 31.2 259  88  PU    51.05  6.42  5.95 0.51 -0.04  1.70  W  0.056 1.33  39   2.60 D                         
 WENL BK HHZ -- C 31.6 352  87  PD 1  50.76  6.13  6.03 0.00  0.10  0.85  I  0.020 0.00   5 4 0.73XD                         
 JBR  NC EHZ -- J 32.9 236  85  PD    51.06  6.43  6.25 0.07  0.11  1.70  W  0.052 4.64  35   2.58 D                         
 CVL  NC EHZ -- C 33.5 340  85  PD    51.24  6.61  6.34 0.35 -0.08  1.70  W  0.075 5.62  39   2.61 D                         
 JECB NC EHZ -- J 33.6 196  85  PD    51.10  6.47  6.36 0.18 -0.07  1.70  W  0.054 4.64  21   2.34 D                         
 HLP  NC EHZ -- H 33.9 168  85  PD    51.16  6.53  6.41 0.10  0.02  1.70  W  0.068 1.41  25   2.61 D                         
 JSJ  NC EHZ -- J 34.3 269  84  PU    51.47  6.84  6.48 0.41 -0.05  1.70  W  0.055 1.41  25   2.80 D                         
 CMP  NC EHZ 03 C 34.4  86  84  P     50.91  6.28  6.49-0.18 -0.03  1.70  W  0.136 2.82  15   2.12 D                         
 COS  NC EHZ 02 C 34.7  57  84  PU 1  51.16  6.53  6.54-0.05  0.04  0.85  W  0.033 2.82  17   2.22 D                         
 HGS  NC EHZ 02 H 35.5 139  83  PU 1  51.08  6.45  6.69-0.16 -0.08  0.85  W  0.024 5.62  21   2.27 D                         
 CSA  NC EHZ -- C 36.8   0  82  PD 1  51.85  7.22  6.90 0.32  0.00  0.85  W  0.023 1.41  15   2.06 D                         
 JBZ  NC EHZ -- J 37.2 196  82  PD    52.02  7.39  6.98 0.42 -0.01  1.70  W  0.055 2.82  51   2.98 D                         
 CNI  NC EHZ -- C 37.5 323  82  PD 2  51.58  6.95  7.02 0.01 -0.08  0.34  W  0.002 2.82  23   2.47 D                         
 JSC  NC EHZ -- J 37.6 261  82  PU    51.66  7.03  7.04-0.01  0.00  1.70  W  0.053 2.82  23   2.47 D                         
 57202CE EHZ -- C 37.8  29  82  PD    51.97  7.34  7.07 0.36 -0.09  1.70  W  0.122 0.00  35   2.65 D                         
 JTG  NC EHZ -- J 37.9 204  82  PD    52.13  7.50  7.09 0.41  0.00  1.70  W  0.053 2.82  37   2.70 D                         
 JBMB NC EHZ -- J 39.7 267  80  PU    52.03  7.40  7.40 0.02 -0.02  1.70  W  0.054 4.64  23   2.57 D                         
 CPP  NC EHZ 03 C 40.0   2  80  PD 1  52.56  7.93  7.45 0.00  0.48  0.00  W  0.000 1.41  23   2.98 D                         
 HCA  NC EHZ -- H 40.1 150  80  PD    52.52  7.89  7.47 0.05  0.37  0.00  W  0.000 5.62  27   2.38 D                         
 JPL  NC EHZ -- J 41.9 196  79  PD 1  52.87  8.24  7.76 0.48  0.00  0.85  W  0.014 2.82  43   2.67 D                         
 JSFB NC EHZ -- J 42.2 280  79  PU    52.37  7.74  7.82-0.02 -0.06  1.70  W  0.057 4.64  58   2.79 D                         
 JFP  NC EHZ -- J 43.0 274  78  PU    52.47  7.84  7.94-0.07 -0.03  1.70  W  0.056 4.64  29   2.65 D                         
 CGP1 NC HN1 -- C 43.3 322  78  PU 3  52.64  8.01  7.99 0.07 -0.05  0.17  W  0.000 0.00   3 4                                
 JHU  NC EHZ -- J 43.6 252  78  PU    52.86  8.23  8.05 0.14  0.04  1.70  W  0.054 4.64  43   2.72 D                         
 HCR  NC EHZ -- H 44.0 165  78  PD    52.69  8.06  8.11-0.06  0.01  1.70  W  0.080 5.62  25   2.49 D                         
 JJR  NC EHZ -- J 44.0 271  78  PU    52.71  8.08  8.12-0.02 -0.02  1.70  W  0.056 2.82  31   2.64 D                         
 CDOB NC EHZ -- C 44.6 346  77  PD 1  53.52  8.89  8.21 0.81 -0.13  0.85  W  0.022 4.64  35 1 2.50 D                         
 CBP  NC EHZ -- C 45.2   0  77  PU    53.71  9.08  8.31 0.60  0.17  1.70  W  0.105 4.64  44   2.92 D                         
 HCB  NC EHZ -- H 45.6 175  77  PD    53.28  8.65  8.38 0.24  0.03  1.70  W  0.073 2.82  23   2.33 D                         
 JPC  NC EHZ -- J 45.6 261  77  PU    53.13  8.50  8.38 0.12  0.00  1.70  W  0.055 4.64  41   2.58 D                         
 JBN  NC EHZ -- J 46.7 240  76  PU 3  53.14  8.51  8.57-0.09  0.03  0.17  W  0.000 0.20  17   1.64XD                         
 JELB NC EHZ -- J 47.1 194  76  PD    53.75  9.12  8.63 0.00  0.49  0.00  W  0.000 1.73  40   2.49 D                         
 JRSC BK HHZ -- J 47.6 279  76  PU 2  52.94  8.31  8.72 0.00 -0.41  0.00  I  0.000 0.00  51   3.03 D                         
 HFE  NC EHZ 02 H 48.0 145  76  PD 2  53.39  8.76  8.77-0.18  0.17  0.34  W  0.004 2.82  19   2.34 D                         
 JUC  NC EHZ 02 J 48.5 220  76  PD 3  53.53  8.90  8.86 0.05 -0.01  0.17  W  0.000 5.62  23   2.41 D                         
 HPC  NC EHZ -- H 49.3 129  76  PU 1  53.36  8.73  8.98-0.25  0.00  0.85  W  0.030 2.82   3 4 0.63XD                         
 HOR  NC EHZ -- H 49.8 160  76  PU 1  53.93  9.30  9.07 0.08  0.15  0.85  W  0.022 2.82  35 1 2.55 D                         
 HAZ  NC EHZ -- H 51.6 168  75  PD 1  54.36  9.73  9.38 0.33  0.02  0.85  W  0.020 2.82   3 4 0.58XD                         
 CMOB NC EHZ -- C 52.8 351  75  P  1  55.13 10.50  9.57 0.90  0.03  0.85  W  0.025 4.64  27   2.44 D                         
 CBS  NC EHZ -- C 53.2   6  75  PD    54.95 10.32  9.64 0.67  0.01  1.70  W  0.115 2.82  39   2.84 D                         
 JHP  NC EHZ -- J 54.2 283  75  PU    54.24  9.61  9.80-0.20  0.01  1.69  W  0.061 2.82  27   2.57 D                         
 CLCB NC EHZ -- C 54.3 325  75  PU    54.56  9.93  9.82 0.16 -0.05  1.69  W  0.079 4.64  35   2.73 D                         
 CSL  NC EHZ -- C 56.1 320  75  PD 3  54.80 10.17 10.11-0.07  0.13  0.17  W  0.000 0.20  19   2.13XD                         
 HBT  NC EHZ -- H 56.1 165  75  PD 2  55.25 10.62 10.12 0.48  0.02  0.34  W  0.003 1.41   3 4 0.75XD                         
 JBG  NC EHZ -- J 56.2 271  75  PU    54.94 10.31 10.13 0.07  0.11  1.68  W  0.057 4.64  40   2.53 D                         
 CCH1 NC HN1 -- C 56.5 323  75  P  3  54.84 10.21 10.17 0.14 -0.10  0.17  W  0.000 0.00   5 4                                
 JPSB NC EHZ -- J 59.0 255  75  PU 1  55.15 10.52 10.59-0.03 -0.04  0.82  W  0.013 4.64  35   2.50 D                         
 HER  NC EHZ -- H 60.2 181  75  PD 1  55.61 10.98 10.79 0.22 -0.03  0.80  W  0.016 1.41  23   2.42 D                         
 HSF  NC EHZ 02 H 61.0 162  75  PD 2  56.46 11.83 10.92 0.84  0.07  0.32  W  0.003 2.82  23 1 2.30 D                         
 JCP  NC EHZ -- J 61.2 297  75  PD 2  55.18 10.55 10.95-0.42  0.02  0.32  W  0.002 1.41  17   2.58 D                         
 HJG  NC EHZ -- H 61.3 169  75  PD    55.83 11.20 10.97 0.18  0.05  1.58  W  0.070 5.62  19   2.32 D                         
 HLT  NC EHZ -- H 61.7 145  75  PD 1  55.71 11.08 11.03-0.24  0.29  0.01  W  0.000 2.82   3 4 0.44XD                         
 JCH  NC EHZ -- J 62.6 289  75  PD 2  55.65 11.02 11.18-0.42  0.26  0.09  W  0.000 0.20  17 1 2.11XD                         
 CRH  NC EHZ -- C 62.8 337  75  PU    56.78 12.15 11.22 0.82  0.11  1.54  W  0.072 4.64  36   2.71 D                         
 HSL  NC EHZ 02 H 65.6 122  75  PU 2  56.36 11.73 11.68 0.00  0.05  0.29  W  0.003 2.82  25   2.39 D                         
 CRPB NC EHZ -- C 65.9 345  75  P  2  56.67 12.04 11.73 0.26  0.05  0.29  W  0.002 4.64  29   2.48 D                         
 OXMT BK EP1 --   66.0 286  75  PU 3  55.80 11.17 11.75 0.00 -0.58* 0.00  I  0.000 0.00   5 4                                
 HFP  NC EHZ -- H 67.9 163  75  PD    56.91 12.28 12.06 0.24 -0.02  1.36  W  0.05611.22  27   2.49 D                         
 SAO  BK HHZ -- B 68.0 160  75  PD    57.27 12.64 12.08 0.27  0.29  0.01  I  0.000 0.00  29 3 2.51 D                         
 JSA  NC EHZ -- J 68.6 294  75  PU 2  56.24 11.61 12.18-0.50 -0.07  0.27  W  0.001 4.64  25   2.55 D                         
 JGR  NC EHZ -- J 69.4 287  75  PD    56.35 11.72 12.31-0.41 -0.18  1.30  W  0.036 4.64  25   2.58 D                         
 BSL  NC EHZ -- B 70.2 153  75  PU 1  59.56 14.93 12.43 0.37  2.13* 0.00  W  0.000 1.41  29   2.49 D                         
 BVY  NC EHZ -- B 70.8 158  75  PD    57.77 13.14 12.55 0.55  0.04  1.24  W  0.04811.22  31   2.52 D                         
 JSB  NC EHZ -- J 71.6 302  75  PU 3  56.78 12.15 12.67-0.60  0.08  0.12  W  0.000 0.20  19   2.08XD                         
 SBRN BK EP1 -- J 73.2 302  75  PU 3  56.95 12.32 12.93 0.00 -0.61* 0.00  I  0.000 0.00  19                                  
 BRIB BK HHZ -- C 75.3 329  75  PU 2  58.25 13.62 13.28 0.00  0.34  0.00  I  0.000 0.00  25   2.38 D                         
 JSP  NC EHZ -- J 75.6 292  75  PU 1  57.44 12.81 13.32-0.57  0.06  0.51  W  0.005 4.64  24   2.52 D                         
 JMGB NC EHZ -- J 75.6 297  75  PD 2  57.33 12.70 13.32-0.44 -0.18  0.20  W  0.000 4.64  23 1 2.58 D                         
 BSR  NC EHZ -- B 76.5 167  75  PD 1  57.98 13.35 13.48-0.08 -0.05  0.48  W  0.006 5.62  33   2.75 D                         
 BRK  BK HHZ -- C 76.8 321  75  PU 1  58.39 13.76 13.53 0.00  0.23  0.35  I  0.003 0.00   7 4 1.15XD                         
 BCG  NC EHZ -- B 77.1 155  75  PU 2  59.01 14.38 13.58 0.46  0.34  0.00  W  0.000 2.82   5 4 0.99XD                         
 CYB  NC EHZ -- C 77.8 313  75  PD 2  58.13 13.50 13.69-0.44  0.25  0.08  W  0.000 0.20   7 4 1.31XD                         
 BHR  NC EHZ -- B 78.5 150  75  PD 1  59.03 14.40 13.81 0.09  0.50* 0.00  W  0.000 2.82   9 4 1.33XD                         
 HMOB NC EHZ -- H 84.4 194  75  PD    59.21 14.58 14.79-0.23  0.02  0.57  W  0.007 2.82  23   2.85 D                         
 JPR  NC EHZ -- J 84.6 307  75  PU 3  59.02 14.39 14.82-0.40 -0.03  0.06  W  0.000 4.64   5 4 0.92XD                         
 RFSB BK DP1 -- C 84.7 320  75  P  2  57.18 12.55 14.83 0.00 -2.28* 0.00  I  0.000 0.55  11 4                                
 CPI  NC EHZ -- C 84.8 329  75  PU 3  59.83 15.20 14.86 0.17  0.17  0.05  W  0.000 0.20   9 4 1.15XD                         
 CAG  NC EHZ -- C 85.4 313  75  P  1  59.28 14.65 14.95-0.28 -0.02  0.26  W  0.001 4.64  31   2.63 D                         
 BPC  NC EHZ -- B 85.5 175  75  PD    59.58 14.95 14.96 0.03 -0.04  0.52  W  0.007 5.62  31   2.51 D                         
 CSP  NC EHZ -- C 86.8 323  75  PU 2  60.12 15.49 15.18 0.17  0.14  0.09  W  0.000 1.41   7 4 1.46XD                         
 MHDL BK EP1 -- N 89.2 309  75  PU 2  59.67 15.04 15.57 0.00 -0.53* 0.00  I  0.000 0.00   5 4                                
 CPM  NC EHZ -- C 91.7 318  75  PU 2  60.32 15.69 15.98-0.43  0.14  0.05  W  0.000 0.20   5 4 0.87XD                         
 NRL  NC EHZ -- N 91.7 308  75  PD    60.15 15.52 15.99-0.52  0.05  0.26  W  0.001 1.41  23 1 2.81 D                         
 BRM  NC EHZ -- B 95.7 124  75  PU 1  62.07 17.44 16.65 0.26  0.53* 0.00  W  0.000 2.82  25   2.29 D                         
 BVL  NC EHZ -- B 96.6 151  74  PD 1  61.96 17.33 16.80 0.10  0.43  0.00  W  0.00011.22  35 1 2.42 D                         
 NCC  NC EHZ -- N 99.9 318  73  PU 2  61.52 16.89 17.34 0.00 -0.45  0.00  W  0.000 0.00  27   2.48 D                         
 NTAC NC EHZ -- N101.8 310  72  P  2  61.51 16.88 17.65 0.00 -0.77* 0.00  W  0.000 4.64  27   2.84 D                         
 BBG  NC EHZ -- B103.4 144  67  PD 1  63.20 18.57 17.92 0.17  0.48  0.00  W  0.000 2.82   7 4 1.05XD                         
 BPR  NC EHZ -- B103.6 182  65  PD 1  62.34 17.71 17.96-0.17 -0.08  0.00  W  0.000 5.62   3 4 0.44XD                         
 HAST BK HHZ --  106.6 172  53  PD 2  62.68 18.05 18.38 0.00 -0.33  0.00  I  0.000 0.00  43 1 2.93 D                         
 NHF  NC EHZ -- N106.7 318  52  PD 2  62.79 18.16 18.41-0.78  0.53* 0.00  W  0.000 0.20   5 4 0.85XD                         
 NBO  NC EHZ -- N110.2 307  50  P  3  62.84 18.21 18.84 0.00 -0.63* 0.00  W  0.000 0.20   5 4 1.00XD                         
 BMS  NC EHZ -- B110.7 132  50  PD 2  63.45 18.82 18.91-0.05 -0.04  0.00  W  0.000 5.62  37   2.63 D                         
 BPO  NC SHZ -- B123.6 183  50  PU    65.64 21.01 20.61-0.67  1.07* 0.00  W  0.000 5.62   5 4 1.11XD                         
 NOLB NC EHZ -- N123.8 310  50  P  1  65.20 20.57 20.64-0.54  0.47  0.00  W  0.000 4.64  47   2.76 D                         
 NHV  NC EHZ -- N127.5 317  50  PD    65.90 21.27 21.12 0.00  0.15  0.00  W  0.000 4.64  11 4 1.88XD                         
 NEA  NC EHZ -- N153.1 316  50  PU 1  70.56 25.93 24.49 0.00  1.44* 0.00  W  0.000 4.64   7 4 1.45XD                         
 MHD  NC EHZ -- M162.6  98  50  PD 2  70.53 25.90 25.74-0.46  0.62* 0.00  W  0.000 5.62   3 4 0.43XD                         
 EMB  NN SHZ -- U229.4  37  50  PU 1  81.05 36.42 34.52 0.00  1.90* 0.00  W  0.00011.22   3 4 0.15XD                         
 ####################################################################################
