NLLOC "./loc/vinti.19950421.080259.grid0" "LOCATED" "Location completed."
SIGNATURE "Anthony Lomax - Geosciences Azur   NLLoc:v2.30 21May2001 10h45m56"
COMMENT "1995 Vintimiglia Sequence (NonLinLoc Sample Location)"
GRID  101 101 21  -50.000000 -50.000000 0.000000  1.000000 1.000000 1.000000 PROB_DENSITY
SEARCH OCTREE nInitial 400 nEvaluated 10000 smallestNodeSide 0.156250
HYPOCENTER  x 4.843750 y 6.093750 z 9.765625  OT 57.042699  ix -1 iy -1 iz -1
GEOGRAPHIC  OT 1995 04 21  08 02 57.042699  Lat 43.804836 Long 7.560198 Depth 9.765625
QUALITY  Pmax 1.385e-01 MFmin 0.574033 MFmax 6.463821 RMS 0.138245 Nphs 12 Gap 177 Dist 9.030267 Mamp -9.90 0 Mdur  0.00 0
VPVSRATIO  VpVsRatio 5.000e-01  Npair 2  Diff 1.000e-00
STATISTICS  ExpectX 5.0214e+00 Y 5.9040e+00 Z 8.7047e+00  CovXX 3.65e-01 XY -1.17e-01 XZ 4.83e-01 YY 1.70e+00 YZ -2.23e-01 ZZ 1.22e+01 EllAz1  85.5 Dip1  -2.2 Len1  1.09e+00 Az2  355.5 Dip2  1.4 Len2  2.45e+00 Len3  6.58e+00
STAT_GEOG  ExpectLat 43.803127 Long 7.562404 Depth 8.704745
TRANSFORM  LAMBERT RefEllipsoid Clarke-1880  LatOrig 43.750000  LongOrig 7.500000  FirstStdParal 43.199300  SecondStdParal 44.996100  RotCW 0.000000
PHASE ID Ins Cmp On Pha  FM Date     HrMn   Sec     Err  ErrMag    Coda      Amp       Per      >   TTpred    Res       Weight    StaLoc(X  Y         Z)        SDist    SAzim  RAz   RDip  RQual
RONE   ?    ?    ? P      U 19950421 0802   59.4400 GAU  1.00e-01 -1.00e+00 -1.00e+00 -1.00e+00 >    2.4928   -0.0955    1.1600    7.8887   14.5952   -0.3000    9.0303  19.71  19.7 133.9  9
SBF    ?    ?    ? P      ? 19950421 0803    0.2600 GAU  1.00e-01 -1.00e+00 -1.00e+00 -1.00e+00 >    2.9930    0.2243    1.1600   -5.2384   12.6113   -0.8470   12.0053 302.88 302.9 124.0  9
NEGI   ?    ?    ? P      U 19950421 0803    0.0200 GAU  1.00e-01 -1.00e+00 -1.00e+00 -1.00e+00 >    3.0178   -0.0805    1.1600   16.3893   10.8705   -0.6400   12.4947  67.52  67.5 122.6  9
REVF   ?    ?    ? P      ? 19950421 0803    0.6700 GAU  1.00e-01 -1.00e+00 -1.00e+00 -1.00e+00 >    3.6986   -0.0713    1.1600  -10.6730   -1.1024   -0.7000   17.1042 245.12 245.1 114.4  9
CEPP   ?    ?    ? P      U 19950421 0803    1.1400 GAU  1.00e-01 -1.00e+00 -1.00e+00 -1.00e+00 >    4.1277   -0.0304    1.1600   19.7971   18.5085   -1.0800   19.4352  50.30  50.3 111.7  9
AURF   ?    ?    ? P      ? 19950421 0803    1.3900 GAU  1.00e-01 -1.00e+00 -1.00e+00 -1.00e+00 >    4.3352    0.0121    1.1600  -13.8607   15.2716   -1.0400   20.8348 296.14 296.1 110.1  9
AUTN   ?    ?    ? P      ? 19950421 0803    2.0400 GAU  1.00e-01 -1.00e+00 -1.00e+00 -1.00e+00 >    4.9840    0.0133    1.1600   -5.8149   27.2765   -2.0690   23.7132 333.29 333.3 108.0  9
IMI    ?    ?    ? P      ? 19950421 0803    2.7700 GAU  1.00e-01 -1.00e+00 -1.00e+00 -1.00e+00 >    5.6193    0.1080    1.1600   31.5793   17.9062   -0.8400   29.2288  66.16  66.2 102.9  9
TOUF   ?    ?    ? P      ? 19950421 0803    3.5500 GAU  1.00e-01 -1.00e+00 -1.00e+00 -1.00e+00 >    6.5953   -0.0880    1.1600  -20.1791   29.3046   -1.8500   34.1304 312.85 312.8  99.8  9
TOUF   ?    ?    ? S      ? 19950421 0803    7.6500 GAU  5.00e-01 -1.00e+00 -1.00e+00 -1.00e+00 >   11.0801   -0.4728    0.2000  -20.1791   29.3046   -1.8500   34.1304 312.85 312.8  99.8  9
MVIF   ?    ?    ? P      ? 19950421 0803    3.5800 GAU  1.00e-01 -1.00e+00 -1.00e+00 -1.00e+00 >    6.5553   -0.0180    1.1600  -27.9180   16.3343   -1.4800   34.3249 287.36 287.4  99.4  9
MVIF   ?    ?    ? S      ? 19950421 0803    8.6800 GAU  5.00e-01 -1.00e+00 -1.00e+00 -1.00e+00 >   11.0129    0.6244    0.2000  -27.9180   16.3343   -1.4800   34.3249 287.36 287.4  99.4  9
END_PHASE
END_NLLOC

